id,address,cluster,email,fname,latitude,lname,longitude,password,pharmacy_name,phone,state,willaya
1,34 Washington Lane,36,htooley0@europa.eu,Holmes,37.9121164666,Tooley,2.0680795822,CSqEXGE,Skidoo,+7 991 447 7903,b'\x00',Krivyanskaya
2,33728 Fremont Junction,39,scrackel1@spiegel.de,Savina,36.3889986362,Crackel,3.1723912311,eEtOSV,Devbug,+234 563 895 0541,b'\x01',Omoku
3,496 Hollow Ridge Pass,26,lsteeples2@oracle.com,Louella,36.1918799868,Steeples,4.3364324131,dlsIVmdmZbr4,Skajo,+63 534 122 7836,b'\x00',Santa Lucia
4,99 Delladonna Trail,26,dtaffarello3@bloglines.com,Doreen,36.0584661229,Taffarello,5.2362687713,QfyWjknXIM3,Mita,+30 547 789 4603,b'\x00',Pappadtes
5,06 Monterey Junction,23,sculligan4@reverbnation.com,Sosanna,32.2765476284,Culligan,7.8127784928,LeFJq3SYGBsT,Snaptags,+63 722 704 2147,b'\x00',Pimbalayan
6,787 Pleasure Plaza,4,cnoble5@omniture.com,Catina,33.1102275603,Noble,4.2646281593,wxcaYimHDq4B,Pixoboo,+1 469 745 5366,b'\x00',Pemberton
7,5 Evergreen Court,32,bwandtke6@vinaora.com,Bette,33.9177639983,Wandtke,5.3577733359,zBeUP9yz8SR,Photospace,+62 159 927 6102,b'\x01',Mander
8,98 Weeping Birch Terrace,20,gfalco7@istockphoto.com,Gaultiero,33.0479514861,Falco,4.6932240842,zNDoIbL,Livepath,+62 635 322 9736,b'\x01',Blangpulo
9,03351 Division Crossing,29,kyeliashev8@squarespace.com,Karel,38.4470699748,Yeliashev,8.2778157388,TSYmngNCgz,Yozio,+62 825 538 5053,b'\x00',Wates
10,6 Carioca Circle,20,dgeorgelin9@sphinn.com,Devonne,32.9496909265,Georgelin,4.7465530892,IuRNV5TOYQ,Layo,+380 184 488 1296,b'\x00',Uhryniv
11,82 Westport Alley,8,dhindesa@cpanel.net,Doe,34.6658837966,Hindes,2.5443946496,PkABcyEpUv,Skinder,+20 281 425 0749,b'\x01',Sd Slim
12,7 Monument Park,18,mbuddb@printfriendly.com,Marena,38.5806810403,Budd,4.465306578,7Yl6v3mKa,Fivebridge,+81 110 556 0237,b'\x00',Komono
13,5 Ludington Drive,13,fliepinac@addthis.com,Ferdinanda,38.0391712323,Liepina,8.78837825,Aa9NJPJ7WJ,Rhynoodle,+62 957 314 2643,b'\x00',Watubura
14,4 Hooker Road,25,mbeddoesd@msu.edu,Maybelle,36.8345443065,Beddoes,7.001906105,vchc4pZsQL,Yacero,+55 508 110 0163,b'\x00',Barreiros
15,69058 Oriole Center,22,adisburye@usda.gov,Augustine,37.8657735129,Disbury,3.2745195903,7GXc9UMBPgBi,Shufflester,+36 685 736 6628,b'\x00',Zselickislak
16,3937 Northland Plaza,0,nhearmonf@miibeian.gov.cn,Nathalie,34.6655291965,Hearmon,5.7877945009,Uk3VgH2k47,Podcat,+86 410 776 3225,b'\x01',Kongtian
17,2996 Kipling Crossing,37,rpayleg@webs.com,Rosamond,34.4764910282,Payle,2.9407680482,8HQ3NMyyeGm,Plajo,+7 846 578 5858,b'\x01',Gusinoozyorsk
18,00 Clarendon Park,3,karrighih@ocn.ne.jp,Konstantin,34.4543593551,Arrighi,7.4041992126,BuY9EV3CjWQ,Realblab,+62 794 494 2747,b'\x00',Sokobanteng
19,7834 Waywood Hill,14,caucocki@bluehost.com,Callida,37.1277256405,Aucock,2.6656566092,4lfcnoLx9j,Vimbo,+1 330 245 8008,b'\x01',Youngstown
20,09 Banding Avenue,17,probilliardj@geocities.com,Petunia,36.1590577221,Robilliard,7.7743043067,kK36NKzn6yoU,Thoughtstorm,+84 208 604 1883,b'\x00',Nam Sch
21,48209 Clove Court,1,jbraink@indiatimes.com,Jennee,35.1494938923,Brain,8.9651342418,e4Kb0nP,Yodoo,+54 971 602 6327,b'\x01',Casilda
22,99260 Porter Hill,29,zlarhaml@instagram.com,Zaccaria,38.9216313796,Larham,8.3774275776,7FbEERB8,Tagpad,+353 663 725 5766,b'\x00',Listowel
23,10 Glacier Hill Parkway,14,jeglingtonm@tinypic.com,Joanne,37.3487467017,Eglington,2.9143130265,9dOqencVhX,Yambee,+967 910 499 7216,b'\x01',Ar Raw
24,35754 Dahle Lane,18,iguttridgen@yahoo.com,Idette,38.6023009279,Guttridge,4.6716158359,N9om8Plfg,Skimia,+46 542 650 0302,b'\x01',Katrineholm
25,3732 Prairie Rose Pass,26,dfoxworthyo@reference.com,Drucill,36.2609714752,Foxworthy,4.3133984527,XtVUPW,Vidoo,+7 400 141 5970,b'\x00',Onega
26,73791 Orin Point,11,koraffertyp@discuz.net,Kristian,32.8605622642,O'Rafferty,6.1167435153,5fzGvruyrBlX,Pixoboo,+48 627 558 3907,b'\x01',Czerwin
27,38 Hagan Avenue,1,caxelbeeq@prlog.org,Cos,34.7430821516,Axelbee,8.925274199,SEMO8hZVdyz,Trunyx,+381 735 151 3426,b'\x00',Sombor
28,78985 Northport Terrace,33,alanchberyr@google.com.hk,Aldis,37.0036927112,Lanchbery,4.8079479098,zZVitH,Browsedrive,+7 828 423 2155,b'\x01',Naro-Fominsk
29,87 Artisan Lane,15,acoomess@ted.com,Andree,33.8951782772,Coomes,8.3119614627,slXcoRJU,Riffpath,+81 457 720 4921,b'\x01',Ninomiya
30,6233 Bluejay Crossing,35,amoyt@amazon.com,Abraham,33.9651764413,Moy,3.4234625864,1c1kl297,Tavu,+86 635 408 9011,b'\x01',Sandouping
31,1 Moland Street,16,emaykinu@reverbnation.com,Ernesto,34.9683591375,Maykin,4.3258004081,s9kgbv,Flipstorm,+375 269 795 6024,b'\x01',Prawdzinski
32,276 Homewood Way,24,cmoralv@biglobe.ne.jp,Calley,35.2364937767,Moral,2.8823410036,FISnqS,Skivee,+55 380 925 1508,b'\x01',Governador Valadares
33,20290 Kensington Pass,4,belloyw@cmu.edu,Ban,33.213498962,Elloy,4.4022375779,RQlMf9Qg,Babbleblab,+81 191 176 8472,b'\x00',Kikuchi
34,209 Hoard Street,13,aabelesx@mit.edu,Allen,38.4935252059,Abeles,8.7071277576,9U5o8aD,Flashspan,+230 837 548 9829,b'\x00',Poste de Flacq
35,51 Sullivan Court,1,twaymany@examiner.com,Tobye,35.4180358249,Wayman,8.5277358288,VWyBOdQ,Mita,+62 590 141 6212,b'\x00',Desa Kertasari
36,52965 Bowman Alley,27,channeyz@newsvine.com,Cherianne,32.0632826843,Hanney,7.1705760043,mkfYn1amd77,Muxo,+86 834 676 6785,b'\x01',Nanxing
37,54203 Lakewood Trail,30,chealy10@123-reg.co.uk,Carla,36.7117280244,Healy,2.0528673184,SJAqPufCGV,Shufflebeat,+31 172 974 8641,b'\x00',Kerkrade
38,82 Mariners Cove Pass,16,gcoskerry11@thetimes.co.uk,Geri,34.9033172873,Coskerry,4.181046475,ST2oGG,Livepath,+48 589 211 2858,b'\x01',Wadysawowo
39,15 Walton Hill,16,lshanks12@un.org,Lion,35.6943547926,Shanks,4.2591378927,ZvmT9HX,Realcube,+62 989 976 6680,b'\x01',Beringin
40,32 Moose Junction,26,fcoppen13@domainmarket.com,Florentia,35.9875240137,Coppen,5.3615889733,IiRHN7GIi,Realcube,+55 277 912 6942,b'\x01',Itapemirim
41,4331 Westend Hill,1,mmorecomb14@bigcartel.com,Madelaine,35.5681467864,Morecomb,8.8828218235,ftDFxOXp4x,Realpoint,+92 939 687 1769,b'\x00',Minwli
42,61556 Evergreen Way,29,craund15@irs.gov,Clarine,38.7258890578,Raund,8.3085915305,HFXMPc7R,Dabtype,+7 707 976 9812,b'\x00',Vorontsovka
43,71 Tennessee Center,8,sskelding16@deliciousdays.com,Steward,33.7761924372,Skelding,2.1562029715,XHTzcFKFBx,Voonder,+1 202 886 6625,b'\x01',Washington
44,2923 Westend Avenue,26,stappington17@prweb.com,Shannah,36.3758935288,Tappington,4.6130358106,gZq8fwK2Mq4,Skalith,+86 770 605 2193,b'\x00',Yanggu
45,1 Memorial Lane,40,egrute18@utexas.edu,Emmalyn,32.0411415348,Grute,4.3175054872,oVz924xE,Wikibox,+86 803 106 4602,b'\x01',Heshi
46,8 Anzinger Avenue,44,hmcquade19@cisco.com,Humbert,33.0174002932,McQuade,5.5803874816,UqbbKAKxdGF,Meemm,+66 982 378 5900,b'\x01',Bang Lamung
47,67362 Lillian Park,11,lnoah1a@angelfire.com,Lucita,32.6884739303,Noah,6.2650273304,TXN10k,Edgeify,+1 513 406 9009,b'\x00',Cincinnati
48,43 Sommers Circle,18,fjozaitis1b@blogs.com,Farly,38.3197830142,Jozaitis,4.8777905055,N9WRSjU7nI,Wikizz,+55 235 918 8400,b'\x01',Itanham
49,27 Fairview Plaza,15,oscoffins1c@yahoo.co.jp,Olivette,34.0319345768,Scoffins,7.936073152,dzEthhW9,Mita,+7 294 836 0146,b'\x01',Sarkand
50,94 Fairview Trail,1,pkaine1d@earthlink.net,Padriac,35.5242727114,Kaine,8.7210109557,iRmpRvLb,Wikido,+54 609 952 5800,b'\x01',Villa Nueva
51,66 Sauthoff Pass,6,rsparry1e@stanford.edu,Rolando,38.5992151455,Sparry,2.9420777374,vI7GufuEB,Devbug,+46 595 145 6354,b'\x01',Stockholm
52,39310 Badeau Drive,19,zfery1f@twitpic.com,Zulema,33.7836666717,Fery,5.9697365702,VHVjWa8jv,Babbleblab,+62 510 628 8249,b'\x00',Padasuka
53,102 Fairfield Parkway,2,nosbaldstone1g@pinterest.com,Natasha,38.3693754922,Osbaldstone,5.4153092228,UXB6Gm,Thoughtsphere,+55 911 667 2521,b'\x00',Limoeiro do Ajuru
54,442 Dovetail Lane,17,bskarin1h@hp.com,Bron,35.9505457325,Skarin,8.126259027,bkU1mI7T818,Twimm,+381 711 827 2352,b'\x00',Aranelovac
55,628 Waxwing Point,13,jtopliss1i@uol.com.br,Jemimah,37.3672918791,Topliss,8.3087560491,38SVDj2ri,DabZ,+49 628 544 1838,b'\x01',Offenbach
56,78 Esch Lane,12,acouroy1j@ebay.co.uk,Amandi,33.0773192514,Couroy,3.7700187356,FzvO1AwlNZHw,Thoughtsphere,+51 387 954 7986,b'\x01',Amashca
57,2 Swallow Alley,18,kfieldstone1k@ucsd.edu,Kikelia,38.5253840931,Fieldstone,4.6426277639,6C8KKhHN,Photospace,+380 159 693 3123,b'\x01',Kapitanivka
58,1603 Linden Junction,10,sdislee1l@pagesperso-orange.fr,Sonny,37.0703355057,Dislee,4.0337841431,akTsDm,Livefish,+374 748 407 7557,b'\x00',Noramarg
59,17072 Melrose Junction,38,sducastel1m@kickstarter.com,Sabrina,36.3816282055,Ducastel,6.0383799812,YjELpH1,Flashset,+386 659 281 3841,b'\x01',Grosuplje
60,4 Elgar Drive,26,abelvin1n@barnesandnoble.com,Alethea,36.2980039399,Belvin,4.5884728463,eiE9Y59i,Twitterlist,+62 106 465 5329,b'\x00',Umpak
61,9 Mccormick Junction,43,grumin1o@gmpg.org,Gizela,34.3721243048,Rumin,5.9470893055,ANYdSp5,Oodoo,+55 184 117 3971,b'\x01',Ibi
62,53 Annamark Alley,20,jantoniazzi1p@ucoz.ru,Jeffry,32.162316874,Antoniazzi,5.3834100475,pWbHvwDfa,Eimbee,+49 803 668 3942,b'\x01',Berlin
63,988 Carioca Trail,12,fpoznanski1q@pen.io,Fidel,32.9644230803,Poznanski,3.3397585064,g53FO2fOXs,Brightbean,+1 916 266 5169,b'\x00',Sacramento
64,773 Eagle Crest Plaza,45,troelofs1r@rediff.com,Trude,37.7620657073,Roelofs,6.6272261204,Mdkx7Xx,Skinte,+33 964 760 5639,b'\x00',Bressuire
65,72 Maple Park,0,sghiraldi1s@cornell.edu,Shepperd,34.7211207124,Ghiraldi,5.7580775254,eFlXknuc,Skipfire,+33 443 427 3526,b'\x01',Lyon
66,8870 Westport Center,9,abrobak1t@pcworld.com,Amandi,36.2523884529,Brobak,6.679686647,o3wYtWUEvOe3,Avaveo,+358 392 279 9128,b'\x01',Asikkala
67,62552 Sundown Trail,20,mhurles1u@soup.io,Marius,32.5957798323,Hurles,4.5939339271,QtZh20y8A,Skippad,+86 756 365 2912,b'\x01',Xiaolan
68,04063 Mesta Lane,0,gvandevelde1v@unc.edu,Godfree,35.3609159191,Van de Velde,5.8894394282,3YVvT5D5c,Tagchat,+62 243 896 9930,b'\x00',Segoro
69,24585 Hansons Road,43,fmillions1w@ucoz.com,Freemon,34.1568619002,Millions,6.4675258976,WlUoR9Qs2XN,Dynava,+62 371 554 1566,b'\x00',Manggis
70,8781 Rusk Circle,7,jhanrott1x@nasa.gov,Jerri,33.0750408565,Hanrott,8.7663390443,nl1QUrU31wK,Trilia,+86 716 353 3988,b'\x00',Shuanglu
71,7365 Glacier Hill Pass,36,lmclaine1y@instagram.com,Lebbie,38.2642733793,McLaine,2.4117629167,zXjDAk,Wordpedia,+976 564 456 3348,b'\x01',Holboo
72,8 School Lane,4,rzavattari1z@indiegogo.com,Rozelle,33.259085676,Zavattari,5.0139582422,6LOU1Sis6,Edgetag,+62 385 622 1971,b'\x01',Dawuhanmangli
73,5 Mendota Avenue,29,apaine20@stanford.edu,Albertina,38.9529615344,Paine,8.7523530925,hr0hdsO8R,Ooba,+63 698 967 8097,b'\x01',Panognawan
74,891 Truax Place,25,ktremolieres21@mit.edu,Kirstyn,37.3647717854,Tremolieres,6.4581311368,9XJYR7a,Edgewire,+66 961 281 1763,b'\x01',Prakhon Chai
75,636 Linden Circle,12,ccoalbran22@biblegateway.com,Cobbie,33.2298868524,Coalbran,3.2490024702,GlmkdhgZdMTh,Dablist,+62 932 655 1028,b'\x00',Obesi
76,366 Waywood Junction,19,ecaldeiro23@mozilla.org,Elisha,33.5793187328,Caldeiro,6.2297379573,DLSAFbxFq,Realpoint,+7 873 430 8342,b'\x01',Kalininskiy
77,0 Warrior Center,46,pvuitton24@berkeley.edu,Pepillo,35.6248251394,Vuitton,2.01388534,ULy8bhtGhdrs,Brainbox,+55 954 970 9594,b'\x01',Itamaraju
78,219 Hoffman Hill,15,ntedorenko25@examiner.com,Nerita,34.2765290904,Tedorenko,8.0915977841,Q7DRmWvOjWjb,Ntags,+62 781 744 7109,b'\x00',Nanggela
79,40 Paget Road,41,lrussen26@independent.co.uk,Lee,36.7863997343,Russen,8.7638082606,ltmPdOgc,Gevee,+7 754 711 3539,b'\x00',Saraktash
80,281 Tennyson Terrace,27,mrazoux27@addtoany.com,Marina,32.8702055884,Razoux,7.1669464101,as3t2EzOqw4,Fiveclub,+86 169 330 6730,b'\x01',Xiashihao
81,124 Colorado Way,37,rlant28@ihg.com,Rebecca,34.4500674651,Lant,2.8592803362,DBTGDpRDIQ,Yakitri,+93 552 632 4784,b'\x00',Kandahr
82,04 Bonner Parkway,13,vroscamp29@hhs.gov,Valeria,37.6010319169,Roscamp,8.6268183181,1UW5t8d3HA,Voonte,+61 620 250 7424,b'\x00',Melbourne
83,6 Blaine Avenue,1,cstidson2a@biblegateway.com,Chantal,34.7348679067,Stidson,8.079171828,r1iz3hLFrHd,Yabox,+242 276 191 6658,b'\x00',Sake
84,2406 Monica Trail,35,jwork2b@shinystat.com,Joel,33.887271279,Work,3.7053945676,TJte5rl4A,Talane,+54 633 913 4547,b'\x01',Crespo
85,00 Warrior Point,21,hgoudie2c@prnewswire.com,Hermann,38.7149980099,Goudie,6.2125914542,B43Xe9RwZ3,Chatterpoint,+86 605 846 8518,b'\x01',Gusang
86,2087 Eastlawn Plaza,41,jranshaw2d@list-manage.com,Julian,36.8903750662,Ranshaw,8.5407141946,NKMo33avOCB,Fivebridge,+33 307 553 1262,b'\x01',Saint-Quentin-en-Yvelines
87,6 Sloan Hill,5,dbattersby2e@unblog.fr,Dagny,37.4895762946,Battersby,7.4885007807,Y2FwKh,Oyoloo,+86 527 899 9130,b'\x00',Tingzhou
88,94 Butterfield Center,16,sitzkovich2f@census.gov,Sari,34.9960837218,Itzkovich,3.4498009806,TFdzlohVrny,Tambee,+62 968 194 1274,b'\x01',Banjaranyar
89,71 Warrior Parkway,8,cletten2g@chron.com,Camile,34.2933727756,Letten,2.0850810925,NTQzMynt7JYf,Realbridge,+86 835 191 2076,b'\x00',Shihudang
90,18 Saint Paul Plaza,24,bwhatling2h@comcast.net,Bernardina,35.0912546293,Whatling,3.0339525844,AbZBwo7Xe9l,Agimba,+387 223 627 6500,b'\x00',Biha
91,3222 Mallory Avenue,9,gattewell2i@mapquest.com,Georgine,35.6172712868,Attewell,6.6799170846,YMlntkN,Yacero,+234 612 244 4834,b'\x01',Isanlu Itedoijowa
92,2640 Monterey Pass,3,aglossop2j@alexa.com,Aristotle,33.6659851694,Glossop,6.7354760697,8Ga3mmry,Jetpulse,+61 630 244 1909,b'\x00',Adelaide Mail Centre
93,5698 Commercial Place,15,mmartyns2k@uol.com.br,Monroe,33.4996686464,Martyns,8.5638619201,6g9R5ngX,Yozio,+86 643 674 3897,b'\x00',Liujiachang
94,2439 International Parkway,21,ndyett2l@ihg.com,Norbert,38.7242903349,Dyett,6.854769639,tVm7nBCPiD,Trudeo,+420 563 347 0108,b'\x00',Zvole
95,5 Rutledge Way,9,tblackburn2m@google.fr,Tammy,35.9641172892,Blackburn,6.7087842109,hB57roJcdvRh,Tagtune,+82 817 739 0161,b'\x01',Osan
96,541 Jenna Street,35,astrete2n@merriam-webster.com,Adelind,33.8048461936,Strete,3.3501676947,TElBJwBGGpZ,Rhycero,+237 986 131 1072,b'\x01',Bali
97,01 Bluestem Lane,25,tvernalls2o@imdb.com,Tina,36.8084521705,Vernalls,6.3539213627,Ge2708YH9F4,Realpoint,+62 753 193 1720,b'\x00',Kedungdowo
98,6639 Pleasure Trail,32,nirwin2p@tinyurl.com,Noreen,34.2682287207,Irwin,5.2801871377,JJJ10h,Yodo,+54 236 445 9003,b'\x01',La Quiaca
99,84058 Delladonna Street,31,skelson2q@illinois.edu,Shawn,33.0257569357,Kelson,7.9624608592,2aMuasv,Gabspot,+66 567 738 2231,b'\x01',Dan Makham Tia
100,2 Lyons Junction,30,dharragin2r@cam.ac.uk,Durward,36.8208532955,Harragin,2.5014310907,PT4y2TGP,Skipstorm,+855 440 169 8716,b'\x00',Krati
101,684 Old Gate Place,6,joleahy2s@amazonaws.com,Joeann,38.8992921128,O'Leahy,2.366321448,KGBX4mMpG,Divanoodle,+86 327 512 0770,b'\x01',Guji
102,3 Russell Parkway,0,pmunnion2t@reuters.com,Phillipp,35.5640562745,Munnion,5.8555543534,0EKtRIiUbf,Zoomlounge,+53 723 581 3331,b'\x00',Aguada de Pasajeros
103,595 Gerald Alley,47,dwile2u@ow.ly,Dolf,37.5304534921,Wile,3.6386798857,FpupnqifxW,Voolia,+994 776 612 3832,b'\x00',Kyzyl-Burun
104,08 Superior Park,6,dioselevich2v@wikia.com,Darsie,38.6936309849,Ioselevich,2.0451172598,HWuHKinw,Wikibox,+591 162 550 0234,b'\x01',Tupiza
105,96 Carberry Trail,12,carens2w@delicious.com,Cameron,33.0338149887,Arens,2.9469778371,wmD2dx,Twinder,+58 422 295 8494,b'\x01',El Real
106,2 Kipling Alley,27,dpartner2x@sbwire.com,Dulci,32.3771898909,Partner,6.8240413784,0Jw9Q7YAj,Ainyx,+55 570 931 9774,b'\x01',Imbituva
107,48 Northridge Hill,25,emealham2y@icio.us,Evvie,36.727160109,Mealham,7.3852965374,RU4CSiBW67Q,Brainlounge,+254 661 117 2411,b'\x01',Siaya
108,86124 Chive Crossing,42,phorlock2z@globo.com,Pate,38.6873560045,Horlock,3.8524478445,4B6T1zekCwR,Podcat,+54 122 248 8020,b'\x00',Mercedes
109,017 Golf Parkway,47,lfreiberg30@marriott.com,Leelah,37.5519700542,Freiberg,3.5905426602,XZouLj3DIvPJ,Kanoodle,+55 444 205 8423,b'\x00',Cludio
110,5 Marcy Terrace,38,ahuglin31@unesco.org,Alonzo,36.0081577668,Huglin,6.2010166674,HZS3cqnrL,Vipe,+353 136 327 8497,b'\x01',Granard
111,74447 High Crossing Avenue,0,dseekings32@home.pl,Donovan,35.1628273206,Seekings,4.5724719897,coXxSj,Mynte,+86 697 376 8673,b'\x00',Yishi
112,0 Manitowish Drive,33,hvaneev33@npr.org,Helge,36.9003435149,Vaneev,5.5646401933,n651ojse,Ozu,+82 211 292 2785,b'\x01',Nangen
113,4437 Fordem Place,24,oneilson34@is.gd,Orlando,35.3016073393,Neilson,2.6723730702,QaroRu,Wordpedia,+504 968 253 7618,b'\x00',Omoa
114,47123 Sachtjen Trail,30,mdannatt35@wunderground.com,Molli,36.2333969168,Dannatt,2.6022970695,fV43Ph3hs2Bj,Demimbu,+86 996 924 4223,b'\x00',Chengyue
115,300 Eliot Plaza,39,btallyn36@diigo.com,Berty,36.6277834511,Tallyn,3.4995908268,Ok6rVybRX,Wordware,+235 628 315 8719,b'\x01',Kelo
116,47478 Gulseth Alley,28,jdoughartie37@scientificamerican.com,Jackson,32.5792237838,Doughartie,2.0348410326,BAL1LOyveXz,Quire,+48 397 997 8269,b'\x00',Rokietnica
117,90 Forster Terrace,26,ciglesias38@issuu.com,Cart,36.0496819272,Iglesias,5.2456823265,pkdx6nIPIp,Layo,+254 424 118 5822,b'\x01',Bungoma
118,634 Fieldstone Way,46,cscoyles39@walmart.com,Correy,35.5347262929,Scoyles,2.2326369345,6C5IFTAz06KW,Bubblemix,+86 613 471 9063,b'\x01',Hulu
119,44 Elka Point,11,deliez3a@geocities.com,Davine,32.0292499211,Eliez,6.4309899077,jXdEQRPYhit,Realpoint,+86 847 804 7393,b'\x00',Duowa
120,7191 Gina Crossing,32,eweagener3b@auda.org.au,Evelin,34.3263263089,Weagener,4.7530664714,VYV5AVHjgMr7,Nlounge,+353 119 693 2079,b'\x01',Claremorris
121,565 Steensland Hill,19,hbockmaster3c@stumbleupon.com,Hadrian,33.3645894781,Bockmaster,5.8755427142,XcxeDLf0qcV,Yakidoo,+46 927 359 3524,b'\x00',Uddevalla
122,95 Luster Park,9,spottiphar3d@dmoz.org,Skell,35.7632690128,Pottiphar,7.0176201978,jqPJYb,Digitube,+57 340 945 7424,b'\x00',Ramiriqu
123,8291 Dottie Pass,14,cpane3e@privacy.gov.au,Cordie,37.1157287963,Pane,2.5698167122,KZefJoLq,Devify,+254 659 432 3167,b'\x00',Kisii
124,61 Carioca Place,21,kespinheira3f@youku.com,Kristopher,38.8495931956,Espinheira,6.4456050474,mj8iKeUAY,Zoombox,+86 709 550 9067,b'\x01',Lizi
125,706 Ramsey Center,4,amcginney3g@mozilla.com,Aleece,33.7587581718,McGinney,4.7116129522,EZr05Gc4,Twitterlist,+55 203 840 6009,b'\x00',Aimors
126,26536 Gina Center,32,zjirieck3h@behance.net,Zelda,33.8269645419,Jirieck,5.0462896644,IW4XNE,Centizu,+351 674 963 2646,b'\x00',Devesa
127,464 Mcguire Street,10,jwasteney3i@amazon.de,Judye,36.8013641024,Wasteney,4.3315050323,dvZz171h,Gigabox,+86 117 219 4030,b'\x00',Yuecheng
128,67 Jay Court,18,gcopyn3j@list-manage.com,Georgette,38.3679261365,Copyn,4.3993379363,9fajnpr,Jetwire,+49 627 200 6487,b'\x01',Hamburg
129,953 Kings Place,10,egibbens3k@a8.net,Ethelbert,37.6095590723,Gibbens,4.7071173875,jR3HAs5qbvY1,Avavee,+51 669 724 7925,b'\x01',Paucarbamba
130,413 Sloan Junction,31,mfraine3l@opensource.org,Minny,33.2779592813,Fraine,7.9296117634,iz4OrtlI59,Pixoboo,+7 134 820 9957,b'\x00',Novoishimskiy
131,0830 Myrtle Plaza,17,rschistl3m@cisco.com,Reid,36.469354266,Schistl,7.9123102492,6MITLmzWBD7i,Fadeo,+66 691 373 6501,b'\x00',Wichian Buri
132,961 Old Gate Park,24,rduffitt3n@creativecommons.org,Rolph,35.7855076577,Duffitt,2.8567782647,lVudS70IUd,Katz,+996 355 396 8610,b'\x01',Gulcha
133,23948 Clarendon Drive,3,idewis3o@spiegel.de,Idelle,34.2708610256,Dewis,6.7852522457,wkKj9Oxt9,Topicshots,+86 487 304 1695,b'\x00',Shanxia
134,75164 Hoffman Way,28,esavary3p@t-online.de,Earl,32.8529783649,Savary,2.1306497221,PAtGGJq,Kwimbee,+257 697 928 8702,b'\x01',Muramvya
135,4434 Stephen Plaza,16,dgiddins3q@shinystat.com,Denyse,35.0428651983,Giddins,3.6526481085,OTDvIWAHu,Blogspan,+380 413 885 6851,b'\x01',Donetsk
136,1213 Lawn Drive,7,lchristley3r@pbs.org,Larry,33.2861551537,Christley,8.3898787746,luSgBtt9Y,Divanoodle,+81 241 414 6071,b'\x01',Toyokawa
137,20360 Northwestern Park,5,mofeeney3s@example.com,Melisa,37.8168730023,O'Feeney,7.1898480447,j3fZ0ApCu,Devpoint,+380 630 185 3498,b'\x00',Shevchenkove
138,40 Grim Court,22,cportingale3t@bbc.co.uk,Constantino,38.2791014218,Portingale,3.3884021894,MYa6u2z1,Wordpedia,+86 391 398 9782,b'\x01',Huangshan
139,266 Acker Plaza,40,jwildsmith3u@diigo.com,Josi,32.2070899216,Wildsmith,3.4152369838,2IQYP0iER,Divape,+256 378 298 6281,b'\x01',Mpigi
140,4 Kedzie Trail,19,egarbutt3v@bloglines.com,Elka,33.6364578268,Garbutt,5.4150428568,W5hzql6WBk,Ooba,+55 637 874 0195,b'\x00',Assis
141,274 Fair Oaks Alley,4,vpodbury3w@dailymail.co.uk,Vassily,33.5021868896,Podbury,5.0452904604,LiQ1RJYp,Buzzshare,+55 143 137 9551,b'\x00',Itaberaba
142,08 Burning Wood Road,9,ethomassin3x@digg.com,Eal,35.6710138982,Thomassin,7.0718800181,jofjCPLx2mw,Skilith,+48 790 829 7809,b'\x01',Lyski
143,2565 3rd Pass,30,gdoonican3y@senate.gov,Georgette,36.378296399,Doonican,2.7233709317,I2Ysk37Umhqm,Realmix,+86 897 939 5304,b'\x01',Mugala
144,1519 Ohio Terrace,37,daspinal3z@over-blog.com,Dex,34.6474360841,Aspinal,3.2916662427,pfajZt4,Oyoba,+255 292 267 3167,b'\x00',Liwale
145,242 Bellgrove Street,16,jmingauld40@phoca.cz,Jelene,34.8696219936,Mingauld,4.4389383003,zwTZxAO,Aimbo,+86 294 545 3463,b'\x01',Mabu
146,373 Pierstorff Avenue,12,myakubovics41@cargocollective.com,Mechelle,33.1639064541,Yakubovics,3.1604200335,JXlkWCf1H0e,Teklist,+84 854 407 3869,b'\x00',Thnh Ph Nam nh
147,87 Center Point,1,vweine42@hubpages.com,Valle,35.1819644797,Weine,7.8842557276,j845cDCk15y,Eabox,+86 260 688 4747,b'\x00',Xingan
148,64 Florence Court,26,skobiera43@mlb.com,Sargent,36.4631851606,Kobiera,4.6872159281,3TXLKH,Oyoyo,+386 880 965 4987,b'\x00',alovci
149,14073 Arapahoe Avenue,28,emeasom44@house.gov,Edan,32.5134882282,Measom,2.7918009104,PBTNamNJoM,Skimia,+63 534 928 8423,b'\x00',Liliongan
150,63 Maywood Alley,3,btalkington45@harvard.edu,Barnie,34.1186078814,Talkington,7.4635633385,5TUpSxb,Linktype,+54 607 937 5809,b'\x00',El Bolsn
151,59790 Bowman Junction,20,cpierce46@imdb.com,Candace,32.8993124777,Pierce,5.059657939,UzygNC,Browsetype,+30 961 486 5479,b'\x00',Klymnos
152,010 Truax Center,0,bmattei47@google.ca,Boris,35.2963746979,Mattei,4.9316957299,7UBBfCvTkcn0,Zooveo,+261 713 850 0441,b'\x01',Andovoranto
153,46 Badeau Trail,10,fovington48@abc.net.au,Francis,37.5135552981,Ovington,4.5180107019,rdeyNEfZyh,Jayo,+86 180 590 5674,b'\x00',Shuntian
154,99274 Sheridan Point,0,rgarrod49@usa.gov,Ree,35.5858885982,Garrod,5.4522613618,ZkIQhaTgVHfc,Skivee,+974 867 324 3589,b'\x00',Fuwayri
155,80867 Bay Hill,11,jcallan4a@homestead.com,Jaine,33.2330308554,Callan,6.3761912975,1chzerGabMV,Zoonder,+86 659 144 9974,b'\x01',Geshan
156,42961 Village Pass,11,dwardrop4b@wordpress.com,Daveta,32.6223429775,Wardrop,5.7241915688,y4iUTr6f,Zoomcast,+86 995 983 9740,b'\x00',Longan Chengxiangzhen
157,72 Summerview Park,36,jgibbs4c@goo.ne.jp,Josephine,37.7175377253,Gibbs,2.13483707,9uH3S6EjW,Omba,+98 623 183 1175,b'\x01',Khorrambd
158,31605 Macpherson Junction,26,arylatt4d@phoca.cz,Aili,36.3916447878,Rylatt,5.1510096442,ROk0XWed7l,Kazu,+7 711 756 0296,b'\x01',Prokhladnyy
159,9 Dryden Crossing,15,sdantuoni4e@quantcast.com,Siana,33.9676583473,D'Antuoni,8.8772713585,LcKCncCPw,Zoonoodle,+504 963 369 9887,b'\x01',Monjars
160,2 Fieldstone Way,22,zbridgement4f@epa.gov,Zsa zsa,37.9398631952,Bridgement,3.5471217185,bPYGWfg,Fatz,+30 645 143 7608,b'\x00',Vrakhti
161,7 Ryan Alley,15,adabrowski4g@amazon.com,Angy,33.9897761855,Dabrowski,8.2957044311,EEgM68w,Voonte,+53 512 811 8260,b'\x00',Madruga
162,980 Mallard Trail,18,nohoey4h@drupal.org,Nicolis,38.9832658039,O'Hoey,5.1059909396,ymvnaczHA7H,Zoonder,+33 265 125 2234,b'\x01',Paris 12
163,42222 Lyons Drive,31,mgoullee4i@bandcamp.com,Misti,33.2252525312,Goullee,7.3567960009,zVUASPK,Realfire,+55 977 759 6731,b'\x01',So Manuel
164,934 Magdeline Junction,43,cclac4j@posterous.com,Catha,34.4412763643,Clac,6.0492744509,md4eBtn,Meedoo,+55 563 291 2753,b'\x00',Nerpolis
165,86187 Talmadge Parkway,7,sconboy4k@rakuten.co.jp,Sayres,33.3922261565,Conboy,8.3375799074,LZCpYuE,Yakitri,+7 949 713 0675,b'\x01',Uritsk
166,2616 Truax Hill,12,gwormleighton4l@taobao.com,Grove,33.561319751,Wormleighton,2.8849501778,o5cNKok,Feedfire,+52 471 996 2271,b'\x00',La Esperanza
167,51110 Bobwhite Avenue,5,mshergill4m@newyorker.com,Marilyn,38.6442212127,Shergill,7.2439567808,qrb4TH,Fadeo,+7 881 860 1930,b'\x00',Sheregesh
168,7 Riverside Drive,16,jlooks4n@naver.com,Jourdain,35.567712306,Looks,3.6954988673,a66xWL,Quinu,+86 303 599 2700,b'\x00',Xiyuan
169,9491 Vahlen Parkway,16,femmer4o@ycombinator.com,Fitzgerald,35.3370814099,Emmer,3.5557214998,QaUS9rmJXT,Gigashots,+7 455 255 7258,b'\x00',Sokol
170,90903 Fremont Pass,22,ncarnell4p@usda.gov,Neilla,38.4530754397,Carnell,3.1205896333,RUstru5UPRA,Quinu,+593 100 413 4762,b'\x00',Naranjito
171,204 Memorial Way,39,sbachmann4q@pcworld.com,Sarette,36.5349131676,Bachmann,3.7247243735,72ay4w8kre,Meedoo,+86 828 417 1285,b'\x01',Tuquan
172,203 American Avenue,18,skelsey4r@google.de,Sanderson,38.7636194734,Kelsey,5.0340560062,LcSJ67SE,Abata,+86 984 513 0059,b'\x00',Xiatang
173,63 Colorado Center,25,lshawcross4s@devhub.com,Lizette,36.5989274956,Shawcross,7.4689783411,85ByQqWMd,Jaloo,+267 920 406 4932,b'\x01',Ramotswa
174,717 Paget Avenue,29,mcubin4t@icio.us,Moll,38.4502458876,Cubin,7.901164848,FWMvTfROS,Browsetype,+86 738 609 3189,b'\x00',Qijiazuo
175,0951 Schiller Point,34,fditter4u@list-manage.com,Falito,35.014911271,Ditter,7.1037859188,r4vEKgjorpD,Edgeblab,+7 419 726 4869,b'\x00',Novomoskovsk
176,4 Rowland Circle,31,callgood4v@blogger.com,Cody,33.6128843084,Allgood,8.1445629275,EmXCCbP,JumpXS,+975 962 875 0768,b'\x00',Panbang
177,55 Northwestern Crossing,18,jberrick4w@jiathis.com,Jeramie,38.2212884348,Berrick,4.8305435652,t6QAK4ouZBEt,Meembee,+420 876 629 8997,b'\x00',Albrechtice
178,48561 Barby Lane,0,cpesselt4x@usatoday.com,Corrine,35.7671784611,Pesselt,4.6640800264,9DNH2BV9J,Oyonder,+218 445 933 5170,b'\x01',Al Azzyah
179,09 Bultman Parkway,32,gfattori4y@phoca.cz,Giacomo,34.4958348651,Fattori,4.9056762945,mYaJdl2jL2,Tagtune,+63 265 478 1536,b'\x01',Sinilian First
180,6823 Fair Oaks Hill,13,hrodmell4z@quantcast.com,Hattie,37.577483906,Rodmell,7.7767555018,wEdzaOD1Rs0f,Jetwire,+46 746 282 0597,b'\x01',Boxholm
181,0921 Nevada Center,21,bbroadbear50@trellian.com,Bibby,38.3530615918,Broadbear,6.0799118301,BVnhJHo,Layo,+47 463 440 9156,b'\x01',Sandvika
182,23021 Riverside Park,39,afarland51@nba.com,Andie,36.3644587324,Farland,3.3461868971,M5FPmVishM0Q,Skipfire,+48 827 271 5545,b'\x00',Nowy Scz
183,2971 Packers Way,10,eoliverpaull52@nytimes.com,Egan,36.7887124767,Oliver-Paull,4.1936443263,nj9cED1YF,Yamia,+58 452 146 8256,b'\x01',La Asuncin
184,425 Parkside Street,4,browen53@latimes.com,Brandais,33.2298742661,Rowen,4.8577108029,bHV1JCPE9,Feednation,+62 693 974 9933,b'\x00',Jambean
185,52 Cody Terrace,23,iletixier54@ox.ac.uk,Ibrahim,32.8200849371,Letixier,7.6619775417,k7BdVz,DabZ,+62 663 723 7370,b'\x00',Kubangkondang
186,848 Chive Crossing,5,bweare55@pcworld.com,Bruis,38.5843845921,Weare,7.2990671081,VzJh92,Jabbersphere,+34 692 832 3339,b'\x00',Zaragoza
187,02 Sutherland Junction,5,schastanet56@bravesites.com,Shaylynn,38.8740271015,Chastanet,7.7546858273,nnsAfdwViKr,Photospace,+254 334 429 1633,b'\x01',Kapenguria
188,92189 Northland Park,47,mlakeland57@taobao.com,Marcello,36.8586422444,Lakeland,3.7392714059,L0taaU6FF,Leenti,+33 938 672 0118,b'\x01',Vlizy-Villacoublay
189,0 Sunfield Plaza,23,mwoffinden58@paginegialle.it,Maren,32.3404077517,Woffinden,7.5288269416,pMLmMyKp6,Rhyzio,+7 992 175 3546,b'\x00',Mortka
190,480 Carey Point,18,ngumm59@apache.org,Norine,38.3433799398,Gumm,4.3243303032,nyIiDNiGR,Twitterlist,+55 119 416 7830,b'\x00',Marco
191,36 Lindbergh Trail,9,bdantoni5a@house.gov,Breanne,35.9888230391,D'Antoni,6.7619915908,7jckxJ1B,Bubblemix,+54 688 652 6617,b'\x00',Capitn Bermdez
192,8 Dapin Road,12,hglide5b@tuttocitta.it,Hetty,33.4272078272,Glide,2.9831102444,sADdL78E,Dabvine,+33 536 426 2434,b'\x01',Oullins
193,4 Upham Street,24,dstuehmeyer5c@cmu.edu,Delora,35.3760116768,Stuehmeyer,3.0410042679,5bStQqzBfRh,Fliptune,+30 781 835 5670,b'\x00',Methni
194,74 Buell Parkway,12,tolczak5d@cam.ac.uk,Tove,32.8914286297,Olczak,3.193520208,OyGF8NfJ,Skyndu,+86 950 891 5142,b'\x01',Zaolin
195,8 Autumn Leaf Pass,1,wsedgman5e@npr.org,Warren,34.750484478,Sedgman,7.6636584974,6FCqFDXZrL,Omba,+856 507 363 2922,b'\x01',Xaysetha
196,0 Mallard Avenue,0,zcolam5f@reverbnation.com,Zola,35.2326596857,Colam,4.8340908981,2eiN0IfC37,Oyoba,+52 271 699 8841,b'\x00',Benito Juarez
197,42580 Nobel Avenue,1,cbourcq5g@cafepress.com,Cahra,34.4886187194,Bourcq,8.3066357128,FBhSrQ0,Dabtype,+370 676 723 6759,b'\x00',Birtonas
198,3 Declaration Center,30,hbrayshaw5h@wp.com,Henryetta,35.9415751377,Brayshaw,2.3586406022,1QOSCF2Yvq,Thoughtbridge,+420 972 856 6270,b'\x00',ernoice
199,447 Birchwood Plaza,47,lwinward5i@elegantthemes.com,Lilith,37.0445504614,Winward,3.6554729115,eymsjP4m,Mudo,+358 840 470 7962,b'\x01',Ikaalinen
200,2829 Schurz Way,7,mhallex5j@usgs.gov,Markus,32.1783153591,Hallex,8.873648476,mYJp7w2riX,Yakitri,+62 900 926 5113,b'\x00',Susoh
201,8905 Becker Center,47,smatts5k@businesswire.com,Sawyer,37.3813994046,Matts,3.5088301695,RkeyXJRoOZCe,Npath,+880 599 780 1976,b'\x01',Jessore
202,801 Farwell Avenue,47,ksambrok5l@pbs.org,Kimmie,37.3041753993,Sambrok,3.6694277306,jhTEMqtosET,Latz,+86 325 800 8178,b'\x00',Jiuchi
203,046 Moulton Road,34,spexton5m@discuz.net,Salli,34.7071740315,Pexton,6.3061867203,LDHyFi,Zazio,+86 408 919 1205,b'\x00',Dongke
204,7 Dawn Court,29,rfieldstone5n@gov.uk,Raymond,38.5331843233,Fieldstone,8.3774380986,eHSS25wTs,Edgewire,+81 658 477 4415,b'\x01',Mombetsu
205,71 Scoville Alley,11,dshmyr5o@washingtonpost.com,Darryl,32.139743994,Shmyr,5.9775644913,EmtFCoRUtzA5,Demimbu,+86 281 192 8418,b'\x01',Jingyu
206,45 Merchant Trail,10,ggartrell5p@webnode.com,Giacomo,37.6405177568,Gartrell,4.5094635448,shUrV4MAaalB,Ailane,+359 713 656 4377,b'\x01',Petrich
207,4 Clyde Gallagher Way,34,stredget5q@over-blog.com,Shell,34.6438024448,Tredget,6.7817176619,whYPdr,Ailane,+63 752 386 9284,b'\x00',Calubcub Dos
208,24012 Hanover Alley,30,nortler5r@uol.com.br,Niki,36.4377717643,Ortler,2.6115443043,Ch7fAV,Ainyx,+60 777 481 4569,b'\x00',Kangar
209,691 8th Place,22,dmcilharga5s@forbes.com,Dasie,38.2546896168,McIlharga,3.2354907849,EfbtElhMGg,Voolith,+420 974 152 0056,b'\x00',Poleovice
210,57995 Tomscot Street,25,bgiovannini5t@hatena.ne.jp,Bertine,36.833371214,Giovannini,7.479310684,pBJIXE,Dablist,+33 130 212 6144,b'\x01',Saint-Quentin-en-Yvelines
211,87256 Messerschmidt Way,5,ovial5u@naver.com,Otho,37.9222378828,Vial,7.2218587923,kAMIJRn3xGG,Wordware,+502 779 378 0842,b'\x01',Pastores
212,7131 Logan Alley,16,akneller5v@geocities.jp,Andros,34.7322638118,Kneller,4.3750459125,OhLCQfBbHWz,Innotype,+62 211 503 3127,b'\x00',Palla
213,283 Judy Plaza,24,rbootell5w@1688.com,Rickie,35.5769623693,Bootell,2.3841618536,CkgqQu9ZBkOv,Livefish,+62 572 854 2892,b'\x01',Mayong
214,89 Badeau Street,4,esimioli5x@canalblog.com,Edouard,33.069742226,Simioli,4.262159002,KWtaob,Quire,+86 427 301 5567,b'\x01',Muli
215,507 Dunning Hill,14,atrapp5y@myspace.com,Agnese,37.1874435668,Trapp,2.6466776585,8wuyhpFAG,Eimbee,+82 739 207 5554,b'\x00',Jeonju
216,17269 Larry Hill,14,ischulkins5z@techcrunch.com,Inez,37.5143862184,Schulkins,3.1697447579,nzqU02NqeRUN,Kimia,+86 704 661 4427,b'\x01',Qiaogu
217,3 Summer Ridge Junction,2,efozard60@timesonline.co.uk,Ernst,38.2212557697,Fozard,5.490086081,GkpLdyyqk,Skinix,+62 843 785 8255,b'\x00',Sedinginan
218,681 Miller Trail,25,neggleson61@oaic.gov.au,Nicholas,36.8385275132,Eggleson,7.0582103722,RLgDSnyV7B,Voomm,+86 448 853 4561,b'\x01',Benzilan
219,81622 Packers Plaza,45,jclack62@pagesperso-orange.fr,Janetta,38.1158729611,Clack,6.6793082716,dWpRxL8,Roombo,+58 467 386 9976,b'\x00',Farriar
220,5293 Hintze Junction,19,pdahlborg63@tripod.com,Patience,33.7157926162,Dahlborg,6.4419793374,nLbj7tPR,Kare,+81 707 225 5072,b'\x00',Okinawa
221,86 Mayer Crossing,18,ecromie64@xinhuanet.com,Eldredge,38.2979422162,Cromie,4.5902221695,gl4csNyoHh,Realcube,+62 654 996 0236,b'\x00',Negla
222,671 Northridge Avenue,42,jmuddiman65@chicagotribune.com,Joete,38.6248370461,Muddiman,4.0316132925,sqcpRRxubO,Jaxbean,+220 288 219 7323,b'\x00',Kunting
223,2 Eastwood Parkway,24,tmaccallum66@friendfeed.com,Therine,34.7790084798,MacCallum,2.964837633,pYX0MRfjmg6R,Fatz,+64 715 969 1657,b'\x01',Kawakawa
224,97 1st Avenue,28,fdobbings67@unicef.org,Friederike,32.9554507922,Dobbings,2.320015818,QN69IMc,Feedspan,+7 585 882 4409,b'\x01',Berezniki
225,26304 Ludington Terrace,27,omcquorkell68@wikispaces.com,Odie,32.6695516573,McQuorkell,6.9995107094,tCnIUarM5J,Jaxworks,+62 335 101 6005,b'\x00',Cibalieur
226,332 Heffernan Street,20,zprozescky69@springer.com,Zabrina,32.0469896266,Prozescky,5.2945290648,dm0aQWDQEFL2,Skinix,+55 719 887 5618,b'\x00',Nilpolis
227,89556 Westridge Crossing,32,games6a@telegraph.co.uk,Geri,34.4086777944,Ames,5.0858992738,w97ZvvWw,Bluezoom,+86 620 667 5299,b'\x00',Xiongshan
228,3 Kennedy Lane,8,kzuanelli6b@nydailynews.com,Kelsey,33.5720956146,Zuanelli,2.5023647225,RMACwDZh8a,Agimba,+33 775 635 1361,b'\x00',Roissy Charles-de-Gaulle
229,846 Longview Terrace,14,bschwandermann6c@zimbio.com,Bryon,37.009114848,Schwandermann,2.3420238467,wm5kwVw1e,Zoomcast,+86 568 227 4526,b'\x01',Tahe
230,087 Merry Junction,12,bdorward6d@jugem.jp,Bennie,32.9345898066,Dorward,3.6883838147,p4erNq1OeRJ,Fivespan,+234 664 365 7740,b'\x00',Zango
231,67 Ridgeview Trail,24,dbreinl6e@instagram.com,Deirdre,35.6241151428,Breinl,2.3878185721,LFk29lEDCAaX,Twinte,+84 283 464 6910,b'\x00',Nam Sch
232,3 Buhler Junction,24,adewan6f@marketwatch.com,Andi,35.533780451,Dewan,3.0111021601,tgOfKaN,Kamba,+55 685 522 1768,b'\x01',Campina Grande do Sul
233,15661 Golden Leaf Street,37,agreenleaf6g@microsoft.com,Anstice,34.3254628626,Greenleaf,3.0252739832,WH4graYLu,Browsedrive,+62 768 896 6823,b'\x00',Cibungur
234,91 Mesta Alley,0,hhughman6h@admin.ch,Howard,35.4466517906,Hughman,5.8440520409,y1PcmMotroD,Dynabox,+62 951 443 0552,b'\x01',Pancoran
235,32 Glendale Court,35,stale6i@merriam-webster.com,Shelagh,34.3922208312,Tale,4.0226229223,8CdKbSrfVS4,Kwilith,+1 430 282 0625,b'\x00',Ro Limpio
236,2784 Spohn Drive,2,bspowart6j@is.gd,Bertha,38.3129780402,Spowart,5.7783006953,AWGjYNk2,Tekfly,+48 718 998 9328,b'\x01',Domaniewice
237,18513 Mesta Park,13,jechalie6k@devhub.com,Jabez,38.2219642828,Echalie,8.8915085269,fuBh8DelwY,Trupe,+230 874 920 1543,b'\x00',Olivia
238,638 Clarendon Way,43,lchalkly6l@pcworld.com,Lurline,34.3281673585,Chalkly,6.3964978069,DY0Ie2QTR8VJ,Topicshots,+60 988 624 8927,b'\x00',Kuala Lumpur
239,464 Miller Street,12,mkindleside6m@w3.org,Maxwell,33.2905800907,Kindleside,3.7290031848,itHlR9LRPPfG,Youopia,+86 738 699 1945,b'\x01',Chishan
240,80550 Menomonie Pass,5,fbiddiss6n@angelfire.com,Feodor,37.4580989857,Biddiss,6.7838982667,Svv04IV,Edgeclub,+62 920 369 6109,b'\x01',Kauhan
241,05687 Merry Plaza,1,bdael6o@creativecommons.org,Bengt,34.9644198773,Dael,7.9278300804,BKxwKsZtyZdE,InnoZ,+60 626 474 8161,b'\x01',Johor Bahru
242,0558 Thackeray Alley,35,isymcox6p@google.cn,Ingar,33.9224121761,Symcox,4.3994936901,mHiSmx6i,Browsedrive,+48 942 452 8179,b'\x00',Biaobrzegi
243,36 Northfield Plaza,46,mhuggan6q@reuters.com,Minor,35.414304973,Huggan,2.129956573,lsu3vllY,Wikido,+351 165 924 6160,b'\x01',Vilarelho
244,375 Sullivan Crossing,38,tharnell6r@shop-pro.jp,Tedra,36.4855962522,Harnell,6.2778850154,cJ9ulrb,Yakitri,+62 817 141 7218,b'\x01',Sedatiagung
245,0 Erie Court,3,jcurrall6s@delicious.com,Jeffrey,34.4172387636,Currall,6.981362515,s1p46silCNB,Quatz,+7 516 240 9482,b'\x01',Severo-Zadonsk
246,94 Atwood Center,36,ecurston6t@myspace.com,Eberhard,38.0051921386,Curston,2.0107622503,nvn1N6POti,Leexo,+353 521 732 0485,b'\x00',Castleblayney
247,429 La Follette Junction,33,tkepling6u@rambler.ru,Teirtza,37.0410862392,Kepling,5.7669834696,nPkde2hY3,Jaxworks,+351 586 561 8473,b'\x00',Brrio
248,3 Village Green Center,15,oclyant6v@arstechnica.com,Owen,34.1241095209,Clyant,8.4898274087,z3t1ADo2oX,Flashspan,+63 958 920 4684,b'\x01',Loreto
249,51083 Old Gate Road,12,emacfadin6w@bloomberg.com,Elizabet,33.4262509719,MacFadin,3.6630776914,IdDyZ4jm,Tagopia,+502 757 595 3939,b'\x01',Santa Cruz del Quich
250,4229 Oakridge Way,16,nyouel6x@sciencedaily.com,Neille,34.886913806,Youel,3.3859075221,3WtSnM,Mycat,+242 273 829 9499,b'\x00',Butembo
251,45 Park Meadow Way,44,bbenedek6y@blog.com,Bald,32.70187654,Benedek,5.3335643114,yZqmD9zU60,Tekfly,+57 672 230 3384,b'\x01',Guamo
252,66294 Wayridge Drive,38,mmar6z@slashdot.org,Maire,36.3431705168,Mar,6.4696253658,6kYYzn7,Skynoodle,+62 736 287 7585,b'\x00',Puncaktugu
253,36273 Lien Park,5,thayley70@multiply.com,Tandy,38.9919534545,Hayley,7.2944951132,Vdtfg8HDEC,Voolia,+380 538 621 9634,b'\x01',Chervone
254,1 Sommers Street,14,mcornelisse71@umich.edu,Marlane,37.6077356989,Cornelisse,2.9769088238,i2LMVnrRkV1Z,Linkbuzz,+30 665 176 6670,b'\x00',Vlos
255,20 Everett Circle,18,dmcintosh72@storify.com,Dolores,38.8731923876,McIntosh,4.6182074163,tQ0x0iJY2rJ,Browsedrive,+86 929 840 9457,b'\x00',Zhamao
256,545 Upham Point,39,kcrannach73@chronoengine.com,Kaycee,36.1533886801,Crannach,3.9655532315,3Rw4JB0jx2,Livetube,+380 193 957 7248,b'\x00',Mikulintsy
257,0786 Dwight Drive,34,medwins74@ebay.com,Moses,35.3339923542,Edwins,6.2814221447,hpum63,Wordware,+358 521 302 7950,b'\x01',Forssa
258,105 Huxley Hill,9,fpeart75@state.gov,Frederica,35.6507899207,Peart,7.5548223664,nIMM3Q,Meevee,+62 338 297 8247,b'\x01',Tamansari
259,6 Knutson Circle,11,lkelwick76@cbsnews.com,Lucie,32.1410179097,Kelwick,6.2846744795,BATMijN,Digitube,+62 587 208 1323,b'\x01',Sapeken
260,17179 Sloan Center,11,bkershaw77@blogger.com,Blondell,32.8513863181,Kershaw,5.901911628,87g5ZE4ZDKM,Jabberbean,+62 350 817 6586,b'\x01',Pinggan
261,62 Weeping Birch Street,36,noxshott78@alexa.com,Nahum,38.0052567543,Oxshott,2.5497111408,DwH5ruXQ,Omba,+972 708 676 1077,b'\x01',Jsh
262,79 Darwin Terrace,46,eroony79@gravatar.com,Eva,35.442552952,Roony,2.1999299602,Cq8iYpY,Myworks,+63 333 582 7602,b'\x01',Barcelona
263,8 Packers Terrace,31,moxborough7a@elpais.com,Maribel,33.4346987072,Oxborough,7.6812129783,4yot0wknLgk1,Jaxnation,+54 342 563 6835,b'\x01',Carhu
264,1 Pennsylvania Parkway,7,bpiquard7b@nasa.gov,Brittni,33.2320000613,Piquard,8.540634011,ya9wBh3,Eire,+596 128 779 0939,b'\x01',Le Lamentin
265,03 Doe Crossing Avenue,2,ywolfart7c@house.gov,Yolanthe,37.7293031604,Wolfart,4.8137066237,bWn18t8uak,Skipstorm,+63 340 407 7869,b'\x00',La Libertad
266,79115 Kenwood Park,26,ksantorini7d@elpais.com,Knox,36.4852819211,Santorini,4.7562744626,4a7BuiO,Feedspan,+33 880 973 3182,b'\x01',Orlans
267,2 Merrick Terrace,4,tbradwell7e@themeforest.net,Town,32.9703624646,Bradwell,4.0348382429,ZkUMdOSz,Fivespan,+504 286 136 2532,b'\x01',Nombre de Jess
268,13 Sycamore Terrace,25,jstockney7f@pcworld.com,Jorry,36.853492189,Stockney,6.5973865781,6euJ9umHdfZ,Topicware,+86 314 441 5424,b'\x00',Fengjiang
269,3 Walton Point,27,ecumberbatch7g@naver.com,Emmanuel,32.5192193901,Cumberbatch,6.5517738999,LiHI1hmFOLsd,Twimbo,+234 667 253 9366,b'\x00',Funtua
270,869 Moulton Center,27,msorsbie7h@163.com,Marcos,32.7116548405,Sorsbie,6.7074485793,rlseT8iWCRv8,Flashspan,+375 213 871 7697,b'\x00',Borovlyany
271,000 Farragut Lane,34,wtigwell7i@pen.io,Walther,35.1184312431,Tigwell,7.3168864728,UNVXqaj98,Centimia,+86 522 584 6048,b'\x01',Ganquan
272,5947 Parkside Street,20,tlittleover7j@army.mil,Tremayne,32.0343565012,Littleover,5.0440272286,aWxduFUPHyD,Yakidoo,+420 832 300 9473,b'\x01',Netvoice
273,19 Boyd Junction,47,dgillion7k@cdbaby.com,Dorene,37.6395846804,Gillion,3.7706835631,xgWcSzaPft4H,Wordpedia,+62 829 147 0393,b'\x00',Selemadeg Kelod
274,956 Mayfield Point,37,karonow7l@list-manage.com,Kris,34.6149040155,Aronow,3.1939634161,ALOHVYPC,Jetpulse,+387 991 791 8295,b'\x00',Jelah
275,42 Express Junction,5,pkybbye7m@whitehouse.gov,Porty,37.8349908029,Kybbye,7.400669287,5i8rJSuS,Thoughtbeat,+686 906 233 5937,b'\x00',Banana Village
276,92 Elgar Way,31,sgrimsdith7n@nba.com,Shawnee,33.6782106493,Grimsdith,7.942953995,RfxOEKbCzdv,Browsecat,+232 344 934 6193,b'\x01',Motema
277,7395 Basil Point,2,rsuche7o@marriott.com,Roosevelt,37.9645681498,Suche,4.9509920129,e8UzKPJnIYE,Jayo,+62 175 175 2832,b'\x00',Karangtawar
278,76 Fallview Crossing,35,woleszkiewicz7p@hc360.com,Wenda,33.6197613722,Oleszkiewicz,3.4513379719,AmSOGi,Jamia,+63 256 858 8615,b'\x01',Tucuran
279,86059 Myrtle Road,28,rsorrill7q@csmonitor.com,Rasia,32.4152353722,Sorrill,2.275712016,9IDSgJ,Meejo,+7 810 204 7412,b'\x00',Vostok
280,663 Beilfuss Court,43,ijeans7r@photobucket.com,Ikey,34.2434444506,Jeans,6.3818989748,QmSG58Uu,Tekfly,+7 799 117 4995,b'\x00',Molochnoye
281,46 Roxbury Drive,2,hcrossby7s@comsenz.com,Happy,38.4108760259,Crossby,5.2886401296,zH3WGV,Dynabox,+86 898 211 4144,b'\x01',Jiushe
282,812 Bowman Crossing,2,dreuther7t@purevolume.com,Donica,38.3527540067,Reuther,5.6008860768,LR3zciZ95xkr,Photobug,+7 879 624 4617,b'\x01',Verkhniye Kigi
283,537 Sutherland Center,34,ctaft7u@amazon.com,Christoforo,34.7091319882,Taft,6.8167922986,6MlpG1zBrbUA,Blogtags,+51 506 311 3062,b'\x01',Cajacay
284,057 Anniversary Drive,45,mainley7v@newsvine.com,Marney,38.1422783233,Ainley,6.3416288971,0i0X5VlsOkBo,Kazio,+63 707 346 2882,b'\x01',Uacon
285,5 Pierstorff Circle,12,wcothey7w@cocolog-nifty.com,Wenda,32.996079559,Cothey,3.376249212,5MAoTxsQf5,Twimbo,+48 378 800 9013,b'\x00',Ucie Gorlickie
286,84779 Hooker Junction,43,ahuton7x@1und1.de,Antonin,34.545127144,Huton,5.9640767708,UANujjr,Photofeed,+55 997 929 4715,b'\x00',Rio Novo do Sul
287,7 Starling Center,23,cvarley7y@statcounter.com,Cyndi,32.2288843301,Varley,8.1666466646,KJMSbRDgE,Bubbletube,+962 716 474 7149,b'\x00',Jarash
288,62131 Reinke Trail,42,rdwerryhouse7z@apache.org,Richie,37.7443880289,Dwerryhouse,4.2782474921,oLtErkZNYh,Ooba,+62 300 908 5453,b'\x01',Darmasari
289,9507 Westport Crossing,38,mgiffin80@friendfeed.com,Meryl,36.2391949311,Giffin,5.9275677524,7CBYAGIx,Vimbo,+225 666 154 8263,b'\x01',Bondoukou
290,68195 Schiller Road,25,cbygrave81@comsenz.com,Coraline,36.9595538625,Bygrave,6.6344080912,wXiayqeQo7y,Yoveo,+86 337 690 5864,b'\x00',Miaoxi
291,6 Sunbrook Lane,32,zklageman82@youku.com,Zola,34.892334972,Klageman,5.1111408018,NvYn6nrjmrw,Einti,+93 624 912 2796,b'\x01',Bagrm
292,5394 Delaware Court,27,tmudie83@zdnet.com,Tedra,32.8624089659,Mudie,6.9238636585,emIxJpdq7AM,Latz,+212 193 189 5653,b'\x01',Fs
293,6128 Rigney Lane,9,gnecrews84@accuweather.com,Gordy,35.5986096212,Necrews,6.8173057969,GvGZMMFJq,Topiczoom,+62 588 200 4322,b'\x00',Pakel
294,94 Michigan Center,19,csonley85@oaic.gov.au,Cammy,33.4784207696,Sonley,6.1641179696,dLEFf6TNR,Zoonoodle,+46 612 732 7505,b'\x00',Vindeln
295,7652 Morning Parkway,18,dcollings86@barnesandnoble.com,Donia,38.355606351,Collings,4.6374880518,bly5BD2xj,Abatz,+55 694 284 0206,b'\x01',Bataipor
296,5788 Pierstorff Terrace,46,atreend87@a8.net,Annetta,35.1056650068,Treend,2.1670155139,fVkZzBnp,Riffwire,+86 837 967 7895,b'\x00',Tongzilin
297,0486 Old Gate Point,5,bdommersen88@quantcast.com,Brynne,37.9248577888,Dommersen,7.2691781433,htN1hukZJEIz,Muxo,+967 663 589 8272,b'\x00',Mawza
298,789 Parkside Terrace,28,gsculley89@dell.com,Gail,32.4582946362,Sculley,3.001125841,0a5lb7,Roomm,+86 973 845 7733,b'\x00',Huatanshan
299,1 Straubel Center,17,wmeade8a@telegraph.co.uk,Wilmar,37.0937440857,Meade,7.8451882354,1PtM0u,Oyoloo,+7 751 570 3301,b'\x01',Yaroslavskaya
300,86334 Prentice Pass,9,mpautot8b@so-net.ne.jp,Mellicent,36.5626526594,Pautot,6.7090601296,f7RVdI3gRm,Eayo,+63 413 498 2346,b'\x01',Dacudao
301,73 Tennessee Terrace,37,akingsnod8c@census.gov,Amie,34.7183439331,Kingsnod,3.1812910726,FBG5UbjcEr1,Twitternation,+62 456 986 0831,b'\x01',Rimba Sekampung
302,47 Fairfield Terrace,11,rlathaye8d@nymag.com,Rhys,33.1948526807,Lathaye,6.8761026382,Fc9PTbh5klu,Meezzy,+62 987 135 4985,b'\x00',Sumurasin
303,3027 Thompson Parkway,38,mrenbold8e@blogs.com,Michal,36.1669259415,Renbold,6.3669524081,HYdMQl7Hc,Jaxworks,+351 387 170 5012,b'\x01',Refojos
304,643 Sheridan Court,41,adobbs8f@harvard.edu,Adelheid,36.8213099186,Dobbs,8.4483374416,RSDnQZj,Voolith,+420 286 204 5935,b'\x01',Pbram
305,63 Tony Parkway,12,jstanbrooke8g@cdbaby.com,Joyan,33.2630148315,Stanbrooke,3.6721493402,ZezrAKBc,Buzzster,+86 485 875 0582,b'\x00',Donglai
306,02 Laurel Alley,44,cdunkerk8h@people.com.cn,Carver,32.5531305491,Dunkerk,5.4225385291,LMmKNoopZtY,Mita,+48 535 260 4515,b'\x00',Strzyowice
307,447 Russell Way,38,mcobello8i@smugmug.com,Minette,36.349214391,Cobello,5.7579574365,tCh3t1ZVd,Buzzster,+218 618 404 8987,b'\x01',Zalan
308,0735 Kedzie Center,15,gharkins8j@stanford.edu,Gena,33.7525064236,Harkins,8.5015317259,28Ee8w13,Twitternation,+1 630 607 3376,b'\x01',Naperville
309,772 Hermina Terrace,47,jreglar8k@mac.com,Jo,37.0657053664,Reglar,3.5352172648,N8wLYXYmwAgy,Dablist,+86 323 205 5402,b'\x00',Xukou
310,878 Spohn Court,33,rgibbie8l@npr.org,Raynard,36.5725402182,Gibbie,5.5123036936,hZ2TSgftd0da,Quamba,+351 160 618 1160,b'\x01',Cortiis
311,88201 5th Pass,1,lmaharg8m@csmonitor.com,Lesly,34.8451725354,Maharg,7.6335678477,ix9szng4R,Livepath,+62 234 421 3754,b'\x01',Sungaiduri
312,7371 Magdeline Way,20,mdowle8n@canalblog.com,Morry,32.5048891622,Dowle,4.6721336217,CjPZ0SXbm2Ml,Cogibox,+86 206 512 8064,b'\x01',Hegeng
313,661 Elka Alley,41,brefford8o@cam.ac.uk,Brander,36.646094013,Refford,8.9889422538,pMzRXkug1JS9,Devpoint,+86 794 982 0257,b'\x00',Shengrenjian
314,87 Fremont Point,25,hcluney8p@is.gd,Hedda,37.0572059024,Cluney,7.0853612746,s9AA27tjTYhB,BlogXS,+381 919 991 6444,b'\x01',Topola
315,0985 Moulton Court,45,cismay8q@archive.org,Conway,38.2639105279,Ismay,6.4198294634,AlxC4yXF,Eamia,+255 999 797 7085,b'\x01',Majengo
316,9 Stang Parkway,22,csemechik8r@a8.net,Cal,38.3229211941,Semechik,3.3429470051,2jwpXVY5Q65,Yombu,+385 464 751 2059,b'\x00',Osekovo
317,60 Mallory Pass,34,ewillwood8s@microsoft.com,Egan,35.0766711981,Willwood,6.7743949314,ngLnCxtmiD,Tazzy,+62 822 221 0346,b'\x01',Cibunut
318,09 Stephen Street,4,polford8t@google.com.br,Perla,33.4608656078,Olford,4.7291524929,xlOLyk6OX2,Plajo,+62 420 482 3953,b'\x00',Cijoho
319,05262 Sutherland Lane,5,cjoron8u@wired.com,Cirillo,38.6981141316,Joron,7.3227477042,1HyA6Y2,Skinder,+48 123 939 3780,b'\x01',Zaklikw
320,84 Homewood Place,23,dockland8v@sciencedaily.com,Dilly,32.9201796037,Ockland,7.4954650489,SeItVR2hQvU,Eadel,+1 288 692 5880,b'\x00',Torbay
321,868 Glendale Place,21,gguterson8w@fc2.com,Guendolen,38.8215079209,Guterson,6.7010787002,dzD3vcK,Mybuzz,+86 790 160 3082,b'\x00',Sanmiaoqian
322,00 Dexter Junction,8,abeadman8x@dailymotion.com,Ailey,33.9267392004,Beadman,2.6466061785,XQCEei,Browsetype,+62 750 810 9502,b'\x01',Balai
323,98523 Menomonie Road,45,ivalance8y@princeton.edu,Isidore,38.0941945289,Valance,6.1405276837,RewtTX,Livefish,+63 178 856 0634,b'\x01',Ternate
324,40833 Mariners Cove Place,0,gdoore8z@hibu.com,Gilberto,35.6597065472,Doore,4.5432572183,zHGsT25r2,Mynte,+86 628 587 0410,b'\x00',Shuigouao
325,6 Continental Terrace,15,ofurley90@google.it,Ogden,33.9190690533,Furley,7.8864549562,FmCcjL9,Edgeclub,+81 972 695 5499,b'\x00',Ina
326,79 Badeau Avenue,9,tboldra91@hostgator.com,Tonia,36.062155938,Boldra,6.553907157,7Bo6iLd,Leexo,+55 522 616 4255,b'\x00',Rio Novo do Sul
327,7743 Atwood Terrace,40,fciccoloi92@fc2.com,Fowler,32.1201817234,Ciccoloi,3.7495623245,LfUaFXJqa,Cogilith,+86 198 353 5580,b'\x00',Sunjia
328,5 Dayton Avenue,32,tshoute93@baidu.com,Timmy,34.8169862547,Shoute,5.0378630157,Tg6OUpV,Demimbu,+54 789 650 9717,b'\x01',La Francia
329,42 Morning Plaza,42,cmoorcraft94@bing.com,Consuelo,37.9588404341,Moorcraft,4.4731128685,YrRzAsi,Zoonoodle,+66 450 800 2915,b'\x01',Ban Phue
330,08 Graedel Center,42,dmoir95@addthis.com,Duane,38.5083439174,Moir,4.1507748059,XBdvmj,Leenti,+86 463 459 3139,b'\x01',Dong Liangerzhuang
331,731 Rowland Avenue,0,cdeminico96@nature.com,Cameron,35.0867408384,De Minico,4.6413046913,Yu01lF1T62k,Mydo,+86 253 405 6793,b'\x00',Baoxu
332,06108 Bayside Road,0,icockney97@nba.com,Iosep,34.923607826,Cockney,5.9326116197,W1X4LtN7WQU,Minyx,+63 422 703 3303,b'\x01',Amugan
333,180 Rutledge Avenue,31,edavidek98@ning.com,Esther,33.6419668673,Davidek,7.9744310987,wYVYjx,Zooveo,+7 265 105 9941,b'\x01',Gritsovskiy
334,15 Armistice Court,4,callanson99@so-net.ne.jp,Clayborn,33.3815747672,Allanson,4.1715350699,kBeLHcH5pPy,Meezzy,+86 485 257 9563,b'\x01',Nanfeng
335,8907 Tennyson Terrace,11,kdyka9a@macromedia.com,Karoline,32.753328083,Dyka,6.1573668594,zz56BvD,Voolith,+62 907 406 7875,b'\x00',Picungbera
336,96 Clarendon Street,40,dmargery9b@apple.com,Duane,32.2201774076,Margery,3.5595515095,1sAsXsol,Thoughtstorm,+63 649 212 6224,b'\x00',Guruyan
337,72 Evergreen Junction,9,oartois9c@jiathis.com,Ossie,36.1742099906,Artois,7.202275796,jnV2UmR,Nlounge,+98 480 721 3486,b'\x01',Glkesh
338,53 Rigney Place,13,fnield9d@pagesperso-orange.fr,Fitzgerald,37.8508715995,Nield,8.8280153464,EOhYUGL,Vinder,+380 453 556 1164,b'\x01',Synevyr
339,49496 Northland Point,45,ggarretson9e@ocn.ne.jp,Giacinta,38.3929420082,Garretson,6.5691516243,ehNz4araJsIW,Yacero,+62 237 195 5178,b'\x01',Bendo
340,89085 Sullivan Road,9,jgilliver9f@github.com,Jan,35.9754247125,Gilliver,6.4547833726,Lj8HU2X5,Skibox,+86 432 885 7958,b'\x01',Taibai
341,8 Mendota Place,15,ejohl9g@meetup.com,Eadmund,33.9661639927,Johl,8.3481980898,hQYassVMS,Voolith,+7 152 264 1073,b'\x01',Gordeyevka
342,680 David Road,40,tlinturn9h@blogspot.com,Tome,32.2372284477,Linturn,3.4941119903,Zuj60ow,Innotype,+86 412 161 2141,b'\x01',Lianhua
343,1730 Forest Dale Center,19,mnourse9i@merriam-webster.com,Meryl,33.7947891915,Nourse,6.0962265212,QXWiymGKZu,Brightdog,+359 668 928 0644,b'\x00',Borovo
344,4687 South Center,0,sswanson9j@aboutads.info,Selle,35.0826568068,Swanson,5.0231909109,8IHkxyDXuW2U,Realpoint,+1 414 762 3712,b'\x01',Milwaukee
345,4 Oneill Avenue,0,rnardrup9k@mail.ru,Robinia,35.2588399506,Nardrup,5.3296900286,ug3Y8gL5y,Feednation,+33 164 230 4350,b'\x00',Sotteville-ls-Rouen
346,6393 Melvin Crossing,5,mwestrey9l@businesswire.com,Maddi,38.6047447707,Westrey,7.1870274435,lO089ti,Trilia,+355 839 755 6130,b'\x01',Ujmisht
347,836 Arapahoe Point,31,bmarler9m@surveymonkey.com,Boy,33.1183430466,Marler,8.1458158895,5o4Hy7GY,Dabfeed,+86 378 974 9854,b'\x01',Kokagax
348,337 Dorton Court,31,zhowler9n@a8.net,Zolly,33.19569618,Howler,7.4032905012,gD3wwqrv,Quinu,+994 805 513 1506,b'\x00',Yeni Suraxan
349,1251 Bartillon Terrace,27,kanstey9o@wikispaces.com,Kessiah,32.1179916849,Anstey,7.2645801516,P9Zgb6jYza,Yakitri,+62 217 410 7310,b'\x00',Karangmulya
350,07 Bashford Parkway,22,gbaysting9p@ycombinator.com,Gavra,37.9100299319,Baysting,3.2783551569,KVeiukaPoY,Avamba,+86 906 166 5207,b'\x01',Heqiao
351,1871 Ronald Regan Crossing,12,eroswarn9q@nifty.com,Eli,33.1535729523,Roswarn,3.181684995,TmRbkJ,Thoughtstorm,+1 918 229 0688,b'\x00',Tulsa
352,413 Village Alley,27,dsilcocks9r@nih.gov,Doretta,32.4371685216,Silcocks,6.9306583505,u8PXQWj65,Yakidoo,+994 465 732 6231,b'\x01',Yelenendorf
353,8 Fisk Drive,23,eviveash9s@sina.com.cn,Ewen,32.5225541265,Viveash,7.991174883,sB3JitMgFA,Shuffledrive,+62 131 119 1087,b'\x00',Lengor
354,39 Mariners Cove Terrace,33,mbarreau9t@youtube.com,Meredith,37.6605958368,Barreau,5.744599092,7P91J5Zf2QcT,Thoughtbeat,+62 454 213 8933,b'\x01',Karangampel
355,31 Dexter Road,23,btetley9u@goo.gl,Bev,32.5529370663,Tetley,7.9505295615,dOrwAbZYhb,Mybuzz,+357 780 655 2138,b'\x01',Kato Pyrgos
356,243 Shasta Center,26,dspruce9v@ifeng.com,Darwin,36.2214710043,Spruce,4.7287303948,e1Js9ghMehB,Gigashots,+33 355 174 2005,b'\x00',Marseille
357,807 Sage Road,18,narchbold9w@apple.com,Normie,38.5044753006,Archbold,5.0038215157,ckmiIZESNOg,Livefish,+351 554 180 2563,b'\x01',Pvoa de Santo Antnio
358,1 Banding Trail,0,dskace9x@fda.gov,Desiri,34.7371856493,Skace,5.5925879524,5QmDLiY1ZTK,Twitterlist,+86 898 621 9579,b'\x01',Fengqiao
359,178 Corry Parkway,42,alucian9y@ustream.tv,Austin,38.9304349033,Lucian,4.146738647,B509cZC3MQR,Kwilith,+63 806 241 7330,b'\x00',Balayan
360,3590 Moland Alley,28,nlivesley9z@economist.com,Nissy,32.3222075797,Livesley,2.649169452,4U8WaZB69uoh,Digitube,+998 811 865 6074,b'\x01',Beruniy
361,2691 Ryan Point,41,hnutkinsa0@diigo.com,Herminia,36.8496581202,Nutkins,8.64880221,yFhi5iZGmva,Roombo,+86 252 687 6384,b'\x01',Rulong
362,8330 Anderson Road,45,mconahya1@blogs.com,Millard,37.8642347793,Conahy,6.134283351,ivVt7WRKOL,InnoZ,+64 747 846 9733,b'\x00',Picton
363,3731 Caliangt Place,14,cnotona2@wsj.com,Carmine,37.3454684724,Noton,2.2733822416,4zIL8cm,Babbleopia,+81 123 180 4158,b'\x01',Oyabe
364,6631 Aberg Alley,24,kstangoa3@unesco.org,Kaycee,35.8642998841,Stango,2.9482049162,iY6113x,Centidel,+52 705 994 6230,b'\x00',Benito Juarez
365,6288 Pankratz Circle,35,rakama4@netlog.com,Ruthe,34.4423002057,Akam,3.931760812,RidXZJGXn,Twinder,+46 398 273 2670,b'\x00',Vnersborg
366,043 Vahlen Pass,30,bgriffea5@eepurl.com,Bunny,36.4068479168,Griffe,2.0600814284,M0tARjTR,Wikizz,+86 216 505 9400,b'\x01',Tianyu
367,136 Knutson Lane,7,cbarehama6@istockphoto.com,Charlene,33.2304967931,Bareham,8.7951000523,t6I8YGhscH,Fanoodle,+1 606 132 1417,b'\x00',London
368,052 Cherokee Avenue,31,gwinspearea7@seattletimes.com,Gard,33.2000858681,Winspeare,8.0785473205,UtEeH7Cj61v,Jetpulse,+81 595 547 7660,b'\x00',Furudate
369,958 Tomscot Alley,28,apetrollia8@virginia.edu,Adrianne,32.6517006691,Petrolli,2.6049940887,bi2Ev4mZtBB,Katz,+86 248 637 6909,b'\x00',Luoshan
370,9256 Stephen Court,30,lpeintona9@fc2.com,Ladonna,36.8626709684,Peinton,2.0286830458,yWzVLbF,Zoovu,+7 160 204 0438,b'\x01',Likhobory
371,59118 Meadow Ridge Crossing,33,pbartoliaa@admin.ch,Pinchas,37.4088864585,Bartoli,5.2163619858,JjlTiAG,Wikibox,+86 801 997 2437,b'\x01',Yuelai
372,01 Green Ridge Way,2,jjackettab@epa.gov,Joelle,38.0720554773,Jackett,5.5459803221,dJ91d6p3w8Xx,Skiba,+351 809 194 6725,b'\x01',Pai do Vento
373,689 Eagan Place,40,spostinsac@oracle.com,Spence,32.2206579618,Postins,3.293715128,kXhSJvzHvvT,Eayo,+30 705 989 6585,b'\x00',Vgia
374,30715 Mallard Point,1,dschimonekad@google.pl,Dunstan,34.8151702475,Schimonek,7.8511580619,cyStetcuB0,Yodo,+62 901 125 0884,b'\x00',Lueng Putu
375,0 Spenser Parkway,38,bbiasettiae@arstechnica.com,Bennie,35.7385733284,Biasetti,6.2377313,KlKVInD,Dazzlesphere,+62 907 166 5160,b'\x01',Songkar B
376,610 Thierer Terrace,21,eeastaf@theguardian.com,Eda,38.6141949971,East,5.987430583,U9ke9Z,Chatterpoint,+82 817 347 3782,b'\x01',Guri-si
377,03 Linden Parkway,21,pladdag@de.vu,Page,38.6804956076,Ladd,5.999629344,bWodLtH,Flashdog,+33 517 896 9487,b'\x01',Croix
378,77 Farwell Hill,7,hmcneighah@alibaba.com,Haroun,32.6163989171,McNeigh,8.9568728249,ApecVQE4,Oba,+48 433 750 3986,b'\x00',Janw
379,18 Sundown Place,4,mwrathallai@instagram.com,Munroe,33.0007412099,Wrathall,4.2942360118,gOQXlUVJQ23c,Trudoo,+48 990 157 9676,b'\x01',Skarysko-Kamienna
380,2768 Brickson Park Junction,44,hlinneyaj@psu.edu,Halette,32.7850775048,Linney,5.5231815974,VEaFWXrK,Bluezoom,+229 201 685 1950,b'\x00',Savalou
381,158 Meadow Ridge Place,3,wchristonak@pbs.org,Winnie,34.1987703454,Christon,6.9701224941,JNmw9FCmc4z,Mydeo,+60 332 211 8789,b'\x01',Kuching
382,94418 Union Road,0,sadhamsal@sina.com.cn,Seth,35.2838990134,Adhams,5.8735310493,WYUhfph,Fivechat,+30 803 255 4951,b'\x00',Vrses
383,4773 Knutson Street,12,fbengoecheaam@ameblo.jp,Farly,33.1056579096,Bengoechea,3.6761902053,n8PKRyDA1mF,Blogtag,+86 174 472 2983,b'\x01',Huili Chengguanzhen
384,4 Anniversary Way,14,bayreean@cbsnews.com,Beatriz,37.0615951119,Ayree,2.4234288448,Fq5lVNxW,Demimbu,+234 205 643 7945,b'\x00',Pankshin
385,04 Crescent Oaks Avenue,18,mparnbyao@mit.edu,Merridie,38.7657324923,Parnby,4.8183436707,H80AR2,Eare,+86 137 169 1207,b'\x01',Yangxiang
386,46 Kinsman Street,0,tdobrowskiap@usgs.gov,Therine,35.4833937773,Dobrowski,5.0416782989,lbRs6o,Browsecat,+33 686 321 5357,b'\x00',Avignon
387,160 Bay Avenue,34,bmaccumiskeyaq@bloomberg.com,Bobbi,34.8874373007,MacCumiskey,7.1940874756,IVcXeWJVXYaj,Latz,+7 390 669 6867,b'\x00',Goyty
388,3538 Russell Point,11,mmcniffar@over-blog.com,Molli,33.0198868303,McNiff,6.4068079976,1yDrw0Jw,Gigaclub,+86 963 249 1321,b'\x00',Xianyan
389,3311 Cody Court,23,jrowantreeas@stanford.edu,Jinny,32.6692439995,Rowantree,7.4661032359,og19EJ,Gigazoom,+351 527 840 8624,b'\x00',Aveleda
390,77884 Morning Parkway,38,gdilrewat@51.la,Gauthier,36.3774957023,Dilrew,6.2832730327,rKuvW12MG,Thoughtstorm,+66 334 978 7945,b'\x00',Sukhirin
391,0319 Susan Point,40,bmassingerau@netlog.com,Brandie,32.2852164481,Massinger,4.4073674748,f2Tz2Wo,Ntags,+351 725 221 2232,b'\x01',Trabulheira
392,32035 Clyde Gallagher Court,41,hvoakav@mediafire.com,Huey,36.4005898081,Voak,8.981941512,0OJzDz,JumpXS,+226 784 376 0880,b'\x00',Boulsa
393,9 Bunting Crossing,34,irusselaw@abc.net.au,Inessa,34.9760282341,Russel,6.7895248928,KYXeP8O,Linkbridge,+55 908 555 0487,b'\x00',Estrela
394,8485 Prairieview Pass,45,veelesax@pbs.org,Victoria,38.0898368107,Eeles,6.0618203797,83KGhHP1,Kare,+1 203 679 2906,b'\x00',Waterbury
395,891 International Trail,31,cmaggioriay@ning.com,Claude,33.1945317876,Maggiori,7.9178572639,8K4MFzq3r5wL,Photofeed,+380 838 505 1078,b'\x01',Veselynove
396,320 John Wall Avenue,8,cclowneyaz@state.gov,Colly,33.6736957178,Clowney,2.1321100736,Dz4kyFUlTXi,Yodoo,+48 289 298 4545,b'\x01',Skrzyszw
397,3 Waywood Crossing,1,pgallacciob0@comsenz.com,Philippe,35.1111647052,Gallaccio,8.0151507159,Q5ytWY,Brightbean,+351 217 212 9410,b'\x01',Ereira
398,2588 Pearson Drive,12,ohonniebalb1@domainmarket.com,Oran,33.067981132,Honniebal,2.995749294,RzJPskkxdT2X,Twitterbridge,+46 717 968 0656,b'\x01',Ljungskile
399,6799 Summer Ridge Street,46,bbassinghamb2@alexa.com,Barnaby,34.824557654,Bassingham,2.0701164344,rlOYJ9YO,Buzzdog,+86 402 814 8192,b'\x00',Goujie
400,9822 High Crossing Hill,35,tlainb3@hexun.com,Tull,33.6126907164,Lain,3.4984508385,XuyZ1Jv9rkfV,Bubbletube,+7 642 669 9831,b'\x00',Sterlibashevo
401,53 Schmedeman Plaza,32,mbrabenb4@themeforest.net,Maggie,34.4166069504,Braben,4.7593756525,oseHCNOq1hKI,Oyoba,+62 914 162 6623,b'\x01',Ruteng
402,006 Summerview Avenue,14,jscreenb5@psu.edu,Joycelin,37.1284520633,Screen,2.0880860173,FOKZwwTqPf,Feedfish,+502 113 644 3154,b'\x01',El Estor
403,5 Brown Junction,4,mduckittb6@yale.edu,Maxi,33.8283929301,Duckitt,4.8753120675,RcenXAiQE,Midel,+7 124 115 2683,b'\x01',Privolzhsk
404,77 Center Park,36,fcurdb7@army.mil,Ferdinanda,37.9039610032,Curd,2.3673071781,RmS6vnNLbx,Realmix,+48 538 923 1373,b'\x01',mielw
405,3 Mendota Alley,14,kegglesonb8@usatoday.com,Kate,37.198454524,Eggleson,2.2543665546,3r0DKm1e,Rhycero,+48 411 300 9407,b'\x00',Nidek
406,7029 Shelley Parkway,31,awaggb9@cnn.com,Ardelia,33.5828203652,Wagg,8.2505692946,rdTQlX,BlogXS,+86 360 276 3119,b'\x00',Xintian
407,589 Green Ridge Road,17,lfriesba@kickstarter.com,Levey,36.2966382034,Fries,7.6094238802,ljqX3YMCPz,Edgeclub,+48 763 337 1656,b'\x01',Trawniki
408,6647 Fieldstone Plaza,15,jcollickbb@51.la,Jemmy,33.9600658812,Collick,8.271948321,cxCt5qnx,Skyvu,+54 897 163 0841,b'\x01',Marull
409,40549 Emmet Parkway,4,kalwinbc@etsy.com,Kristal,32.9517447863,Alwin,4.3481452563,3B8gBSg,Photobug,+1 305 325 3182,b'\x00',Miami
410,9 Mallory Circle,11,dbirtwhistlebd@csmonitor.com,Dorrie,33.1288112566,Birtwhistle,6.8015351343,UeeNFBqPa,Innotype,+86 659 451 2518,b'\x01',Shengshan
411,6 Vermont Trail,13,dwoolenbe@abc.net.au,Dur,37.3905097928,Woolen,8.5077245537,kAZLtBgT8lDm,Shuffledrive,+63 347 321 8156,b'\x00',Dalupirip
412,44826 Laurel Lane,1,kbougourdbf@printfriendly.com,Kellia,34.5076388547,Bougourd,8.8886331275,MMjOsNzt,Feedspan,+81 650 803 0350,b'\x01',Ueda
413,62052 Express Circle,18,grhodefbg@prnewswire.com,Gnni,38.7011371149,Rhodef,5.1771699983,LwQCD1bK,JumpXS,+86 760 306 7332,b'\x01',Beijiang
414,15 Stuart Drive,9,eeykelboschbh@noaa.gov,Elwira,35.8994405192,Eykelbosch,6.8400533853,NhMQn3QRD,Miboo,+86 965 574 0582,b'\x01',Jinping
415,42658 Morning Street,33,gcroasdalebi@ustream.tv,Gussy,37.1570899418,Croasdale,5.8932818901,hFLo02UdWMK,Aibox,+242 751 490 4465,b'\x01',Masina
416,13 Nancy Lane,17,lsaphirbj@naver.com,Laurel,36.3060905731,Saphir,7.5178500557,6A07XlLyP,Roodel,+46 629 397 0114,b'\x01',Vxj
417,50922 Schurz Lane,44,bdoybk@army.mil,Benita,33.1314114919,Doy,5.3463147589,5oQFrv4tIy,Oozz,+380 180 138 9912,b'\x01',Kapitanivka
418,390 Carpenter Lane,19,jhaylettbl@house.gov,Joy,33.9082947242,Haylett,6.2321487793,8BEYHpD1n1M,Agimba,+976 510 739 3194,b'\x00',Sharngol
419,3541 Sloan Hill,8,cbrooksonbm@clickbank.net,Cristiano,33.9508188723,Brookson,2.6131809464,yyl4bV1ko,Skiptube,+81 783 620 0319,b'\x00',Kasama
420,402 Eastlawn Pass,4,cabrahmovicibn@newyorker.com,Chariot,33.6026516687,Abrahmovici,4.6821950374,lhetwz3J,Shufflebeat,+86 866 817 4738,b'\x00',Jinshan
421,16314 Veith Court,23,rhakebo@ebay.com,Rae,32.156850941,Hake,8.1162187172,dMrI2I,Blogpad,+7 965 584 1984,b'\x00',Mariinsk
422,64836 Thierer Pass,15,lalyoshinbp@aol.com,Lilia,33.9477857177,Alyoshin,8.0929679538,ZnDtkWqGNLN,Zoozzy,+55 874 112 5729,b'\x01',Belm
423,6920 Ryan Terrace,2,hjosephybq@webeden.co.uk,Hersch,38.2769447602,Josephy,5.6349951518,hGSEo00M,Trudeo,+33 149 923 5073,b'\x01',Rennes
424,56419 Del Mar Drive,1,rmaciverbr@dion.ne.jp,Reinold,34.5227539572,MacIver,8.5778475207,tLC4s4cj,Meevee,+66 799 923 4717,b'\x00',Chaiyaphum
425,02412 Roth Avenue,12,daspenlonbs@fotki.com,Daryn,33.3732887751,Aspenlon,3.2779949027,hIs7idOot,Jabbertype,+62 171 563 5581,b'\x00',Mlawe
426,863 Anzinger Junction,23,bkleinsmuntzbt@china.com.cn,Bride,32.7949624033,Kleinsmuntz,7.9426487434,pnlWFNhvR,Ailane,+380 521 194 5571,b'\x00',Ulichnoye
427,371 Pleasure Park,36,mruslingbu@ifeng.com,Maura,37.9472006135,Rusling,2.3758924063,9ijK613h,Jaxspan,+46 505 926 1369,b'\x01',Tby
428,86162 Towne Trail,1,amarvellbv@pen.io,Avivah,34.7671923518,Marvell,8.6855383729,AoITE5kizhZ,Topicblab,+86 795 406 0247,b'\x01',Baizhu
429,39696 Buhler Trail,17,adahlbw@pbs.org,Alain,35.9380425704,Dahl,7.9962402289,F4GcYG7PWk,Fadeo,+62 691 301 0498,b'\x00',Bendosewu
430,01109 Saint Paul Street,2,mmilbournebx@bbb.org,Maryellen,37.7353504838,Milbourne,4.9626584582,ytAnWBTx,Eayo,+62 866 301 7592,b'\x00',Klole
431,52163 Ohio Circle,26,mdowzellby@whitehouse.gov,Marmaduke,36.7667461035,Dowzell,4.8128036611,gSvuzk3hFD8,Twiyo,+86 373 850 5373,b'\x00',Qinglian
432,57132 Straubel Alley,26,sbyrchbz@wix.com,Staford,36.5578948241,Byrch,4.8602645857,fPtomKGu,Chatterpoint,+353 247 908 7675,b'\x01',Donegal
433,76929 Hovde Crossing,36,vgrovierc0@sfgate.com,Vyky,38.3324147984,Grovier,2.4244318558,39s7hQGHa,Mita,+7 900 755 0699,b'\x00',Belyy Gorodok
434,793 Susan Plaza,44,kkemmerc1@homestead.com,Kennith,33.108796764,Kemmer,5.6125034908,qusdf5mzpE,Twitterlist,+976 582 119 7891,b'\x01',Tsenher
435,5 Algoma Point,17,bscimonec2@patch.com,Brig,35.9143942514,Scimone,7.9256677842,NVbq9HCtUi,Centidel,+63 980 684 0872,b'\x00',Dulangan
436,25 Fieldstone Center,13,kboultwoodc3@boston.com,Karen,37.5546048739,Boultwood,8.4743816245,HTVOhKBe9,Eire,+260 768 649 8608,b'\x00',Namwala
437,622 Shoshone Trail,32,jboicec4@wix.com,Jacqueline,34.1300814428,Boice,5.2983767724,zilfTVBk,Browseblab,+27 349 340 7619,b'\x01',Hermanus
438,190 Fordem Trail,35,slampkec5@webs.com,Shay,34.1272165228,Lampke,3.6152675831,Tp6UEJ,Eabox,+62 959 598 8477,b'\x00',Muaralabuh
439,9 5th Point,17,staggertc6@ft.com,Samuele,36.9969612645,Taggert,8.2211931687,2JEblMYizc,Shufflester,+86 306 490 3817,b'\x00',Luoluopu
440,5019 Hoffman Terrace,19,bbrutonc7@webeden.co.uk,Bartlet,33.6816308249,Bruton,6.1236687017,ORPq8S,Yambee,+63 306 995 1973,b'\x00',Nato
441,5340 Summer Ridge Park,39,pfoakesc8@google.pl,Pacorro,36.4501729825,Foakes,3.6628081385,iS5dI9bC,Buzzster,+55 537 650 0205,b'\x01',Tarauac
442,40 Southridge Way,33,jcrasfordc9@bandcamp.com,Johannah,37.0232632328,Crasford,4.9686216052,C6pYKYRzh3zP,Skivee,+86 635 458 5071,b'\x00',Jiangqiao
443,06 Welch Circle,13,maiskovitchca@usda.gov,Micki,37.4697882526,Aiskovitch,8.7469987737,szNkU07o,Oyoloo,+62 580 114 1416,b'\x01',Jatiprahu
444,00 Northridge Hill,16,fbovairdcb@nydailynews.com,Fleur,35.4116526539,Bovaird,3.9119995217,m6qJFD7,Roodel,+57 750 851 6012,b'\x01',Puerto Rico
445,14038 Washington Street,1,abarrottcc@is.gd,Adiana,34.9538063995,Barrott,7.4344229399,Cejmh0,Wordtune,+63 492 846 6856,b'\x00',Tagum
446,8494 Laurel Center,40,lbrayshawcd@homestead.com,Lesya,32.3052340816,Brayshaw,4.4762086992,sP9qXNZz,Latz,+31 790 811 6437,b'\x01',Winschoten
447,2 Merchant Terrace,2,ncristolce@japanpost.jp,Noelle,38.1998073502,Cristol,5.8165463225,7dnqg9QfAy,Agivu,+421 695 291 8581,b'\x01',Bratislava
448,3 Blue Bill Park Trail,8,amctearcf@shareasale.com,Aryn,34.1511722522,McTear,2.6542767947,yyNghWiLDDP,Voomm,+86 826 406 3225,b'\x00',Shuangfeng
449,6626 Bunting Plaza,14,vtorrentcg@salon.com,Veda,37.3891065284,Torrent,2.0965751338,OdcM1e5Op,Skajo,+48 206 889 7537,b'\x01',Czerwin
450,246 David Avenue,33,fsymcoxch@xrea.com,Ferdinand,37.4654215459,Symcox,5.8621542572,gJNXmmU,Flipstorm,+92 111 393 1772,b'\x00',Nankna Shib
451,0 Del Sol Park,24,rsalamanci@berkeley.edu,Ryann,34.9681736258,Salaman,3.0228121852,scdWhEUg9,Trupe,+267 469 600 7571,b'\x01',Mahalapye
452,223 Warner Point,39,cbackwellcj@bluehost.com,Corrie,36.5713494119,Backwell,3.3691448222,n05ZkF,Skyndu,+62 405 503 9259,b'\x01',Lembur Tengah
453,3710 Pond Pass,18,rdevaenck@de.vu,Reynolds,38.0862605527,de Vaen,4.7659557101,qzEpiTfoo,Zoomzone,+86 827 498 5546,b'\x01',Hengxianhe
454,3 Grover Hill,28,bcagecl@t.co,Bren,33.0899345302,Cage,2.4359770446,EKODJYEpcK,Wordpedia,+48 425 810 9812,b'\x00',Piasek
455,113 Kennedy Alley,23,btalbotcm@ning.com,Borg,32.8310481977,Talbot,7.6267280418,cSauQu8cFh,Vidoo,+48 250 377 6035,b'\x00',Trzebinia
456,1598 Menomonie Way,1,jfeckeycn@oaic.gov.au,Johnna,34.9379403442,Feckey,7.6197310707,PepL903,Omba,+54 620 534 4971,b'\x01',Ro Tercero
457,0 Canary Hill,9,jbamforthco@amazonaws.com,Jsandye,36.2751643718,Bamforth,7.0195893444,2hcr3Gx,Twitterworks,+358 493 200 1136,b'\x01',Hankasalmi
458,83 Quincy Lane,25,gmacsorleycp@taobao.com,Glenna,36.4271377155,MacSorley,7.3567961246,yyeIBxGBkKUC,Lajo,+387 444 407 8510,b'\x01',ivinice
459,874 3rd Terrace,32,mwallerbridgecq@webeden.co.uk,Malory,34.5654106502,Waller-Bridge,4.6960861399,arIbAKFDzD6Z,Browsecat,+54 247 465 9502,b'\x00',General Alvear
460,2 Raven Drive,8,cconrecr@sciencedaily.com,Cinnamon,34.3326281549,Conre,2.2931187825,HYgqlMkutRQ,Kayveo,+62 202 992 1150,b'\x00',Kamal
461,6385 Maywood Point,25,hgeekincs@salon.com,Humberto,37.3106262781,Geekin,6.5536761064,HfgjsczjZIe,Feedfish,+46 360 850 0627,b'\x01',Lule
462,60929 Starling Circle,27,srissenct@usda.gov,Sosanna,32.9973677513,Rissen,6.8806090293,L90sQSvLcFON,Camimbo,+55 369 718 6618,b'\x00',Piritiba
463,2 Prairie Rose Junction,41,sbeveragecu@rambler.ru,Susanne,36.3738676215,Beverage,8.2219988806,0L67hA,Topiclounge,+95 488 512 1751,b'\x00',Kayan
464,9 Golf Court,22,gcawcv@miitbeian.gov.cn,Gayle,38.3478736586,Caw,3.1829293811,AFv6Kobyt1Qq,Brightdog,+216 337 902 8436,b'\x00',Houmt Souk
465,97 Delladonna Road,28,tmaitlandcw@vimeo.com,Tris,33.1432205108,Maitland,2.4451986963,a4fyb1,Jabbersphere,+33 617 310 6118,b'\x01',vry
466,41093 Dorton Road,6,pwardecx@instagram.com,Paolina,38.8568086598,Warde,2.5625600791,0byOibO,Feedfish,+381 191 102 8778,b'\x01',Smederevska Palanka
467,68 Melby Place,3,sveregancy@shareasale.com,Sharl,34.3563446271,Veregan,6.7481061785,qLv40oHt,Ntags,+63 207 692 1228,b'\x01',Busay
468,1663 Tony Plaza,39,efenwickcz@home.pl,Erika,36.29089703,Fenwick,3.8970519264,CUSFRnFL,Oyope,+46 757 629 6483,b'\x00',Skvde
469,273 Veith Terrace,23,mpitkaithlyd0@blogs.com,Marybelle,32.3418361658,Pitkaithly,7.6715156487,N6B5P8,Oyoloo,+86 511 102 8699,b'\x00',Ningxi
470,048 Jenifer Terrace,13,ssmallsmand1@newyorker.com,Sharl,38.2116090981,Smallsman,8.6350850279,jVP8BsKYPxD,Reallinks,+62 825 957 9078,b'\x01',Maurole
471,805 Charing Cross Drive,3,rblakslandd2@unblog.fr,Rayna,34.0631033579,Blaksland,6.9859010642,yV4Gk9,Gabspot,+380 188 676 9761,b'\x00',Yelyzavethradka
472,9 Evergreen Parkway,33,preynoolldsd3@cocolog-nifty.com,Pamelina,36.8343935539,Reynoollds,5.6759197938,N1vJvpfCY7w,Talane,+51 919 611 1197,b'\x01',Jayune
473,4173 Moland Street,37,jesselind4@instagram.com,Janessa,34.4757326544,Esselin,3.099717234,l2PnsKT,Jamia,+63 160 233 8698,b'\x01',Reina Mercedes
474,7368 Morrow Place,42,lellesworthed5@bravesites.com,Leland,38.9843486338,Ellesworthe,4.2550946475,8pk566MGtB2,Skalith,+93 769 650 0786,b'\x01',Bmyn
475,3547 Tomscot Crossing,0,pcrummeyd6@nasa.gov,Paulita,35.0459160414,Crummey,5.6089399982,fPJAhg,Brainsphere,+33 781 727 2833,b'\x01',Sceaux
476,95 Melby Avenue,13,visleyd7@usgs.gov,Vachel,37.8589498329,Isley,8.1734028404,mMO1Qf8WBWN,Thoughtbeat,+86 227 647 4293,b'\x00',Taibao
477,5807 Doe Crossing Lane,10,egetcliffed8@yelp.com,Elton,37.3080241079,Getcliffe,4.1684457308,BTCjALkp,Vinder,+86 747 346 1303,b'\x00',Gaoguan
478,931 Buell Place,16,krootesd9@netlog.com,Kaitlyn,35.6365306409,Rootes,3.9181145868,TvbWZsi,Janyx,+62 824 302 3401,b'\x01',Johogunung
479,3 Moland Trail,9,iargenteda@friendfeed.com,Isobel,36.3015523136,Argente,6.6340365335,m2nEh4U7APc,Topicstorm,+86 636 734 2947,b'\x01',Heyu
480,899 Northridge Center,8,bshadfourthdb@admin.ch,Bunny,34.144083303,Shadfourth,2.2132212717,41PAWgdN,Fatz,+86 261 397 6922,b'\x01',Zoumaling
481,0 Merry Court,35,lwattamdc@plala.or.jp,Lodovico,34.1993039785,Wattam,3.7915531155,nE9xCtNAHV,Oozz,+63 108 172 7375,b'\x01',Paitan
482,993 Melvin Point,28,smundeedd@google.it,Shauna,32.0660577734,Mundee,2.3206312135,Ig9ZnJFwsgQ6,Yabox,+86 338 167 1092,b'\x01',Duyang
483,24 West Avenue,12,agaskallde@bigcartel.com,Arthur,33.1724779485,Gaskall,2.8239097206,z9pYiDfpm9,Yakidoo,+358 693 812 7499,b'\x00',Ylne
484,4008 Clove Terrace,3,pjanauddf@engadget.com,Perren,34.3883802971,Janaud,7.0059889773,X8pcAS1P,Gigabox,+420 517 830 5933,b'\x01',Dite
485,40532 Oxford Crossing,41,vmatfindg@yahoo.com,Vassily,36.3469928247,Matfin,8.7215337129,Wf2KSN,Browseblab,+62 858 680 0384,b'\x00',Heret
486,27 Westport Place,9,berangydh@yellowbook.com,Bambie,35.8640245966,Erangy,7.4404355229,povy3gD7,Meetz,+86 193 812 6804,b'\x00',Lizhuang
487,66 Debra Trail,39,esheardi@jigsy.com,Emmett,36.1949023499,Shear,4.163217868,Xu9Kehm,Cogidoo,+63 939 883 7982,b'\x00',Dugcal
488,0781 Bobwhite Way,27,rmacneilldj@fc2.com,Ruth,32.7814207891,MacNeill,7.092802937,3kfI2HO9teN,Avamm,+351 837 472 9444,b'\x01',Nagosela
489,6543 Northview Trail,9,cmoredk@disqus.com,Cybill,35.9096614753,More,6.4039562621,oAe4X1emaD,Camido,+62 230 953 7922,b'\x00',Purwosari
490,89273 Lunder Hill,14,hlawlingsdl@nydailynews.com,Hedvig,37.4862141329,Lawlings,2.7212624131,vjdHaWv84,Fadeo,+387 298 582 4845,b'\x00',Foa
491,65642 Emmet Court,13,rriversdm@oracle.com,Reidar,37.6890672701,Rivers,8.5343924169,BIVB8tosJZEx,Wikizz,+86 111 129 4166,b'\x01',Houping
492,74 Lakeland Park,30,rpauledn@squidoo.com,Reynard,36.4688972126,Paule,2.3706906852,1ICwNPHzV3,Yakijo,+7 163 775 3707,b'\x00',Zhangatas
493,43 Delaware Trail,23,nkosedo@rambler.ru,Neel,32.883170165,Kose,7.7349495149,jrLFbYIjU,Kaymbo,+62 546 655 7363,b'\x01',Lundo
494,243 Carpenter Junction,18,fgullamdp@mac.com,Farrell,38.8899534315,Gullam,5.3826632719,K8FzqvYu,Vidoo,+373 818 361 0933,b'\x01',Rcani
495,1887 Sutteridge Road,6,tdorowdq@yahoo.co.jp,Tina,38.687604844,Dorow,3.0302504911,3W0JtmLrQYP,Tagpad,+351 258 459 7674,b'\x00',Vinhas
496,2313 Darwin Pass,14,kburnupdr@xing.com,Kris,37.3924006104,Burnup,2.985966337,yk7VGWLLEqCj,Vinte,+27 713 210 5733,b'\x01',Bloemfontein
497,32 Orin Drive,46,avindends@istockphoto.com,Ailee,35.1560626931,Vinden,2.3558109941,bybFTBn,Twinte,+62 505 518 4071,b'\x01',Mulyoagung
498,859 Ramsey Road,13,kpallasdt@google.co.jp,Kipper,37.4591218964,Pallas,8.0640255472,ya2rBk2,Voonte,+502 559 306 6024,b'\x01',Morales
499,118 Maywood Street,6,jroothamdu@comcast.net,Janeva,38.7785549048,Rootham,2.7902578107,syKNvf,Skyvu,+48 456 713 5904,b'\x01',Wojnicz
500,00565 Londonderry Park,32,acumberledgedv@whitehouse.gov,Addie,34.6058168149,Cumberledge,5.1895213406,G5uL180,Podcat,+351 830 591 8557,b'\x00',Calvos
501,11 Prairie Rose Street,15,mcalderheaddw@weather.com,Marlow,33.7568263692,Calderhead,8.4276729495,NGdUI1O,Mydeo,+7 606 619 3742,b'\x01',Kochenvo
502,5105 Morningstar Circle,34,fbawcockdx@mozilla.org,Florencia,34.8785836224,Bawcock,6.5648045872,MHr5BG,Buzzdog,+86 305 741 2729,b'\x00',Weitian
503,0744 Scoville Street,3,sbeckhamdy@stumbleupon.com,Shannan,33.8846333491,Beckham,7.1923418729,DHRuJBSCwg,Rhyloo,+385 338 903 2515,b'\x00',Gradii
504,3206 Atwood Street,39,rjarmandz@php.net,Rosemaria,36.2625399145,Jarman,3.750844616,jXrH3jL5,Babbleblab,+377 795 988 9465,b'\x00',La Condamine
505,806 Center Alley,28,blidgatee0@delicious.com,Burr,32.0380701826,Lidgate,2.1334500104,Njj8WueF4,Yozio,+351 498 717 8699,b'\x01',Chavo
506,1 Jackson Center,2,dhaackere1@weibo.com,Dolph,38.224622047,Haacker,5.450719606,sMXRVPCvr7HE,Blogtags,+86 128 622 0113,b'\x01',Hean
507,378 Merrick Crossing,15,selsworthe2@upenn.edu,Sheree,33.9775399969,Elsworth,8.9433724777,bP50ZXe,Skaboo,+63 249 142 8576,b'\x01',Alubijid
508,2 Londonderry Street,10,irittmeiere3@va.gov,Isaak,36.7207269105,Rittmeier,4.3619217676,19bhlGjf,Flashdog,+266 825 770 1139,b'\x00',Quthing
509,0 Thierer Court,8,klabese4@bbb.org,Kev,33.7091890603,Labes,2.5507078455,xJaEt2XM,Leexo,+7 949 636 2779,b'\x00',Pridonskoy
510,216 Continental Terrace,9,tumplebye5@businessinsider.com,Tova,35.5031605251,Umpleby,7.255394704,diCmw2d8ut4,Skimia,+33 127 272 7712,b'\x00',Lyon
511,83 Caliangt Terrace,28,mcleynaerte6@drupal.org,Marijo,32.0069811227,Cleynaert,2.829795437,ipwgGu,Flipstorm,+86 367 760 6060,b'\x00',Maogou
512,103 Oak Valley Junction,41,krandalese7@blogspot.com,Kalindi,36.7128725331,Randales,8.9532835927,ItddSgoX7K,Wikibox,+48 826 718 5362,b'\x01',Miastkw Kocielny
513,87235 Jackson Trail,3,mfyalle8@youtube.com,Marcello,33.6831016665,Fyall,7.1056866889,08a8LoMH,Topiczoom,+64 120 241 7266,b'\x01',Maungatapere
514,579 5th Circle,19,lcoullinge9@va.gov,Lorne,33.8104637044,Coulling,5.5727811325,UMvsquPGos5Q,Skipstorm,+62 632 397 2477,b'\x00',Batulawang
515,041 Rigney Point,1,lfishbourneea@google.ca,Livia,35.0377066603,Fishbourne,8.8334654573,WAIDw2Qxd3,Yacero,+1 505 802 5198,b'\x00',Santa Fe
516,6879 Anhalt Circle,39,cfurneyeb@amazonaws.com,Cobby,36.3377880588,Furney,3.8146072093,9iWEYgTa1G,Meejo,+62 761 311 4884,b'\x01',Ngawi
517,4 Menomonie Street,11,carmallec@ft.com,Collette,32.0632328416,Armall,6.3831636309,V9CEO7Lvw,Tavu,+86 130 647 6765,b'\x01',Lingda
518,8 Dryden Center,23,ghalstoned@marriott.com,Grove,32.0529750457,Halston,8.1187009449,3wZJlJuI8,Rhybox,+62 589 529 7279,b'\x00',Rejoagung
519,69540 Kipling Place,39,agreenrdeee@icio.us,Angil,36.1701477747,Greenrde,4.1656987473,ZIpB0XBWDC,Jabbertype,+994 182 295 4543,b'\x01',Basqal
520,3 Killdeer Pass,36,scowapef@1688.com,Selma,37.9681080536,Cowap,2.5888872201,CDTdZ1lT9lq,Feedspan,+66 477 125 4384,b'\x00',Yang Chum Noi
521,50523 Northview Trail,21,gbeldumeg@friendfeed.com,Gabbie,38.7340388189,Beldum,6.5166962337,J7vlHp5,Photofeed,+1 505 959 2715,b'\x01',Albuquerque
522,2307 Dixon Circle,47,mjeyeseh@census.gov,Marthena,37.4915180444,Jeyes,3.6592720182,1K9MdL1C,Jabbercube,+33 205 657 2107,b'\x01',Toulouse
523,4 6th Pass,34,kbernotei@cbslocal.com,Kory,34.7770024655,Bernot,6.4497366627,zcxg3lSsKQ,Edgetag,+251 794 761 0379,b'\x00',ds Zemen
524,841 Hollow Ridge Court,19,troncelliej@dailymail.co.uk,Theresa,33.7330508497,Roncelli,6.189505358,NNDNiQ9f,Skilith,+49 247 179 9086,b'\x00',Wetzlar
525,38974 Del Mar Pass,44,civanyushkinek@bloglovin.com,Carmelia,33.2101519984,Ivanyushkin,5.2088644204,2rEIleMmU,Oyoba,+359 770 673 1012,b'\x01',Borovan
526,65274 Nelson Parkway,35,aadamskyel@unicef.org,Arlie,33.8444338195,Adamsky,3.6696445654,0SIhOf8U,Dynazzy,+55 336 149 6411,b'\x00',Inhambupe
527,18 Grayhawk Hill,28,tplaunchem@bluehost.com,Thaxter,32.7966676513,Plaunch,2.2175921226,tzzkzl0Qj4m,Wikido,+93 999 235 0922,b'\x01',Andkhy
528,602 Sommers Alley,2,jfardenen@smh.com.au,Junette,37.7568577128,Farden,5.3520692575,tj6BlGppL,Thoughtmix,+380 701 441 7041,b'\x00',Pechenizhyn
529,02189 Loftsgordon Parkway,44,kcastagnassoeo@drupal.org,Kevan,32.8767782907,Castagnasso,5.3796029037,gFzm06,Omba,+63 122 941 2515,b'\x00',Lungaog
530,9485 Susan Junction,11,jshortoep@nsw.gov.au,Jamie,32.8331642273,Shorto,6.1807062987,nrWB0g,Shufflebeat,+62 772 382 9934,b'\x00',Prioso Barat
531,49808 Gateway Avenue,21,clandereq@vimeo.com,Corabelle,38.6146672572,Lander,6.5012637598,3XfTlYz,Voonix,+62 558 368 7328,b'\x00',Kedungwaru
532,0 Sommers Pass,35,gbraitlinger@ucla.edu,Grier,33.7769202388,Braitling,4.253443709,fGQ2Ivr,Ooba,+86 510 284 9003,b'\x00',Shiao
533,39220 Bobwhite Parkway,36,tduigenanes@merriam-webster.com,Tull,37.7780549189,Duigenan,2.3755043739,pIPl7G,Wordtune,+66 503 698 6107,b'\x00',Wang Noi
534,77832 Cambridge Lane,2,riorioet@nba.com,Ryun,37.9341270074,Iorio,5.1488784458,7FXe7KHf3vk5,Thoughtbridge,+1 189 967 7279,b'\x00',Kirkland Lake
535,6020 Bluejay Drive,38,cmcphillimeyeu@jimdo.com,Cookie,35.7261918824,McPhillimey,6.434804675,HGooj66d,Flipstorm,+60 202 186 1445,b'\x00',Putrajaya
536,478 Green Ridge Street,41,sfeatherstonhaughev@gizmodo.com,Saxe,36.2999194095,Featherstonhaugh,8.9894550382,3rBtPIj,Meetz,+46 901 671 0572,b'\x01',Ljusdal
537,17 Schmedeman Terrace,34,ehaggidonew@intel.com,Elicia,35.2389926043,Haggidon,6.5203171919,LKWr45groTFe,Skipfire,+63 414 907 7579,b'\x01',Dumlan
538,521 Rowland Terrace,14,dingremex@dailymail.co.uk,Debbie,36.9326768749,Ingrem,2.3535399737,0Ue2PlOa,Jabbersphere,+46 425 424 5200,b'\x01',Tyres
539,954 Messerschmidt Hill,15,ecolterey@tinypic.com,Erna,34.120757984,Colter,8.5973145818,LPot1lLJ,Thoughtblab,+55 310 745 4442,b'\x01',Ccero Dantas
540,2 Kipling Way,10,bkitsonez@rambler.ru,Benjamen,37.7131154035,Kitson,4.4771144398,Ob6EkcWjCxk,Demimbu,+389 658 393 2216,b'\x01',Bosilovo
541,700 Eggendart Place,9,bfarlandf0@people.com.cn,Bernadette,35.4305487533,Farland,7.3314717998,k7OQej,Bluejam,+86 490 360 4884,b'\x00',Fengjiang
542,63 Crowley Park,13,jhatcliffef1@webmd.com,Jobey,37.6256340393,Hatcliffe,8.3448582172,6MADAnIslDkK,Jabbercube,+46 950 516 5108,b'\x00',Helsingborg
543,60074 Russell Center,18,rpaddickf2@artisteer.com,Rey,38.6324165587,Paddick,4.2675990928,nVYRJ7pM,Meezzy,+1 856 730 6982,b'\x00',Camden
544,6 Aberg Plaza,9,ytimebyf3@scientificamerican.com,Yale,35.7178163088,Timeby,7.2752499446,8oFbvaQ2lA,Linktype,+55 330 409 5278,b'\x00',Guarapuava
545,0 Pierstorff Avenue,15,dgerreltsf4@cyberchimps.com,Dante,34.1785710017,Gerrelts,7.8320721945,hjdaxPw8RugA,Skynoodle,+30 980 283 2305,b'\x01',Nestrio
546,4073 Harper Center,16,bknollesgreenf5@ovh.net,Becka,35.0549819638,Knolles-Green,4.081554961,ntUGXGub,Twitterworks,+351 765 446 9319,b'\x01',A dos Cunhados
547,137 Crest Line Crossing,36,agiffinf6@t-online.de,Alvera,38.1597352472,Giffin,2.4769144726,xN7tuuNg,Jetwire,+7 528 835 0717,b'\x01',Sergiyev Posad
548,66457 Division Center,20,cmycockf7@webmd.com,Carlotta,32.0149139242,Mycock,4.6915570559,RBPIWxbMTHMH,Kare,+62 884 135 8195,b'\x00',Tlogotunggal
549,856 Northwestern Lane,33,ydonif8@skype.com,Yuri,36.6941154979,Doni,5.3869229834,ukUa6Us,Reallinks,+62 238 838 1985,b'\x01',Lancar
550,71685 Coleman Court,4,rshearmurf9@independent.co.uk,Rosanna,33.1108141645,Shearmur,4.1888439535,BHmsGK,Cogilith,+81 431 515 1000,b'\x01',Sja
551,1684 Forest Lane,32,hinesonfa@epa.gov,Hugues,34.1372020307,Ineson,4.6375648215,8duEYhC51Y7n,Abata,+54 671 250 7562,b'\x01',Morrison
552,1 American Street,5,fspilsburyfb@cyberchimps.com,Frederik,38.194596688,Spilsbury,6.9534799881,KdW9b0N,Riffpedia,+51 693 287 8064,b'\x01',Ucuncha
553,9 Hallows Road,32,jmulvaghfc@sourceforge.net,Jobey,34.5005363316,Mulvagh,5.4566161605,cQpjf3B,Twiyo,+46 541 107 2459,b'\x01',Trollhttan
554,780 Vera Street,10,lcrosoerfd@yelp.com,Lionello,37.3724995884,Crosoer,4.409420275,VtLpFy,Oyondu,+48 581 398 3360,b'\x01',Raszczyce
555,57 Pleasure Lane,15,lburrassfe@amazon.co.uk,Lanni,33.9515046968,Burrass,8.6795978735,F6FlIHwwmP,Babbleset,+62 773 738 1054,b'\x01',Gagah
556,71 International Parkway,36,bboggsff@ask.com,Bambie,37.9010454751,Boggs,2.3863373496,8MR5wBBl,Zava,+51 618 607 6133,b'\x01',Shamboyacu
557,50 Mandrake Pass,28,spocklingtonfg@google.es,Sharlene,32.3449209918,Pocklington,2.3070867564,5zTalo5K6,Dabvine,+502 978 635 9199,b'\x00',San Pedro Jocopilas
558,8 Beilfuss Hill,17,ecaddiefh@businesswire.com,Emelia,36.8199280432,Caddie,8.1482868968,sbcRN2,Digitube,+62 442 807 5619,b'\x00',Seulimeum
559,3154 Longview Alley,40,sspencleyfi@aboutads.info,Stevena,32.4403526811,Spencley,3.8908206913,RM12gQpriFd,Feedbug,+255 348 757 1385,b'\x00',Kyela
560,72 Pepper Wood Hill,8,ucoppledikefj@prweb.com,Udale,34.5091956434,Coppledike,2.3177381617,peiTzVNgOPj,Yakidoo,+351 947 833 7263,b'\x00',Longos
561,35855 Mcbride Alley,28,nbenfellfk@ucoz.com,Noella,32.9871433369,Benfell,2.3591990857,UTOQDWibzCH,Skilith,+381 722 521 4417,b'\x01',Sremski Karlovci
562,97289 International Alley,2,joxenfordfl@acquirethisname.com,Jordanna,38.5828281469,Oxenford,5.6134856928,8MZMSBVJk,Wikivu,+66 664 834 1880,b'\x00',Phayao
563,70178 Muir Crossing,20,aplowsfm@alexa.com,Alice,32.8017321768,Plows,4.875928224,afKTmt2flAS,Eire,+62 453 831 2581,b'\x01',Ngrowo
564,62572 New Castle Place,4,mrockellfn@mysql.com,Marcy,32.7742121377,Rockell,4.3703902563,fq2TA5ow,Thoughtworks,+7 362 425 0690,b'\x00',Pushkin
565,2231 Hovde Terrace,8,bmcsheefo@merriam-webster.com,Bernadina,34.2433019866,McShee,2.4658379832,SecGYZVZduLX,Voolith,+86 111 839 6790,b'\x00',Yunlong
566,70 Mallard Parkway,47,lstollefp@pinterest.com,Linet,37.2457975662,Stolle,3.6213378966,FkZmg7E,Einti,+1 405 729 4859,b'\x01',Chalan Pago-Ordot Village
567,0640 Karstens Place,42,lphilcockfq@economist.com,Lizbeth,37.9179071238,Philcock,4.0466485641,afkiKDCTZpJ,Pixonyx,+86 173 753 4008,b'\x01',Huangshan
568,0 Shoshone Drive,9,dclubbefr@youtu.be,Devora,36.2990293723,Clubbe,6.8355781324,H5jFgRR,Muxo,+62 233 919 6517,b'\x00',Pasauran
569,3 Harbort Drive,12,ccuttingfs@bloglines.com,Cecil,32.8641915429,Cutting,3.4060260616,9Gxim95ojv,LiveZ,+86 203 233 0403,b'\x00',Shenzhengqiao
570,594 Lakeland Court,24,ldoftyft@dagondesign.com,Leandra,35.5333455923,Dofty,2.6975329032,FvyyjfZ0,Devcast,+86 825 492 6784,b'\x00',Dianzi
571,08116 Anthes Center,41,kyeldingfu@wix.com,Kris,36.2453161919,Yelding,8.4566116035,dJUTcwbpPsx5,Jabbersphere,+86 618 626 1623,b'\x00',Jiangya
572,4655 7th Point,15,ocoulthardfv@ifeng.com,Olvan,34.0451592502,Coulthard,8.4552478278,Vuvw08Lf,Roodel,+54 737 337 9191,b'\x00',Gualeguay
573,614 Graedel Drive,24,dpetraccofw@spotify.com,Dalt,35.6425467048,Petracco,2.5676142637,3xQwXkF6avSY,Zava,+380 124 851 4021,b'\x01',Novohrad-Volynskyy
574,1694 Oneill Plaza,31,mcapenerfx@cnn.com,Moyra,33.6059761233,Capener,8.3255893742,vS7H2XDJ,Thoughtworks,+86 122 660 4415,b'\x01',Butahai
575,545 South Pass,18,respinhafy@wunderground.com,Rachelle,38.2949717463,Espinha,4.9411128513,7yuTWhkgXGga,Devbug,+62 579 862 9612,b'\x00',Umbultanjung
576,165 Stoughton Street,12,tendfz@gov.uk,Tiffie,32.9868349186,End,3.3742104453,FXnaAyC,Skimia,+62 204 183 6141,b'\x00',Cimonyong
577,148 Tennessee Lane,0,mjahang0@pen.io,Mabelle,35.5259420893,Jahan,5.2516594913,1DfkWzzOg,Tagchat,+1 617 581 1769,b'\x00',Boston
578,66 Eliot Place,41,crabierg1@princeton.edu,Coletta,36.4687350689,Rabier,8.4263148795,CqCnTBCAt1,Meetz,+62 869 773 9967,b'\x01',Sindangraja
579,38728 Thompson Place,24,eadamiakg2@kickstarter.com,Edouard,35.5972399131,Adamiak,2.601039806,RdtveGtvYO,Yamia,+86 302 431 3502,b'\x01',Guantang
580,08 6th Way,15,rmathoug3@ftc.gov,Roz,34.4086664749,Mathou,8.0103055051,6drgBRyl3,Eire,+48 539 745 5270,b'\x00',Dobra
581,3758 Center Trail,36,alening4@patch.com,Arabel,37.9413662904,Lenin,2.6133970604,pFSuEp,Wikizz,+7 461 208 0821,b'\x00',Selizharovo
582,6 Manitowish Drive,40,zwhittingtong5@businesswire.com,Zitella,32.232753055,Whittington,4.0897797321,0NJbF4sjjUY,Wordify,+62 792 945 3144,b'\x01',Cibeureum Satu
583,88 Oak Pass,22,preag6@eventbrite.com,Persis,38.0853323057,Rea,3.4225265569,BYOxGmv,Jetpulse,+34 914 699 8950,b'\x01',"Palmas De Gran Canaria, Las"
584,51973 Laurel Crossing,10,epiburng7@macromedia.com,Eberto,37.2896341832,Piburn,4.2215040503,gXQ3FNXOF,Devshare,+52 873 628 6543,b'\x00',Independencia
585,12 Fremont Terrace,30,osayleg8@epa.gov,Onfre,36.72948303,Sayle,2.2973696675,Xh4dO7eQc,Skinix,+1 972 663 2462,b'\x00',Irving
586,8 Anthes Crossing,26,gmcinteeg9@elegantthemes.com,Gretel,36.022367765,McIntee,4.4871407521,RDlbUVJv,Realbuzz,+62 306 317 6220,b'\x00',Cikaso
587,176 Grayhawk Hill,20,lbedderga@sfgate.com,Lynne,32.0403224899,Bedder,5.4473857861,WY1vQxSyBgD,Kwimbee,+591 404 965 0026,b'\x00',Coroico
588,84 Holmberg Avenue,16,aheustacegb@1und1.de,Amalie,35.5078255083,Heustace,3.9147910164,zx8dCpmO3O,Photobug,+63 862 449 5110,b'\x00',Libacao
589,77040 Arapahoe Junction,30,tlethieuliergc@wikia.com,Tyrone,36.0316560699,Lethieulier,2.2271284397,rOZ5irEiq,Dablist,+385 939 757 7015,b'\x00',Virje
590,47 Lukken Lane,33,ocufflingd@wix.com,Oliy,37.1270049651,Cufflin,5.2531069728,BSWmYs,Wikizz,+86 957 749 6712,b'\x01',Guanzhuang
591,716 Maple Wood Drive,1,emccallumge@delicious.com,Emily,35.5012456413,McCallum,8.3667838102,JRvWpYj,Kayveo,+7 300 861 1191,b'\x01',Krasnaya Polyana
592,7 Monterey Hill,33,aventrisgf@si.edu,Adria,36.7652435838,Ventris,5.2631047718,bzIEsyEViX,Janyx,+49 201 287 5199,b'\x00',Kln
593,7016 Burrows Plaza,35,kstouthergg@cloudflare.com,Kellyann,33.7339588509,Stouther,4.3458080771,KUMagtGbkDQ,Babbleopia,+60 574 183 6809,b'\x00',Kuala Lumpur
594,76 Browning Pass,36,lghilardinigh@businessweek.com,Linnet,38.0209564357,Ghilardini,2.203256458,DHi16vstp5,Fadeo,+48 877 888 8777,b'\x00',Raszkw
595,04 Sunfield Plaza,1,dcarleygi@bloglovin.com,Drusi,34.905187073,Carley,7.7907226471,GxSySifxy,Tazz,+7 211 426 4601,b'\x00',Kholm
596,9176 Anzinger Place,22,cclementelgj@odnoklassniki.ru,Ches,38.0555541738,Clementel,2.9318540096,0WXmZoHp,Skyndu,+52 252 270 4465,b'\x00',Morelos
597,32 Hagan Alley,38,cbaggalleygk@barnesandnoble.com,Chico,36.4443043098,Baggalley,6.4594074522,SzZQj2ffD6X,Edgeblab,+62 893 439 6649,b'\x00',Jagong
598,42 Duke Center,22,rramsbygl@businesswire.com,Rici,37.9702574822,Ramsby,3.6791613439,qItHpxO,Voonte,+33 912 721 4187,b'\x00',Rungis
599,6 Hansons Place,25,lgreggm@elegantthemes.com,Lianne,37.0197947684,Greg,6.7784725885,9LIDnFnttA,Quinu,+351 959 328 6392,b'\x00',Charneca da Cotovia
600,6514 Hanover Hill,18,mdarlowgn@github.io,Maje,38.838790258,Darlow,5.4709344522,gRBY2b,Eimbee,+86 721 491 7856,b'\x01',Sanhe
601,414 Nancy Park,16,lsherrardgo@hugedomains.com,Leonardo,35.5965673208,Sherrard,4.2314512337,xYjW6l34o,Photobug,+681 827 453 9157,b'\x01',Mata-Utu
602,2310 Gerald Avenue,38,wshuardgp@ft.com,Wayland,36.2171386659,Shuard,6.3605278156,ZbIq4zxCWjKr,Devcast,+358 338 580 7764,b'\x01',Nrpes
603,8490 Moland Trail,37,mblasiusgq@1688.com,Melinda,34.7314619651,Blasius,3.1737453144,8BQzbTfpGQA,Pixope,+55 271 531 4241,b'\x01',Arax
604,20474 Transport Center,9,dlinwoodgr@ihg.com,Darcey,35.870881982,Linwood,6.5233035832,BUlTXqCK,Meedoo,+1 857 889 5794,b'\x01',Ban
605,1 Schiller Junction,8,acrosoergs@bravesites.com,Allissa,34.4218349531,Crosoer,2.3973070992,8xYn5iPSs,Skimia,+52 776 651 2804,b'\x01',Lazaro Cardenas
606,0 Northport Alley,43,hschachtergt@goo.ne.jp,Huntley,34.467926834,Schachter,6.2017825749,E7cddO,Lazzy,+504 813 530 8927,b'\x01',Sandy Bay
607,0 Monument Point,33,lcubbingu@blog.com,Lanette,37.0410129765,Cubbin,4.8846774263,gmZ4t6e,Twitterbeat,+57 784 301 1264,b'\x00',Almaguer
608,5 Debra Plaza,24,hshentongv@china.com.cn,Herby,35.1092311883,Shenton,3.1101335237,sbeD2mlGEu5,Photobug,+63 774 198 0613,b'\x00',Cabucgayan
609,9368 Birchwood Crossing,8,rperringgw@exblog.jp,Renado,34.2029116806,Perring,2.7223772596,uu2CFYw3,Photospace,+371 985 338 0082,b'\x01',Cesvaine
610,0463 Upham Road,18,ometsongx@umn.edu,Ofilia,38.61850224,Metson,5.0030583535,DCmxtPBwfGF,Feedbug,+86 644 166 5925,b'\x00',Donghe
611,80 Red Cloud Court,36,smcglaudgy@examiner.com,Serge,38.1625231805,McGlaud,2.0985175672,8HJxSTTCaHSt,Skipfire,+86 954 830 0164,b'\x01',Lianan
612,0839 Dayton Parkway,31,kcoreygz@google.com,Kip,33.1691591397,Corey,8.2612515572,13fe0ZOt,Feedbug,+967 479 931 5244,b'\x01',abr
613,20823 Grasskamp Road,30,gfrancombh0@amazon.com,Gerome,36.0543548434,Francomb,2.1716227878,GhY3QJAuF,Eazzy,+351 649 161 0053,b'\x01',Tijo
614,76054 Blue Bill Park Street,0,lkenwynh1@parallels.com,Lorette,35.5377150945,Kenwyn,4.9244648156,bu6V7TqF,Youfeed,+33 604 694 4764,b'\x01',Marcq-en-Barul
615,64333 Nova Park,16,sthomannh2@delicious.com,Stanislaus,35.1073414803,Thomann,3.9590493964,rmi4loYu,Yabox,+81 237 550 0079,b'\x00',Ureshino
616,773 Moulton Court,5,zvinkh3@walmart.com,Zaccaria,38.0371351835,Vink,7.1497638969,4wC8heUDhT,Devpulse,+86 506 856 9255,b'\x00',Xinshichang
617,0790 Anderson Terrace,16,dchartmanh4@nih.gov,Danyelle,34.9301773392,Chartman,3.6119649138,oSOdNdgaY,Zoombox,+1 540 977 7376,b'\x01',Roanoke
618,39554 Summer Ridge Drive,24,mgatlandh5@reddit.com,Micheil,35.0071559658,Gatland,2.9871362405,jZVoMx83h2s2,Camimbo,+51 111 757 1547,b'\x00',Sayn
619,2 Morning Crossing,4,mdupreyh6@zimbio.com,Margery,33.1876175159,Duprey,4.2228837556,NqvEocA9L,Tagopia,+63 496 977 2760,b'\x01',Subic
620,380 Havey Crossing,15,ltowlh7@lycos.com,Lyndsay,34.2602430656,Towl,8.4270123374,6kejVllm7Ag,Youtags,+691 495 589 2261,b'\x01',Moch
621,8690 Hallows Crossing,38,cclemensenh8@dmoz.org,Claudio,36.0408417664,Clemensen,6.0756311125,6c0TLPed,Meemm,+62 614 780 7647,b'\x00',Sidomulyo
622,54 Stang Plaza,34,dgerransh9@about.me,Dottie,35.0974883922,Gerrans,6.220481901,RSCETqsSs,Avaveo,+62 915 947 5690,b'\x00',Krajan Nglinggis
623,53 Vermont Street,5,ebarradellha@networksolutions.com,Electra,37.613230948,Barradell,7.0759288606,XIVYbx,Demimbu,+359 225 337 2035,b'\x01',Batanovtsi
624,997 Steensland Alley,14,mheininghb@nba.com,Mae,37.6571712359,Heining,2.7822811806,IbIUxxdZQ,Viva,+33 710 847 5113,b'\x01',Cergy-Pontoise
625,856 8th Road,31,gstivanihc@wordpress.org,Garner,33.287079149,Stivani,8.220260257,ggBr3s8m,Zoombox,+7 863 333 5251,b'\x00',Shumyachi
626,74256 Warner Alley,44,hragatehd@reuters.com,Hercules,33.1681985846,Ragate,5.3145678127,mEpcuuuw,Skimia,+353 532 119 3805,b'\x00',Daingean
627,235 Crownhardt Place,11,ncovottihe@dailymotion.com,Noe,33.3732145195,Covotti,6.6354369351,vNkK8FW,Digitube,+57 671 814 2188,b'\x01',Guayabal
628,51 Westend Drive,12,umclukiehf@marketwatch.com,Urbano,33.2591586757,McLukie,3.1233934763,ufu2dBZg,Blogtag,+55 307 486 8852,b'\x00',Assis
629,5 Trailsway Circle,15,rmuldowniehg@drupal.org,Randell,33.7294060581,Muldownie,8.7414031877,FPWE7L,Jaxworks,+374 912 121 2652,b'\x00',Kamaris
630,9 Meadow Ridge Crossing,27,mcastagnassohh@goo.gl,Maddy,32.1983852112,Castagnasso,7.107080889,Bym1rpJ,Skinix,+385 480 719 1909,b'\x01',enkovec
631,3299 Kipling Way,8,zmichiehi@twitter.com,Zedekiah,33.7946174958,Michie,2.2269008007,wDzGyUS8TU,Voolia,+81 433 138 2014,b'\x01',Itsukaichi
632,598 Washington Place,25,blinnhj@mtv.com,Broddy,36.9342857716,Linn,6.621453981,9O4ebiu,Gabtune,+389 160 511 9634,b'\x00',
633,2 Fallview Court,40,acottlehk@samsung.com,Angelle,32.3908400812,Cottle,3.3848387829,qSsoLods,Innotype,+420 877 215 3603,b'\x00',Stranice
634,81382 Dovetail Drive,25,ecaselyhl@princeton.edu,Estele,36.825589779,Casely,7.3062234503,TfDZFAg1xkq,Oloo,+234 407 239 5575,b'\x01',Kafarati
635,09968 Tomscot Park,27,mlagaduhm@mtv.com,Merv,32.6483201477,Lagadu,6.839865807,jFS7YY7UpIG,Browsecat,+86 429 519 4433,b'\x00',Taozhuang
636,49 Logan Alley,3,tscalerahn@europa.eu,Tanitansy,33.9291352768,Scalera,7.2915242508,n8VWqIwk,Ntag,+63 805 199 0786,b'\x00',Caromatan
637,21857 Anniversary Crossing,0,mnehlho@yahoo.co.jp,Morley,35.3245435689,Nehl,5.7375474387,7q9joncu,DabZ,+46 725 856 4927,b'\x00',Jrflla
638,9 Glendale Drive,5,hsquirehp@fc2.com,Helena,38.3390513024,Squire,7.0218857719,wmuJgl4,Tekfly,+62 517 332 2093,b'\x00',Suren
639,87855 Carpenter Hill,24,jduckethq@csmonitor.com,Janina,35.0473645375,Ducket,3.0206286274,c7D75BdvL8cV,Mymm,+86 541 679 5693,b'\x00',Jiangshi
640,02052 Blaine Plaza,43,denriquezhr@printfriendly.com,Deeyn,34.3905482974,Enriquez,6.3063004085,PHyBYDSgR,Flashdog,+86 607 843 0855,b'\x01',Chengxiang
641,26 Ridgeway Parkway,47,jhearonhs@reference.com,Justino,37.6047154915,Hearon,3.5370112758,5qWsmjP9,Muxo,+58 888 504 2371,b'\x00',San Juan de Manapiare
642,67676 Blue Bill Park Terrace,26,mastberyht@lulu.com,Marcile,36.3427417936,Astbery,5.2476446287,bZkGiy,Kazu,+84 583 894 5614,b'\x01',M Th
643,1425 Prentice Crossing,25,ckeillohhu@imgur.com,Carine,37.1330118623,Keilloh,6.1983443477,fiVpnk,Centizu,+48 379 985 3724,b'\x01',Kasina Wielka
644,00166 Cottonwood Center,38,lcaronhv@forbes.com,Lani,36.3972114443,Caron,5.6423558059,mDvw0MuP,Divape,+505 260 242 2844,b'\x01',Diri
645,54 Eastwood Crossing,19,lyelehw@kickstarter.com,Lib,33.4725006032,Yele,5.9971272566,aWLfxS,Devify,+63 906 552 5571,b'\x01',Malway
646,5 Mcbride Lane,35,ikikhx@mail.ru,Inge,34.3378518295,Kik,3.9406244689,O8EdX8rfN837,Youspan,+86 498 305 1071,b'\x01',Daping
647,4943 Melrose Way,47,bchawkleyhy@aol.com,Barn,37.1046807274,Chawkley,3.5648192091,eUMCnC8,Yambee,+55 212 327 1874,b'\x00',Maragogi
648,47069 Drewry Park,31,lrichardssonhz@statcounter.com,Lyndell,33.613109677,Richardsson,8.1114090333,mm7WwUj1vbi,Feedmix,+55 657 571 8773,b'\x01',Unio da Vitria
649,1567 Independence Terrace,43,jpremblei0@answers.com,Javier,34.5772845428,Premble,5.8410124537,ED6RQwHaVB,Realmix,+506 677 191 9291,b'\x01',San Rafael Abajo
650,18 Onsgard Crossing,44,adendlei1@huffingtonpost.com,Ardelle,32.7112501843,Dendle,5.325261595,JcAkovHJov5M,Centidel,+63 526 838 7281,b'\x01',Margos
651,83766 6th Terrace,31,dmcneillyi2@digg.com,Demetri,33.5568013865,McNeilly,7.6928593282,aKnEbYqQ96,Skinix,+55 167 328 2271,b'\x00',Senador Pompeu
652,02738 Mccormick Terrace,3,ahiggani3@amazon.de,Alene,34.2852617899,Higgan,7.0774175117,jsJcMZ1qhMP,Wikivu,+86 310 430 5389,b'\x01',Penglai
653,573 Ridgeway Park,6,opogosiani4@forbes.com,Owen,38.4774823408,Pogosian,2.6710319813,717qsTrdkc9f,Realpoint,+62 346 734 1994,b'\x01',Wiyayu Barat
654,13171 Fieldstone Park,2,klillistonei5@economist.com,Kimberli,38.3725237112,Lillistone,5.9128924606,nrtbXVRaq,Twimm,+81 597 147 6506,b'\x01',Kawasaki
655,96 Fuller Court,24,shousdeni6@feedburner.com,Sullivan,35.3573952282,Housden,3.2537135372,kItgZLG,Fivespan,+1 303 560 7182,b'\x00',Aurora
656,62 Hanson Hill,4,mocullinanei7@ycombinator.com,Mignonne,33.6945005413,O'Cullinane,4.6718522712,QXgElhFk,Realmix,+36 527 407 2732,b'\x00',Miskolc
657,86290 Reinke Park,25,ehambleni8@ezinearticles.com,Eveleen,36.6691090541,Hamblen,7.0996382172,9it0dp,Gigashots,+63 709 387 0348,b'\x01',Mapalacsiao
658,425 Larry Hill,8,jbedhami9@github.io,Jarvis,34.3629528682,Bedham,2.0033184345,b72wdsAu0Z4a,Podcat,+86 583 751 5195,b'\x01',Hufang
659,8 Basil Crossing,43,jpherpsia@ca.gov,Jori,34.6454961263,Pherps,6.1366662499,ryWOoPpK8198,Jetpulse,+46 424 451 5489,b'\x01',Skogs
660,18551 Marquette Hill,40,fbenardeauib@altervista.org,Florry,32.397612673,Benardeau,3.5619121327,8kIRoUVJO9,Wikibox,+57 503 559 2513,b'\x00',Murillo
661,3695 Pearson Circle,26,ccolmoreic@usatoday.com,Codi,36.6993149789,Colmore,4.7904740895,DHp2Eu,Voomm,+86 852 403 0820,b'\x00',Zhonghe
662,02358 Merchant Hill,17,mdowyerid@e-recht24.de,Moyra,36.7856049093,Dowyer,7.778845448,aOBAs8SHIi,Meedoo,+380 384 741 1281,b'\x01',Vylkove
663,489 Upham Crossing,8,bmanicomie@artisteer.com,Bambie,33.961151008,Manicom,2.2759311575,pjp25JSFv,Youtags,+62 966 692 6116,b'\x01',Nobo
664,4155 Hovde Parkway,9,oussherif@comcast.net,Opal,36.4323965367,Ussher,6.7948700528,mEumY8ou,Thoughtmix,+52 345 313 3984,b'\x01',La Cruz
665,7389 La Follette Circle,42,tstreaterig@imgur.com,Tyne,38.0057075144,Streater,4.1353437993,SeaePFDxeNx5,Cogidoo,+86 532 337 3950,b'\x00',Libao
666,6 Katie Avenue,19,mciccarelloih@last.fm,Myrlene,33.3544434029,Ciccarello,5.9823762445,dPdUnh3g57z,Skilith,+93 239 256 6795,b'\x01',rt Khwjah
667,4330 Carpenter Way,3,lrichardeauii@odnoklassniki.ru,Lin,33.890477628,Richardeau,7.4946425393,tePank,Cogibox,+62 201 249 4258,b'\x01',Jaga
668,46264 Swallow Avenue,30,cofihillieij@last.fm,Christen,36.0784557985,O'Fihillie,2.0752078505,20XtNLhW,LiveZ,+86 163 129 5147,b'\x01',Hanchang
669,910 Fallview Way,25,gwraggsik@naver.com,Guntar,37.5558114855,Wraggs,6.1546240653,wpHA8bmWJm,Oloo,+62 252 693 1208,b'\x00',Langsepan
670,07810 Carioca Junction,27,rreanil@bizjournals.com,Rosalind,32.378789244,Rean,7.0831838469,8RgWvzOCMyq,Bubblebox,+86 863 135 6358,b'\x00',Jiaotang
671,35637 Bayside Road,8,aoheaneyim@baidu.com,Alberto,33.947198121,O'Heaney,2.1425397722,ZNEOwDeXuBEt,Yakitri,+57 285 795 7529,b'\x01',Soacha
672,156 Boyd Center,20,rgironein@w3.org,Randolf,32.5447627685,Girone,4.8196978572,DfXV6fwU,Tanoodle,+54 615 827 2084,b'\x01',Jardn Amrica
673,97 Cardinal Alley,16,jisackio@photobucket.com,Janette,34.8887992909,Isack,4.1782795596,qaXO0Q,Gabvine,+54 959 633 4358,b'\x00',Cipolletti
674,36155 Luster Point,39,rdarbenip@a8.net,Raviv,35.9611777293,Darben,3.668124523,YHueCJHugt,Aimbo,+62 501 440 3513,b'\x00',Petiga
675,91611 Dayton Hill,29,bgarciiq@vk.com,Birk,38.7453050992,Garci,8.9506565308,7NAMIm,Yodel,+86 779 851 9218,b'\x00',Hecheng
676,40511 Melrose Drive,44,jrobottomir@flickr.com,June,32.9203064127,Robottom,5.2717244942,RthYm2GXRUO,Zoomdog,+86 813 336 6077,b'\x00',Hancheng
677,1 Forest Avenue,5,rjaysis@instagram.com,Ricardo,37.8486595399,Jays,7.4493455712,59C7gu,Skimia,+63 608 617 1643,b'\x01',Alcoy
678,8641 Northport Parkway,34,esieghartit@spotify.com,Edeline,35.1663839659,Sieghart,6.6974964872,KyRHagz,Rooxo,+389 502 628 1350,b'\x01',
679,76148 Claremont Road,46,bbrimblecombiu@smh.com.au,Barrett,35.2756252695,Brimblecomb,2.0877978906,hMBiTcWW,Thoughtbridge,+62 902 179 7407,b'\x01',Alukama
680,398 Independence Place,22,sbeiderbeckiv@list-manage.com,Selinda,37.9790113129,Beiderbeck,3.6930770603,wZxx9Z8bh,Youopia,+7 282 872 1885,b'\x01',Kovdor
681,94 East Road,30,seskrickiw@topsy.com,Selle,36.154721223,Eskrick,2.8714450757,SgRFrwti,Eadel,+86 191 247 7817,b'\x00',Baiyang
682,7 Division Point,42,smacpadeneix@archive.org,Staford,38.286179461,MacPadene,3.9116385844,lB03vvHW,Jabbercube,+48 334 917 2273,b'\x00',Gra
683,631 Katie Street,2,amacclayiy@tinyurl.com,Addy,38.1228589694,MacClay,5.2536115024,SbuUbykKIy4,Ainyx,+261 815 966 7958,b'\x01',Ambohitseheno
684,65 Sundown Lane,2,kbernardinelliiz@nature.com,Karisa,38.2001680685,Bernardinelli,5.835586037,waYfwj0LE1,Rhycero,+507 132 143 7327,b'\x00',Changuinola
685,633 Northport Junction,32,gbielfeldtj0@businesswire.com,Granthem,34.9067871037,Bielfeldt,5.2800968112,ikry0kZ8,Skynoodle,+86 634 390 6002,b'\x00',Chalu
686,74036 Trailsway Point,20,lmacenellyj1@netscape.com,Lana,32.0190217973,MacEnelly,5.2764979264,WO0TwY7LY,Mydo,+994 865 145 9654,b'\x00',alxanqala
687,28354 Forster Drive,11,htybaltj2@ovh.net,Hatti,32.7252006373,Tybalt,6.3674838719,wis9xH,Kayveo,+66 712 418 0586,b'\x00',Lampang
688,23 Pepper Wood Parkway,19,kkeerlj3@4shared.com,Kimberlyn,33.5231494966,Keerl,5.6029794722,egChjF2wAe,Livepath,+92 581 310 0726,b'\x01',Sargodha
689,3292 Gale Terrace,22,acassellj4@scientificamerican.com,Alejandro,38.1450058056,Cassell,3.0090549623,tcMNaC,Mycat,+256 897 926 2023,b'\x01',Adjumani
690,6822 Little Fleur Terrace,2,ggeeraertj5@nsw.gov.au,Glenine,37.7300013802,Geeraert,4.8904995011,80wHRygED0D,Gabspot,+351 794 603 3264,b'\x00',Igreja
691,03449 Prairie Rose Trail,7,abrookwellj6@e-recht24.de,Alia,32.4255855817,Brookwell,8.5056702552,FNBm9YjNgF,Yodoo,+81 214 820 0718,b'\x01',Hino
692,770 Schurz Crossing,16,spragnellj7@baidu.com,Silvano,35.2487759856,Pragnell,3.5456949297,zhwq11vZwl,Youfeed,+86 448 442 2424,b'\x00',Mengla
693,5 Farragut Court,32,vbendigj8@sitemeter.com,Virgie,33.9983305068,Bendig,5.2112861583,Un7he8Ke,Edgetag,+351 466 146 5315,b'\x01',Arranh
694,1 Ilene Junction,21,gakastj9@narod.ru,Gale,38.3236426642,Akast,6.1153512147,LGYib2cp,Pixoboo,+1 937 236 9778,b'\x00',Dayton
695,9007 Moulton Center,38,pmulqueenja@quantcast.com,Padraig,35.8715590492,Mulqueen,5.9173418244,V1xf1rE,Camido,+1 960 349 5470,b'\x00',Vanderhoof
696,75718 Harper Alley,33,chugginjb@wp.com,Charmine,36.9758440973,Huggin,5.6800533178,lNFqLgfI,Latz,+86 824 969 1058,b'\x00',Tantu
697,25043 Pepper Wood Point,8,ckilligrewjc@epa.gov,Catha,33.8249649244,Killigrew,2.5217675707,UcwJY2,Feedmix,+420 252 331 9815,b'\x01',Star Hu
698,367 Algoma Court,35,bmoberleyjd@seesaa.net,Bennett,33.7261483365,Moberley,4.0497464757,eqK6TZ58,Shufflebeat,+385 174 110 3632,b'\x00',Jagodnjak
699,5171 Pierstorff Road,18,ahaselgroveje@yale.edu,Annie,38.7154071576,Haselgrove,5.0531841973,3WQRq0N,Blogspan,+351 147 580 4308,b'\x01',Loureiro
700,2913 Luster Court,27,mkilleleajf@bloglovin.com,Maressa,32.1228962241,Killelea,6.9960440394,ouMQpT1HUu3v,Viva,+86 832 705 2964,b'\x01',Henggang
701,54 Village Court,35,kbuckokejg@dmoz.org,Kordula,34.1839391012,Buckoke,3.7285445803,RPhmutnz,Skimia,+504 450 154 3411,b'\x01',Valle de ngeles
702,3 Golden Leaf Park,40,rdelaundejh@blogger.com,Riannon,32.3982190543,De Launde,4.3547545584,hyVB0IrdEJId,Bubblemix,+31 158 945 2080,b'\x01',Harderwijk
703,90540 Golf View Trail,0,tgreenroydji@who.int,Trenna,35.1214358897,Greenroyd,5.372252545,8erjFVlSUFos,LiveZ,+251 918 493 0539,b'\x00',Debark
704,07 Vernon Court,23,massandrijj@lycos.com,Mirella,32.3447917522,Assandri,7.8903186252,Rn1ancyl,Photobug,+385 769 257 9544,b'\x01',enkovec
705,1 Nova Pass,21,joreganjk@cnet.com,Jacquetta,38.417843461,O'Regan,6.280321075,NdAPMi,Yodel,+358 351 964 9450,b'\x01',Hartola
706,6565 Sommers Place,12,khessenthalerjl@tuttocitta.it,Kristan,32.9582907695,Hessenthaler,3.6593203993,jbQB7eraU,JumpXS,+93 165 430 1658,b'\x00',Rustq
707,859 Starling Court,31,dgerratyjm@narod.ru,Deina,33.264053811,Gerraty,8.0691183375,VwUXcRZKjIH,Babbleopia,+86 739 873 3832,b'\x01',Huancheng
708,84987 Hazelcrest Terrace,25,jreekjn@army.mil,Joete,37.2182970246,Reek,6.437684137,7zui82,Twimm,+93 556 657 8488,b'\x00',Lashkar Gh
709,56 Muir Parkway,7,jairdsjo@last.fm,Joelie,32.7870066261,Airds,8.7117630162,SIFanpCjw,Snaptags,+81 905 588 8696,b'\x01',Tno
710,8365 Gina Place,33,hrayjp@mozilla.org,Hermina,37.4576930302,Ray,5.5828885232,XKiINLUm,Riffwire,+374 712 772 6189,b'\x00',Ejmiatsin
711,8994 Mariners Cove Parkway,10,prozetjq@msu.edu,Phebe,37.2240622813,Rozet,4.2532818766,0RTf3fYFQK,Voonte,+55 303 206 0749,b'\x01',Buritama
712,20 Coleman Hill,36,emaddenjr@woothemes.com,Esther,38.1465449841,Madden,2.6204849259,DUgxAU1J0lv4,Tambee,+53 502 250 6629,b'\x00',Esmeralda
713,68 Onsgard Way,21,dlingfootjs@wordpress.com,Douglass,38.8365126872,Lingfoot,5.9296079903,vDouIzP,Flipopia,+48 237 905 8331,b'\x00',Beec
714,94 Dahle Junction,43,fscamblerjt@posterous.com,Francoise,34.456392456,Scambler,6.2584483825,6F3JZNrdKD,Jayo,+86 343 308 3532,b'\x01',Shejiang
715,228 Ronald Regan Avenue,20,ssaggsju@cmu.edu,Stevie,32.745377931,Saggs,4.7247407523,YgOAKH17TWD,Kwimbee,+51 328 509 3246,b'\x01',La Molina
716,27 Shopko Parkway,10,mmagnerjv@huffingtonpost.com,Maybelle,37.4016837142,Magner,4.4355506085,hN2ydRh0,Kwideo,+420 867 842 6033,b'\x01',Letovice
717,6334 Burrows Junction,45,nmcronaldjw@yale.edu,Nettle,38.1822469758,McRonald,6.6768165791,6jKydujm9,Zazio,+55 708 368 2000,b'\x00',Santa Ins
718,3 Granby Crossing,8,mmeiklejx@edublogs.org,Misha,33.7305841292,Meikle,2.3917423343,lLYLnuC,Yakijo,+48 744 856 2353,b'\x00',Nowogard
719,3711 Vahlen Drive,42,wscreasjy@seesaa.net,Willard,38.254808035,Screas,4.0038633639,aXCGQY1Z,BlogXS,+86 321 823 8532,b'\x01',Zhaike
720,8538 Forster Park,40,jbreakeyjz@hp.com,Jayson,32.1130758563,Breakey,3.4357938771,zub6NU3,Tazz,+48 516 333 4524,b'\x01',Czerniewice
721,78855 Meadow Valley Circle,28,mcantosk0@jimdo.com,Morena,32.6984035224,Cantos,2.1937531582,Dpzl17hyxzcx,Yakidoo,+33 869 908 8575,b'\x00',La Gacilly
722,68051 Anderson Alley,5,nbotfieldk1@github.io,Noel,38.0877641143,Botfield,7.1781487432,Cb8j2xmVEj5,Quamba,+1 252 175 9254,b'\x01',Dajabn
723,5 Holmberg Junction,16,lwilesk2@1688.com,Lloyd,35.5301299222,Wiles,3.6025053656,0TUj37McLQ,Vimbo,+55 111 368 8754,b'\x00',Agua
724,75 Katie Parkway,29,rrousk3@wix.com,Rudolfo,38.9445109576,Rous,8.6022592308,WO7tbLhmLb64,Bubbletube,+86 245 553 0545,b'\x01',Longkou
725,35743 Raven Junction,16,mstringerk4@unicef.org,Marcellina,35.0581255022,Stringer,3.7173689949,WGb6Sa,Mycat,+33 529 203 4191,b'\x01',Cergy-Pontoise
726,481 3rd Plaza,27,ptompkissk5@last.fm,Penni,32.4500571375,Tompkiss,7.0971828839,wgoIjypb0OBh,Minyx,+55 334 765 6795,b'\x01',Barcarena
727,10 John Wall Place,15,shaughiank6@4shared.com,Sheffield,33.7756911452,Haughian,8.3551937755,tLcJrSF,Eamia,+86 801 464 1545,b'\x00',Leluo
728,5114 Prairie Rose Crossing,24,afrohockk7@ucoz.ru,Aldridge,34.7710695611,Frohock,2.8847370441,h34M5z5K,Innojam,+86 898 113 1578,b'\x00',Huanghua
729,01 Scott Alley,13,abumk8@prlog.org,Alyce,37.8340828672,Bum,8.7746804804,S3zeqkw3,Flipbug,+86 779 658 4027,b'\x01',Haokou
730,994 Dayton Junction,22,ncrallank9@rakuten.co.jp,Nicolle,37.8205532554,Crallan,3.0610199751,eJzHCpHCua,Thoughtbeat,+86 118 401 9147,b'\x00',Sijiqing
731,55049 Grasskamp Plaza,4,bbladenka@php.net,Burlie,33.513004809,Bladen,4.4576149472,Z9NxS4LXdK8v,Dabshots,+49 583 499 0268,b'\x00',Hamburg Bramfeld
732,5759 Logan Junction,13,hkristiansenkb@angelfire.com,Herbert,38.1264110679,Kristiansen,8.1822100099,CM5XRdcrb4P2,Mynte,+7 672 686 2962,b'\x00',Nikolsk
733,6 Pennsylvania Alley,33,aerdiskc@google.it,Ambrosio,36.8380854958,Erdis,5.7208456254,iGlvTmYYHuE3,Oyonder,+56 703 834 3424,b'\x01',Molina
734,461 Weeping Birch Parkway,25,rschiellkd@jimdo.com,Reeta,37.5234580717,Schiell,6.3854007394,eYezzM,Jaloo,+64 637 935 6045,b'\x01',Papatowai
735,746 Waubesa Court,23,dodellke@indiatimes.com,Dulciana,32.7560490416,Odell,7.6701735632,QKGk28OC05qQ,Twitterlist,+62 695 549 9418,b'\x00',Cikendi
736,71784 Di Loreto Alley,39,slidbetterkf@unicef.org,Susana,36.5982212387,Lidbetter,3.7511531888,FKRhc32p,Mynte,+1 173 194 9625,b'\x01',Las Terrenas
737,47736 Talmadge Point,13,lhellinkg@elpais.com,Lorianne,38.4877837802,Hellin,8.6606075204,ymcDwoDJJ,Dabfeed,+961 228 763 8229,b'\x01',Ras Bayrt
738,8569 Comanche Way,5,rbetonkh@cocolog-nifty.com,Rebbecca,38.0029228204,Beton,7.1996591545,VlaHb7eug,Kare,+63 632 280 8519,b'\x01',Dumalneg
739,6 Mockingbird Place,21,idiesski@reverbnation.com,Inglebert,38.595287151,Diess,6.3775404917,3sI5Cr,Browsebug,+62 108 265 2929,b'\x00',Banyuresmi
740,5 Northwestern Avenue,26,glazarkj@ucla.edu,Gregorius,36.7042002479,Lazar,4.8032793609,GDAQwZ3Bnu,Brainsphere,+1 319 859 1054,b'\x01',Cedar Rapids
741,223 Gina Park,32,ocollishawkk@icq.com,Obediah,34.8365371047,Collishaw,4.8887442565,OK35pyC0duM,Oodoo,+54 596 230 7942,b'\x01',Valle Grande
742,36739 Drewry Plaza,32,cfeakkl@house.gov,Cayla,34.4860583817,Feak,5.2143735057,4paCaB,Kamba,+86 884 703 2098,b'\x00',Mengxingzhuang
743,446 Hermina Circle,26,athwaiteskm@clickbank.net,Adda,36.273941786,Thwaites,5.2045227255,A9KnvYX,Flashpoint,+1 916 830 9806,b'\x00',Sacramento
744,5 Corscot Parkway,28,glarkkn@google.it,Gwenneth,32.8174191545,Lark,2.0520157668,wM9VYA9dsx2o,Photobean,+380 279 807 1110,b'\x01',Vynohradivka
745,5 Lindbergh Crossing,32,bcarcassko@census.gov,Belle,34.1602865197,Carcass,4.4200237379,0IvT4WK,Agivu,+389 758 605 4384,b'\x01',
746,21750 Old Shore Trail,28,ehemberykp@ox.ac.uk,Edee,32.4868814442,Hembery,2.4844694252,H3P6wlVb5luL,Eire,+47 589 329 7260,b'\x00',Oslo
747,910 Tony Avenue,37,efeanderkq@quantcast.com,Estel,34.5346101966,Feander,2.9993727972,K3cWcV9Z0Kt,Voolith,+84 947 119 9152,b'\x00',An Chu
748,96435 Elmside Terrace,20,mmarfellkr@psu.edu,Mattie,32.0609390079,Marfell,4.9249206916,c8VqqfNphyW,Vidoo,+81 816 442 9470,b'\x01',bu
749,7112 Havey Center,3,gwoodlandsks@jalbum.net,Ginny,34.3637927001,Woodlands,7.074429049,usvfATl2x2,Mybuzz,+86 359 234 6697,b'\x00',Haozhai
750,72 Del Mar Court,0,knutbeemkt@nasa.gov,Kendell,35.2118494598,Nutbeem,4.8765456456,w3rH5R,Gabspot,+62 450 509 1483,b'\x01',Rantauambacang
751,60 Lukken Place,5,fhorlickku@weather.com,Frasquito,38.9297034263,Horlick,7.4618534121,VKiRETVdlBe,Realcube,+359 978 903 3023,b'\x00',Kaolinovo
752,615 Walton Place,15,jmeadowcroftkv@japanpost.jp,Jessee,33.8362768293,Meadowcroft,8.5988503622,Zdzqla,Talane,+86 683 867 7138,b'\x01',Gongli
753,309 Ruskin Lane,32,amcgeraghtykw@xrea.com,Aleta,34.7423063151,McGeraghty,4.9658096381,YqTpmuX,Dazzlesphere,+86 526 250 9348,b'\x00',Jingzhou
754,8095 Roth Point,17,jclashkx@cyberchimps.com,Jonathan,36.7631413539,Clash,8.0621153619,aNimcz1lbV,Jayo,+7 821 346 6467,b'\x00',Baltiysk
755,887 Tennessee Drive,37,ptivnanky@sina.com.cn,Prentice,34.4336767031,Tivnan,2.9709738731,r9VjWSO2,Browsebug,+66 393 496 6232,b'\x00',Kosamphi Nakhon
756,7 Burning Wood Point,47,msykeskz@noaa.gov,Moina,37.3473866032,Sykes,3.6489909017,G48jVjptbseL,Thoughtsphere,+33 407 477 1516,b'\x00',Amiens
757,306 Little Fleur Drive,44,gthunnercliffel0@opera.com,Gaile,32.9476849069,Thunnercliffe,5.4742265853,pTkH4RF29Cf,Blogtag,+47 416 794 0235,b'\x01',Oslo
758,058 Kropf Street,18,emackailel1@ftc.gov,Elianora,38.251120491,MacKaile,4.7571911199,40JtTH,Rhyzio,+86 608 667 9428,b'\x00',Cihua
759,3886 Welch Park,20,fmcnamaral2@oracle.com,Fiorenze,32.5183642493,McNamara,4.7021028042,3aUfMVvywnKO,Talane,+48 269 484 2973,b'\x00',Narol
760,54633 Old Shore Road,37,mpinshonl3@bizjournals.com,Maryjo,34.4462925945,Pinshon,3.2268246426,zyMoD1R4PXbL,Livetube,+84 463 925 3688,b'\x00',Th Trn M Cang Chi
761,8 Fuller Plaza,39,scarabinel4@themeforest.net,Shannon,36.2060294743,Carabine,3.4663326765,7ZZx50cikgE,Photofeed,+1 731 657 2947,b'\x00',Lucaya
762,87929 Emmet Court,9,tsherstonl5@google.ru,Thorstein,35.4539694035,Sherston,6.7408769655,Q39uua,Bubblemix,+504 425 318 6269,b'\x01',Toys
763,8930 Swallow Lane,24,cbrowerl6@time.com,Chris,35.0266827415,Brower,2.7118385447,vlntgXtC,Livetube,+86 497 460 3724,b'\x01',Huangdu
764,54 Claremont Place,22,fyssonl7@sciencedaily.com,Florentia,37.9424717679,Ysson,3.3139482868,hypp4x,Blogpad,+86 413 127 2643,b'\x01',Zhenjiang
765,19609 Jana Plaza,9,ewinsladel8@epa.gov,Edwina,35.4251126515,Winslade,7.5325721528,Qe2HG4Np,Abatz,+86 628 911 9963,b'\x01',Zhongxing
766,8 Warrior Street,41,gbeazeyl9@europa.eu,Geoff,36.5254902583,Beazey,8.4566996934,JID8rLlO1Sm,Mybuzz,+86 568 196 4489,b'\x00',Zhetian
767,27 Corben Court,5,cpoulglaisla@parallels.com,Catlee,38.8842530125,Poulglais,7.8024685849,2eKgIehtZ4,Trudeo,+63 608 856 0502,b'\x00',Daykitin
768,3138 Badeau Hill,5,rgreiglb@smh.com.au,Reube,38.3705846505,Greig,7.3309144438,te7qaJJcXb,Oodoo,+351 402 427 5818,b'\x00',Casal dos Bernardos
769,8 Eastlawn Pass,17,aphupratelc@yellowbook.com,Anneliese,36.4345765038,Phuprate,7.9165272433,vifJEq3JcA0,Riffwire,+62 430 801 3486,b'\x01',Dalo
770,237 Gulseth Drive,21,kmiellld@yahoo.co.jp,Kippy,38.5996353495,Miell,6.4706770093,O64MW1Kd,Photofeed,+7 498 142 8860,b'\x00',Romny
771,7642 Farwell Park,46,xtoynbeele@amazonaws.com,Ximenez,35.3776365665,Toynbee,2.0553742408,RIvgAOnuB,Cogilith,+55 711 939 9370,b'\x01',Flores da Cunha
772,77 Butternut Alley,34,klambartonlf@hhs.gov,Kelly,34.6690273438,Lambarton,7.1136259657,dleggQ7RdFR,Skiba,+62 806 536 5429,b'\x00',Pasirjengkol
773,061 Elgar Plaza,22,kbrookbanklg@columbia.edu,Kevin,37.7823389138,Brookbank,3.2816051671,VUkZTrForLQ,Avamm,+7 432 675 7340,b'\x00',Severnyy
774,00207 Westerfield Trail,47,pterzolh@google.fr,Paulette,36.8756428067,Terzo,3.3115457098,bpQ7Lu7vo,Bubblemix,+389 376 890 7572,b'\x00',Skopje
775,04 Mitchell Court,28,hvinasli@w3.org,Howey,32.9382477814,Vinas,2.0774780011,BhujHkwX9Re,Topicstorm,+971 247 651 5758,b'\x00',Ajman
776,49 Susan Center,18,rdyhouselj@bandcamp.com,Rufe,38.3835274135,Dyhouse,4.5941056539,3ngCiGvC,Skinte,+387 285 675 8070,b'\x01',Lijenica
777,46979 Golf Hill,33,ctansilllk@china.com.cn,Crosby,37.2943994892,Tansill,5.805820069,jDmUewSVxR,Thoughtblab,+48 433 667 3292,b'\x00',Poaniec
778,5 Bobwhite Avenue,31,iantognellill@hibu.com,Ivonne,33.4647819186,Antognelli,7.6939987152,OHFGjoOENc8,Yodo,+46 979 545 1517,b'\x00',Munka-Ljungby
779,9 Towne Drive,11,ichellingworthlm@wufoo.com,Issie,32.4648243703,Chellingworth,6.0185066799,RlRrquF7XCT,Cogidoo,+856 170 243 0177,b'\x01',Pakx
780,07621 Darwin Hill,12,bfrichleyln@ehow.com,Beauregard,33.2666309135,Frichley,3.0731427417,NqBHkNN,Yodoo,+998 707 372 7239,b'\x00',Oltinkol
781,22871 Nobel Alley,11,nshalderslo@ucsd.edu,Nealy,32.9563915278,Shalders,6.5501138615,ZB9gjO,Eidel,+62 895 315 9191,b'\x00',Gandong
782,2 Calypso Pass,13,nmacgaffeylp@uol.com.br,Nolly,38.1689201657,MacGaffey,8.2026715578,GERm7nX,Digitube,+351 739 963 5700,b'\x01',Miraflores
783,91 Hanson Court,0,eprestneylq@chicagotribune.com,Ellswerth,35.2690759119,Prestney,4.4727320778,kz4XRVS,Skaboo,+30 574 418 4724,b'\x01',Ktsi
784,3670 Autumn Leaf Circle,30,crydingslr@opera.com,Catherina,36.5168550895,Rydings,2.0793778472,5H6IndMZ9,Linklinks,+55 929 411 8672,b'\x01',Rio Pardo
785,50 Maryland Circle,40,ldannehlls@vk.com,Launce,32.3074113869,Dannehl,4.3832073005,N3JoTbzVC,Mymm,+86 723 323 7693,b'\x01',Manisi
786,4318 Cody Court,29,dandrenlt@nsw.gov.au,Doug,38.9348160633,Andren,8.2069890373,C9wFxKt,Flipopia,+86 764 923 9418,b'\x00',Gucheng
787,6990 Shoshone Lane,43,tbruninilu@barnesandnoble.com,Theodor,34.3708701594,Brunini,6.0301222967,AML3PZczgZm5,Edgewire,+33 482 625 0267,b'\x01',Saint-tienne
788,737 Mallory Hill,18,wkuballv@hexun.com,Weston,38.6647798995,Kubal,4.9197379092,n1Dn883,Blogspan,+49 662 864 2848,b'\x01',Dsseldorf
789,0 Hintze Terrace,7,fmatouseklw@altervista.org,Friederike,33.3122030478,Matousek,8.5260775161,VpQh4qGC,Browsezoom,+66 195 521 6208,b'\x01',Chiang Rai
790,0137 Del Mar Center,33,glemmenslx@creativecommons.org,Gil,37.4145942379,Lemmens,5.0540804856,pmBCpgzI,Trilith,+46 537 422 2254,b'\x00',kersberga
791,19 Bobwhite Terrace,45,fmcilherranly@blogger.com,Freemon,37.91887089,McIlherran,6.4670103949,oQ3wEGXn,Eazzy,+86 197 612 8221,b'\x01',Xinzha
792,2051 Garrison Plaza,10,rpickhaverlz@yandex.ru,Reiko,37.1463225907,Pickhaver,4.1146972893,IkAnuln8T6b,Ntags,+46 551 511 7591,b'\x01',Alfta
793,6 Toban Alley,6,rwestfrimleym0@51.la,Reilly,38.6768987903,West-Frimley,2.6567941147,4hKdBfDayX,Dabvine,+54 740 529 3245,b'\x00',Paso de Indios
794,75589 Buhler Junction,25,tifem1@sourceforge.net,Tresa,37.5061447102,Ife,6.21013659,igWFcVIEum40,Meembee,+55 588 224 9436,b'\x01',Benevides
795,76 Monument Trail,5,dduxbarrym2@51.la,Dennet,38.6459543312,Duxbarry,7.5992762378,FEYgjC,Dynabox,+672 304 455 1266,b'\x01',Kingston
796,629 Ohio Way,19,dbrayshawm3@indiegogo.com,Demetre,33.8273863191,Brayshaw,6.3899779842,4PY3XfhXe4,Aimbu,+7 807 785 1500,b'\x01',Ust-Labinsk
797,4 Esker Trail,19,wbottlem4@booking.com,Willdon,33.9206130181,Bottle,6.3038386276,73nGz3DF,Snaptags,+47 278 307 5609,b'\x01',Hnefoss
798,5299 Porter Plaza,6,rmccuism5@sitemeter.com,Ricki,38.4455318316,McCuis,2.8446504898,THs3H619fK,Tagopia,+62 611 282 6302,b'\x01',Lembung Tengah
799,9409 Schmedeman Park,3,adykinsm6@dagondesign.com,Aretha,34.3544917947,Dykins,7.5245763747,DdPEnS,InnoZ,+255 221 221 7233,b'\x01',Usa River
800,95674 Dorton Place,16,skershawm7@amazon.de,Susana,35.033437744,Kershaw,4.3978231822,7mIxBVxvja,Trilith,+46 250 125 3899,b'\x00',Gteborg
801,1156 Esker Terrace,35,hiansonm8@dailymotion.com,Hubert,34.1239053575,I'anson,3.8065072518,jVXvhoSkvvG,Skipstorm,+52 434 350 7050,b'\x00',El Arenal
802,94820 Cody Terrace,28,pcargenvenm9@newsvine.com,Peg,32.4349039506,Cargenven,3.1682382061,Ecud2kqDC5,Bluezoom,+380 198 546 6671,b'\x00',Dykanka
803,46 Manley Alley,34,dvayroma@dropbox.com,De,35.1552901203,Vayro,6.4676709208,8VOsaAPQX,Jatri,+86 487 894 8723,b'\x01',Xiaoling
804,9 Bobwhite Court,27,cjentgesmb@mapquest.com,Clotilda,32.4290404085,Jentges,7.1704218517,oyY4bHEH,Kamba,+81 731 917 2992,b'\x00',Shimodate
805,25067 Arizona Park,13,dcarcasmc@aboutads.info,Deena,37.9722875961,Carcas,8.2671476041,z5DCShhaVM,Youopia,+86 950 442 1851,b'\x00',Oujiangcha
806,6 Carpenter Point,34,dellyattmd@google.nl,Dasya,35.1118180516,Ellyatt,7.0890675136,HYol9S5,Jaxspan,+86 751 776 5847,b'\x01',Jiangtou
807,222 Manitowish Parkway,2,ajappme@illinois.edu,Austin,37.8917945513,Japp,5.7011818654,USM8MO2,Trilith,+27 473 542 0814,b'\x00',Constantia
808,6 Surrey Trail,26,gdaglishmf@state.gov,Giustina,36.0679616053,Daglish,4.36444626,vhyzXFw,Realfire,+351 112 982 3369,b'\x01',Farinheiras
809,48625 Waywood Terrace,18,vgoresmg@creativecommons.org,Vanya,38.3652209888,Gores,4.4101900446,WsjSKdmmacXt,Avaveo,+66 545 501 1815,b'\x00',Warin Chamrap
810,3875 Chive Road,25,edegiovannimh@wordpress.com,Egbert,36.9844388087,De Giovanni,7.3405124478,Pu4hFFi9M9Q8,Ailane,+81 338 701 5027,b'\x00',Yotsukaid
811,104 Gale Circle,28,zneatmi@dot.gov,Zorana,32.3198043775,Neat,3.023106765,3NZMd4,Brainbox,+7 839 851 7830,b'\x00',Nebug
812,103 Scott Pass,12,isephtonmj@infoseek.co.jp,Ive,33.3570542062,Sephton,2.7272614782,0xdCAAyQ,Abatz,+45 616 275 6191,b'\x00',Kbenhavn
813,1056 Everett Hill,42,melcottmk@sogou.com,Melonie,38.0567087608,Elcott,4.0084637441,SRpggL9vBno,Quinu,+86 739 814 1272,b'\x00',Anjie
814,8 Lake View Place,24,jbinhamml@jimdo.com,Julian,34.8470902003,Binham,2.8471062744,iD7YDUj,Pixonyx,+63 278 179 0350,b'\x00',Linao
815,94 Scofield Pass,9,rhannawaymm@admin.ch,Rhetta,35.5349625726,Hannaway,7.424468642,IXhCL4Ilp17R,Oloo,+55 748 604 2852,b'\x01',So Flix do Xingu
816,99 Kenwood Lane,0,dgildersleavesmn@ebay.co.uk,Dame,34.9908121182,Gildersleaves,5.8498202996,NRZCb8tvaXUG,Twitternation,+62 258 921 4227,b'\x01',Purwodadi
817,0613 Jenna Hill,38,atarttmo@gizmodo.com,Ailis,36.4536082505,Tartt,5.8753851741,LA6rd2hntNnn,Jetwire,+86 601 603 0122,b'\x00',Shilong
818,16 Sundown Junction,32,eranklingmp@topsy.com,Erma,34.40000993,Rankling,5.0335710658,1Qt8EUsAkq,Yakitri,+1 346 649 7148,b'\x00',La Sarre
819,8693 Reinke Alley,20,apetersmq@illinois.edu,Adams,32.4590618672,Peters,4.8295246232,DQujPi,Minyx,+380 167 711 8457,b'\x00',Mizhhirya
820,8 Roxbury Center,11,pwernymr@chron.com,Paolo,33.2564863097,Werny,6.7098018821,fOX7u0Xx,BlogXS,+420 955 703 3481,b'\x01',Tn nad Vltavou
821,68981 Columbus Lane,44,lyuryaevms@adobe.com,Libbey,33.2421163964,Yuryaev,5.3565060955,J2KzJOT,Skiptube,+62 284 401 7215,b'\x01',Mislak
822,4571 Merry Parkway,32,ahardwaremt@webeden.co.uk,Artemis,34.3960275691,Hardware,5.2413660638,wnCATGC6z2d,Yodo,+86 487 505 9964,b'\x00',Shuangzhu
823,320 Golf View Trail,34,pmagnaymu@time.com,Phineas,34.9681404465,Magnay,6.8843833087,JIAB4jIqcwYy,Katz,+62 712 999 4643,b'\x00',Waihibar
824,78 Acker Drive,35,mjimenomv@spotify.com,Mathias,33.9049141901,Jimeno,3.3461876146,ASlYLd7kTCwf,Tagopia,+62 864 537 4167,b'\x01',Cikiruh
825,786 Bunker Hill Crossing,31,gginglemw@gnu.org,Gabie,33.5555324814,Gingle,7.9432706847,iNFeelrXu1N,Agivu,+1 843 641 1826,b'\x00',Charleston
826,98 Menomonie Hill,29,cwhittiermx@myspace.com,Cindie,38.8243123882,Whittier,8.7142040982,CGeeNan,Kazio,+256 983 770 0503,b'\x00',Oyam
827,15 Ohio Hill,32,rmichelottimy@gizmodo.com,Rich,34.4603568951,Michelotti,4.76558996,HiihHfeqQu,Jaxworks,+81 307 133 8363,b'\x00',Saiki
828,7 Waubesa Circle,7,nmorganmz@privacy.gov.au,Nero,33.2467312623,Morgan,8.5545272521,lLIETzTgYNwM,Katz,+81 608 165 2303,b'\x01',Sandach
829,55 Kingsford Hill,13,svanderveldtn0@geocities.jp,Shaylah,37.8566324011,Van der Veldt,7.7681263129,nOgCXUji14,Feedfish,+86 480 755 7532,b'\x01',Huxingshan
830,5104 Hovde Alley,35,rthornborrown1@bizjournals.com,Rory,34.3165146833,Thornborrow,4.1147967833,y4BNHV,Jatri,+62 472 873 9636,b'\x01',Batubantar
831,0 Eagle Crest Road,23,kwaynen2@weebly.com,Korella,32.0286705196,Wayne,7.4960302637,y91aYI,Eimbee,+62 566 127 5041,b'\x00',Awayan
832,3 Kropf Trail,42,swyen3@last.fm,Shaughn,38.6788624936,Wye,3.8570387252,D0P5DDnH4,Trudoo,+359 783 191 8381,b'\x01',Bratsigovo
833,98626 Moulton Lane,34,rrableyn4@engadget.com,Rufus,34.7155219549,Rabley,6.4818945342,DBqkXt2S,Skivee,+353 479 594 0239,b'\x01',Longford
834,20 Vahlen Plaza,24,fchatelln5@howstuffworks.com,Ferrell,35.5416915499,Chatell,3.0794276184,SrmIDSoj,Kaymbo,+62 981 839 5222,b'\x00',Ciangir
835,59 Sunnyside Crossing,24,mmewhan6@chronoengine.com,Mabelle,35.4931063152,Mewha,2.9732631244,hfXZYx,Flipbug,+63 764 810 9682,b'\x01',Logon
836,44350 Reinke Court,40,nboardn7@wp.com,Nev,32.0683399511,Board,3.4832888244,EDcpsl,Kwilith,+86 309 890 8355,b'\x00',Jimo
837,26 Kedzie Alley,12,mzarfatn8@fc2.com,Marsha,32.8096240783,Zarfat,3.7980893225,5Nr67Grl,Photobug,+32 693 963 4382,b'\x01',Mons
838,01 Pierstorff Road,16,gholligann9@tripod.com,Gail,34.8828113058,Holligan,3.829440613,DedINDBcyC,Omba,+1 704 117 7153,b'\x00',Charlotte
839,61 Orin Hill,4,khellerna@1688.com,Koenraad,33.7564362285,Heller,4.7803859547,PRnMv3R,Rhycero,+86 890 957 6357,b'\x00',Daluo
840,5 Derek Park,11,jkibbyenb@bloglovin.com,Jackelyn,32.2310824177,Kibbye,6.4130356121,rTM7fefkd,Mydeo,+48 916 390 6520,b'\x01',Iowo -Osada
841,2850 Butternut Road,33,fashnc@hao123.com,Fidela,36.9407185881,Ash,5.6828695845,3AuXTTHB1,Bluezoom,+86 303 779 0310,b'\x00',Yanyang
842,05 Mayer Point,22,abotgernd@boston.com,Annnora,37.8090826919,Botger,3.1682972214,J7kxFhHvMJ,Avamm,+48 165 561 0881,b'\x01',Biaobrzegi
843,3960 Kinsman Place,39,smacconnechiene@independent.co.uk,Sidonia,36.2037966087,MacConnechie,4.0534205228,AdMAYEs,Eire,+7 912 807 4450,b'\x00',Davydovo
844,4 Heath Court,14,elevettnf@mediafire.com,Edward,36.7914429053,Levett,2.68702089,mIqvtqTJVG,Edgetag,+81 553 567 0784,b'\x00',Komatsushimach
845,805 Dwight Avenue,26,oharwellng@timesonline.co.uk,Orrin,36.6457171612,Harwell,4.7330227282,uhjlrLH,Lajo,+86 349 279 0624,b'\x00',Longhua
846,014 Prairie Rose Hill,17,jyeskovnh@sfgate.com,Jessa,36.5466972442,Yeskov,7.9140221668,vvIPgW7YC,Skimia,+965 928 439 5318,b'\x00',Kuwait City
847,57767 Stuart Junction,10,mdibleni@icio.us,Miltie,37.1727127483,Dible,3.9369659452,ns8lLF,Agivu,+86 740 822 0351,b'\x00',Qilong
848,6 Crownhardt Road,43,lfaraghernj@whitehouse.gov,Lin,34.1841311346,Faragher,5.834958933,D3VoOhT,Geba,+63 210 864 1157,b'\x01',Dumaguil
849,9762 Northridge Terrace,6,aflaritynk@wp.com,Alla,38.878589893,Flarity,3.021849663,RwrY9I8p,Geba,+46 160 446 9235,b'\x00',Stockholm
850,34 Merchant Crossing,26,chiscoenl@mayoclinic.com,Cathee,36.5541247161,Hiscoe,4.9240859677,1ap6RD9vmm,Riffwire,+964 900 769 5651,b'\x00',Baghdad
851,3 Farmco Alley,30,cshakesbyenm@boston.com,Costa,36.3697964513,Shakesbye,2.1709604871,wZiAK3HfDimf,Skyvu,+380 423 595 6047,b'\x01',Zbarazh
852,94140 Debs Terrace,23,ialderseynn@de.vu,Ibby,32.6841002346,Aldersey,8.0619439036,RVv5Muiqz,Devcast,+1 502 115 6142,b'\x00',Lamont
853,652 Browning Avenue,43,jpollettno@independent.co.uk,Jacklyn,34.5531992346,Pollett,6.0924106739,Zyms8LYdO,Avamm,+33 803 327 9481,b'\x00',Le Grand-Quevilly
854,4 Warrior Parkway,34,jscranedgenp@jiathis.com,Jeremias,35.2266955143,Scranedge,7.3089494183,kCp5niVuo,Twiyo,+86 653 601 5741,b'\x00',Yantan
855,15 Mockingbird Court,7,mbridgennq@networksolutions.com,Marylou,33.1454955132,Bridgen,8.56483855,gcP80TAjpmcC,Skivee,+62 938 106 4230,b'\x01',Salem
856,75 Kensington Junction,6,ijohanningnr@mapquest.com,Innis,38.629592626,Johanning,2.868312689,xudIn6xpU,Agimba,+86 309 807 1039,b'\x01',Baicun
857,9 Arrowood Avenue,34,crawlinsonns@sciencedirect.com,Coretta,34.6218586164,Rawlinson,6.8343745595,j7qx2EK,Twitterlist,+420 705 409 9975,b'\x00',Jedlov
858,8589 Orin Junction,45,mwilhelmynt@ucla.edu,Mollie,38.3086051316,Wilhelmy,6.6935681106,S1tFYOdc,Tazz,+86 873 685 7180,b'\x01',Daxing
859,204 Loeprich Center,13,apflegernu@so-net.ne.jp,Amy,38.0383496882,Pfleger,7.8818430329,vnit7hYdloN,Zoonoodle,+63 692 815 1720,b'\x01',Bani
860,0 Mayfield Trail,2,pmalpasnv@columbia.edu,Phillip,37.7255028062,Malpas,5.1059226773,mwN8iwv4s,Brainverse,+62 562 510 0783,b'\x01',Kuncen
861,729 Larry Point,15,ypendrillnw@miibeian.gov.cn,Yul,34.1103048105,Pendrill,8.5655775282,UkewFG,Thoughtworks,+1 165 983 0592,b'\x00',Ponoka
862,35559 Butterfield Junction,11,ymostonnx@fastcompany.com,Yorke,32.6582384942,Moston,5.9187147109,q2pO5dU,Jabbersphere,+358 512 421 1689,b'\x01',Savonranta
863,9350 Lien Center,8,mwegenenny@google.fr,Mandel,33.632154445,Wegenen,2.1229559885,Sxa3wng,Yakitri,+351 518 524 7177,b'\x00',Idanha-a-Nova
864,4 Mockingbird Alley,39,ldumphriesnz@epa.gov,Leland,36.3802853806,Dumphries,3.1310258913,y7S82IUOXSk,Twitternation,+62 728 442 9138,b'\x00',Cidadap
865,7 Lukken Plaza,4,tpashano0@fda.gov,Tabor,33.3506216147,Pashan,4.4411295771,HLIJrgbzts,Dynava,+62 537 147 7846,b'\x00',Panghadangan
866,7974 Sundown Way,9,jjouleo1@senate.gov,Jo,35.6676033171,Joule,7.1980229885,tMarXJdkBLVK,Topiczoom,+86 875 125 9568,b'\x00',Guidong Chengguanzhen
867,05 Moulton Road,31,ctortiso2@netvibes.com,Christy,33.3375771314,Tortis,7.6193396857,jbokr9,Riffpedia,+62 160 645 3990,b'\x01',Kali
868,005 South Point,3,acorsaro3@mac.com,Antony,33.878008932,Corsar,6.7794056949,N1fsEUzsoJ,Centimia,+86 811 367 5948,b'\x00',Dahe
869,425 Quincy Hill,36,jwabero4@devhub.com,Jermain,37.8113306278,Waber,2.018018865,XNUUQMf9Y,Kwideo,+62 863 628 4499,b'\x00',Boro
870,9371 Pepper Wood Plaza,47,bnilando5@gnu.org,Brant,37.674453498,Niland,3.4698048462,oXzXq6UO4U,Youbridge,+62 280 578 3666,b'\x00',Tegalgunung
871,823 Anthes Terrace,20,abantono6@netscape.com,Alana,32.3299624839,Banton,5.0174567328,ACrTqbaLwfi,Realblab,+86 422 158 3931,b'\x01',Haolibao
872,6483 Bartelt Street,10,ccareyo7@themeforest.net,Celinda,37.0353382298,Carey,4.1058612613,DmCWt7,Linkbuzz,+64 205 590 2792,b'\x01',Kawakawa
873,47 Carioca Place,42,ntapino8@uiuc.edu,Noel,38.9114701976,Tapin,3.7804450356,v3C8chj,Rhynyx,+84 219 381 8525,b'\x01',Ph M
874,138 Sundown Drive,2,ccolyero9@reverbnation.com,Carleen,38.0483513261,Colyer,5.7044351684,cQLOd4cnNU,Yotz,+7 973 229 2366,b'\x00',Novobeysugskaya
875,112 Quincy Place,1,kgerishoa@google.ru,Kelwin,34.8962952952,Gerish,8.5999928751,eLm12Q,Photobug,+86 875 764 5171,b'\x01',Wangzha
876,0931 Orin Street,26,asalackob@w3.org,Ashleigh,35.8855227145,Salack,5.2341913477,j2XAyPcfwo3E,Gabtype,+49 734 240 4180,b'\x00',Berlin
877,1389 Westerfield Center,17,cmarinoc@1688.com,Cindy,36.0489183436,Marin,7.9518632843,PVuANO4,Jazzy,+62 514 148 8035,b'\x01',Banjar Pangkungkarung Kangin
878,031 Nelson Road,25,ctomensonod@ehow.com,Cathryn,37.4217741291,Tomenson,6.4118966376,iGUsEXfAO,Buzzdog,+62 579 319 8725,b'\x01',Semanding Barat
879,02045 Anzinger Parkway,11,dshireroe@soundcloud.com,Dusty,33.227734841,Shirer,6.5293309531,WlcxqYEMss3I,Miboo,+7 991 875 7765,b'\x01',Admiralteisky
880,2 5th Road,17,dchatanof@tmall.com,Darrel,36.283889079,Chatan,7.6543718362,mD6MhVLiDT3,Midel,+7 128 712 8980,b'\x00',Kyra
881,15385 Morningstar Parkway,16,chardingtonog@yahoo.co.jp,Carmela,34.5915788301,Hardington,3.6394939798,336qGhoQh4,Abata,+47 551 637 4931,b'\x01',Oslo
882,6988 Elmside Pass,15,asiburnoh@indiegogo.com,Alisa,34.1510691185,Siburn,7.706490367,NoGxBPfshilf,Skajo,+62 223 332 7125,b'\x01',Cigemlong
883,327 Kings Trail,25,ahayoi@latimes.com,Austine,37.0055895084,Hay,6.9443164175,9D8YM05,Yata,+62 900 922 9381,b'\x00',Kotabaru
884,8292 David Way,9,mgraysmarkoj@prnewswire.com,Monica,36.0524057236,Graysmark,6.8995633191,9YvIOD,Wikido,+98 129 699 0506,b'\x01',shtn
885,61611 Brickson Park Junction,11,mpillingok@example.com,Maren,32.7435498831,Pilling,6.299412365,zz0Msc5P,Devpulse,+385 669 952 8345,b'\x01',Bobota
886,68409 Lotheville Avenue,13,mskivingtonol@google.com,Moll,37.6059877607,Skivington,7.9253189051,ihSKZDePh0iu,Oyoloo,+230 468 706 2620,b'\x01',Curepipe
887,27603 Larry Point,37,tperringom@fema.gov,Terrance,34.6946798797,Perring,3.1952218211,T9uex9,Quatz,+46 668 727 1181,b'\x00',Karlskoga
888,28 Canary Junction,14,shollyardon@economist.com,Sigismundo,36.9044220084,Hollyard,2.8702328389,zIoWVwUwqQ,Thoughtstorm,+7 557 247 4558,b'\x01',Mama
889,96 Fair Oaks Avenue,32,jingryoo@sakura.ne.jp,Janna,34.4699328261,Ingry,4.7672569323,0tJfZtUOOYrI,Twitterworks,+385 827 450 6955,b'\x00',Raa
890,860 Gerald Junction,22,ecalleyop@canalblog.com,Eadie,38.2571279354,Calley,2.9377335925,TPaERPbrN5jq,Eayo,+86 471 505 1676,b'\x00',Hucun
891,29055 Pawling Park,24,gstonelakeoq@jugem.jp,Gregor,35.17213205,Stonelake,2.9423265433,HEAyg4p4Ep,Skipstorm,+1 586 405 0011,b'\x01',Detroit
892,402 Sunfield Pass,3,rbrendishor@army.mil,Rubina,33.5357607374,Brendish,7.3650609764,1gA6f5w630,Meeveo,+375 326 818 2465,b'\x01',Lyasny
893,6535 Ridge Oak Crossing,4,lcoolos@japanpost.jp,Ladonna,33.4425317574,Cool,4.3498564323,dv5bKvb4,Gabvine,+33 884 404 6795,b'\x00',Rodez
894,331 Hagan Avenue,38,ecodeot@sohu.com,Ernest,35.749869716,Code,6.1420481268,C4oxSqyRXY,Twitterworks,+64 493 253 2926,b'\x01',Waitangi
895,90116 Westridge Alley,25,cfourmanou@1688.com,Cindra,36.5604796075,Fourman,6.9844420572,LvntV5CGdEg,Jaxspan,+358 121 384 7315,b'\x00',Siikainen
896,9359 Clove Trail,20,jspaxmanov@de.vu,Jerrie,32.4340956893,Spaxman,5.2062920027,1YzOFdI0S,Zoombox,+63 250 405 0122,b'\x00',Tulay
897,9196 Vera Trail,1,lkemmerow@cisco.com,Lucas,35.5218467451,Kemmer,8.7910195631,Vb186mij,Centimia,+86 149 874 5940,b'\x01',Houzhai
898,731 Farwell Parkway,6,bgerhtsox@tmall.com,Bert,38.8833223547,Gerhts,2.481419817,LiIWcD5PDy,Trilia,+54 910 910 7765,b'\x00',Dolores
899,8648 Hooker Parkway,35,jwadhamoy@nydailynews.com,Jeffy,33.6357131546,Wadham,4.0430302543,gk7YRXllPi,Eabox,+33 303 560 1767,b'\x00',Saint-grve
900,1 Clarendon Trail,13,gboldeckeoz@sun.com,Giacinta,37.8804784711,Boldecke,8.3279381869,lYUmub,Twiyo,+420 289 278 8202,b'\x01',Star Paka
901,3195 3rd Terrace,13,bnorfolkp0@webeden.co.uk,Brade,38.1641259886,Norfolk,7.6054137632,baXiVlbawr,Browseblab,+81 452 806 7106,b'\x00',Okegawa
902,479 Packers Parkway,5,cainsworthp1@reverbnation.com,Carolyn,37.3951764376,Ainsworth,7.2409956362,mIiwLo,Wordware,+7 780 920 7313,b'\x01',Kolomyagi
903,61712 Jenna Lane,5,bbaldenp2@php.net,Burton,38.4964013551,Balden,7.2333899654,fBwvBv,Meevee,+1 965 435 5313,b'\x01',Saint George's
904,1 4th Crossing,7,ibondsp3@smugmug.com,Isa,32.1286454752,Bonds,8.6589935506,fVkXpYa,Meevee,+351 766 340 8109,b'\x00',Barat
905,82 International Road,19,avidyapinp4@usgs.gov,Adamo,33.9397340434,Vidyapin,5.7453986626,5vf7DiQUi,Fadeo,+63 698 666 1371,b'\x00',Simunul
906,9026 4th Pass,12,jgreenmanp5@liveinternet.ru,Janette,33.3827111855,Greenman,2.9417468879,LRnHOZHyG,Voolith,+1 214 636 8593,b'\x01',Stony Hill
907,45275 Pepper Wood Center,42,clivseyp6@umich.edu,Carola,38.2229504734,Livsey,3.7695672055,6iJcriMN,Quimm,+420 517 844 7646,b'\x01',tnovice
908,7867 Laurel Trail,13,gfoxallp7@behance.net,Gilles,37.4039605424,Foxall,8.8852888932,JNkdwmd2CxL,Dynava,+420 465 400 1579,b'\x01',Jirny
909,24052 Scoville Terrace,5,nburgonp8@microsoft.com,Norene,38.9112125576,Burgon,7.7031307215,Hr2iZpqWjQ,Zoomzone,+86 637 971 0833,b'\x01',Yantianhe
910,87718 Bonner Place,34,mgooderridgep9@businesswire.com,Madelle,34.9308584582,Gooderridge,6.7381849175,el2fG2871U,Yodoo,+30 368 654 1587,b'\x00',Arfar
911,637 Elgar Junction,3,kmaccaghanpa@barnesandnoble.com,Kathleen,33.6126989393,MacCaghan,6.8107480335,ESep8f79Yo,Shuffletag,+86 809 910 4752,b'\x01',Xiashuitou
912,27 Summit Terrace,12,bbearsmorepb@photobucket.com,Blondell,33.1480446911,Bearsmore,3.5836613456,Sbexmhsc,Twinder,+55 688 323 1023,b'\x01',Brodsqui
913,31 Pepper Wood Plaza,27,awaddingtonpc@discuz.net,Arny,32.32057038,Waddington,7.2465136065,hAISpd,Oyondu,+7 163 796 1615,b'\x01',Malakhovka
914,15 Butterfield Way,21,crosenwaldpd@prlog.org,Catarina,38.8628227226,Rosenwald,6.9767492815,W6BjOT,Plajo,+63 479 744 4677,b'\x00',Linamon
915,65 Heffernan Lane,21,dglazyerpe@opera.com,Devlin,38.7894729444,Glazyer,5.7715805837,ukfQIQD,Kaymbo,+52 287 985 8494,b'\x01',Santa Clara
916,96584 Caliangt Parkway,22,qalbasinypf@hostgator.com,Quintina,38.0369948403,Albasiny,3.4070107304,jb7AqsYci,Kwilith,+81 679 333 5616,b'\x00',Yokohama
917,4209 Kennedy Junction,36,dhellsdonpg@constantcontact.com,Dale,37.9200933053,Hellsdon,2.7621285277,MOJ0CZevijeN,Digitube,+48 526 315 3833,b'\x00',Miechw Charsznica
918,46844 Bowman Trail,30,tdemeltph@yale.edu,Towney,36.677593729,Demelt,2.4433847937,60Obed,Skyndu,+84 596 571 5121,b'\x01',C T
919,9748 School Place,34,agenckepi@mapquest.com,Antonio,34.7144507558,Gencke,6.8655783177,RAVKXr,Mudo,+30 887 930 7478,b'\x01',Nos Skops
920,2 Delladonna Point,2,ptreepj@ucoz.ru,Perl,37.6043820323,Tree,5.1977783047,0hvpc7Ab,Dynazzy,+86 513 219 6108,b'\x01',Shangqiu
921,0 Rockefeller Pass,41,bbrettlepk@tumblr.com,Brennen,36.2555178975,Brettle,8.6706628346,WuWfiqYA,Skinix,+506 494 349 5242,b'\x00',Quesada
922,45937 Jenna Junction,30,juvedalepl@posterous.com,Jephthah,36.5668267013,Uvedale,2.0888757391,D965okLTofaO,Livetube,+591 348 229 3132,b'\x00',Mizque
923,677 Brown Junction,39,tjosumpm@vinaora.com,Tobye,36.3669231064,Josum,3.0241974411,TtNG49vQ,Plajo,+386 637 499 0864,b'\x01',Cankova
924,735 Petterle Crossing,45,vphippspn@wordpress.org,Vida,38.158992657,Phipps,6.5123595069,AlLKTU29Vz4,Plambee,+47 327 506 7199,b'\x01',Drammen
925,018 Algoma Lane,13,mosbornepo@cargocollective.com,Martie,37.9308922727,Osborne,8.571250591,FmGkRQ,Oodoo,+58 811 169 0200,b'\x00',Los Guayos
926,13918 Lakeland Center,26,ntarpeypp@xinhuanet.com,Nelly,36.1843314016,Tarpey,4.5327990849,TwyF5KR3,Vinder,+62 114 198 3243,b'\x00',Suwaduk
927,598 Oak Circle,37,smoynhampq@archive.org,Sidnee,34.7189809423,Moynham,3.314008565,0MwAbS,Eayo,+63 508 781 9669,b'\x00',Luna
928,68 Valley Edge Junction,42,cwonespr@ovh.net,Clayton,37.9194682808,Wones,4.234871053,jphDMEi,Bubblemix,+86 604 717 1816,b'\x01',Qiaotou
929,5 Ruskin Plaza,26,biacopettips@moonfruit.com,Bart,36.6169513143,Iacopetti,4.8456007723,jFZMRkz,Meembee,+255 969 324 8643,b'\x00',Bagamoyo
930,08822 Forest Run Trail,15,sdavidoffpt@fda.gov,Sheppard,33.5786701762,Davidoff,8.5300754707,eIjpCO4s,Camido,+381 575 891 4216,b'\x00',ajetina
931,5 Namekagon Street,32,olavarackpu@japanpost.jp,Oberon,34.7496584642,Lavarack,5.191126916,1NGKerI8OgtE,Avavee,+81 396 932 4478,b'\x01',Uozu
932,74 Green Lane,3,cmatevushevpv@time.com,Chuck,34.4515745909,Matevushev,7.3589696452,eDoCDh,Podcat,+55 446 450 7680,b'\x00',Santo Estvo
933,05 Arizona Alley,25,lcutajarpw@homestead.com,Leoine,37.0505995845,Cutajar,6.2281595374,MPsAQ8qL,Layo,+358 611 481 5346,b'\x01',Kaavi
934,6410 Prairieview Trail,33,ppebworthpx@google.com.br,Patricia,37.6866077156,Pebworth,5.5726030201,S9dZS1uxhml,Thoughtbridge,+63 164 521 8341,b'\x01',Guihing Proper
935,55693 Pond Avenue,38,gseywoodpy@eventbrite.com,Garnet,35.9170680218,Seywood,6.0959531885,Hco5B63RbGt,Muxo,+7 328 993 6252,b'\x00',Kurumkan
936,7501 Hagan Park,23,wbrigdenpz@gmpg.org,Winifred,32.3112536644,Brigden,7.822130579,TWJqm2iGmgBk,Tagpad,+55 220 273 8729,b'\x00',Jarinu
937,85082 Badeau Pass,1,lblewq0@japanpost.jp,Lief,34.6881432846,Blew,8.3145930181,zipwEAD,Feedfish,+7 940 387 7688,b'\x00',Pleshanovo
938,6 Bowman Place,47,rdoneganq1@nps.gov,Rhona,37.2042931679,Donegan,3.3254431076,e0QDHjGTv5,Vidoo,+505 689 407 0832,b'\x01',Diriomo
939,05 Browning Parkway,8,rsteptoeq2@businessweek.com,Roderick,33.8392705983,Steptoe,2.3070579356,aVewiUu4,Photofeed,+86 914 524 1344,b'\x00',Nanfeng
940,77914 Messerschmidt Center,10,aisacssonq3@dell.com,Adriane,37.5342558484,Isacsson,4.4443464675,O0yRs47PDB,Shuffletag,+507 760 841 5884,b'\x01',El Progreso
941,2216 Fulton Terrace,36,froscowq4@smh.com.au,Finn,37.8087352923,Roscow,2.1893546562,jaLUdDr,Wikido,+20 804 129 9207,b'\x01',Qar al Farfirah
942,0 Shopko Plaza,32,cmadeleyq5@uol.com.br,Carlin,34.5754942837,Madeley,5.0405889755,xUQzEj0w,Abata,+86 909 675 7616,b'\x01',Xibu
943,80581 John Wall Hill,3,bsyredq6@cdbaby.com,Boony,33.6708939543,Syred,6.9940802665,NyKnUNue,Skyble,+92 889 102 1848,b'\x00',Chitral
944,45164 Mandrake Trail,35,lcrawfordq7@apple.com,Linnell,34.1273976527,Crawford,3.569460538,R8Dn9yG,Devpoint,+66 788 366 5796,b'\x01',Bueng Samakkhi
945,1 Banding Trail,33,nbrownriggq8@admin.ch,Nannie,37.3485222897,Brownrigg,5.1994763721,RJrfiixKt0r,Trudeo,+62 318 431 9316,b'\x01',Simo Satu
946,9914 Scott Avenue,38,wradfordq9@shareasale.com,Win,36.4961365964,Radford,6.2750019105,YPKaYLCW9,Wikivu,+62 343 824 8638,b'\x00',Ciherang
947,7923 Loeprich Hill,16,tfarncombeqa@vistaprint.com,Trace,35.2242030021,Farncombe,4.011065241,RmkBkDf,Blogpad,+380 942 530 1110,b'\x00',Sumy
948,52136 Swallow Road,1,rcloughtonqb@fastcompany.com,Regen,34.6629788225,Cloughton,8.9092184491,GdwRVq3Psgku,Buzzshare,+506 224 799 8035,b'\x00',San Diego
949,2 Stone Corner Center,0,akibardqc@yolasite.com,Agnese,35.4219723902,Kibard,4.4834239035,fvnM3aKDMRE,Jayo,+86 904 754 6811,b'\x01',Nanxiang
950,63021 Fuller Trail,20,tgoodluckqd@wired.com,Trixi,32.9669695179,Goodluck,5.1117772515,rJGli0KMm,Quimba,+81 342 971 0527,b'\x00',Moriguchi
951,80170 Oneill Court,17,htrehearnqe@netscape.com,Hedvig,36.722383923,Trehearn,8.0368317415,ryZ67F,Meemm,+7 391 746 9900,b'\x01',Kazanskoye
952,3 Graedel Lane,13,twallentinqf@reuters.com,Torie,37.7378587506,Wallentin,8.4837226157,cbcXrmY,Jaxnation,+63 675 685 9292,b'\x01',Tubod
953,95 Meadow Vale Lane,35,wiacivelliqg@vimeo.com,Wenda,33.8685137039,Iacivelli,4.1257580206,QpeOYrco,Twimm,+46 849 788 6529,b'\x01',Stockholm
954,61 Shoshone Junction,28,oharraldqh@yolasite.com,Owen,32.0989469249,Harrald,2.6988050744,XNuFwHDjO,Quinu,+380 309 727 3097,b'\x01',Ripky
955,20305 Lotheville Place,35,cmardeeqi@epa.gov,Crosby,34.0097724494,Mardee,3.4992733541,u1YuMbt,Linklinks,+62 189 995 0564,b'\x00',Lembur Tengah
956,93 Raven Circle,7,wbrunsenqj@histats.com,Wandis,32.3929245297,Brunsen,8.4980418446,KA7JtmIHd5,Blogtag,+86 475 734 1366,b'\x00',Bishan
957,25 Lawn Center,14,jbailesqk@theguardian.com,Jemie,37.2016260294,Bailes,2.9075800825,I0Lrg90K5,Jabberstorm,+86 727 779 3156,b'\x00',Shizi
958,4468 Pennsylvania Park,37,jkayleyql@google.com.hk,Jodie,34.4101966195,Kayley,3.1372859939,fEkYEklifx,Twitterbridge,+63 880 861 2542,b'\x01',Andop
959,4041 Carpenter Road,7,bchateauqm@artisteer.com,Britney,32.4515682094,Chateau,8.7290908232,UKvCcku,DabZ,+63 381 439 9234,b'\x01',Maddela
960,46573 Spenser Plaza,32,gtudballqn@altervista.org,Genna,34.2880478314,Tudball,4.3661964462,W2Sds9CtEO,Livetube,+62 675 646 1619,b'\x01',Krajan Timur Mlokorejo
961,55597 Sheridan Place,39,lharderqo@dailymail.co.uk,Louise,36.3856825895,Harder,3.673204264,xaUtjsv3s,Snaptags,+86 204 169 2470,b'\x00',Huaguoshan
962,084 Annamark Road,30,morriceqp@cam.ac.uk,Muire,36.0803552392,Orrice,2.1941617484,GbwgoZ4U0BzP,Kazu,+62 716 515 3450,b'\x00',Banjar Sebual
963,95708 Melrose Trail,32,zgrinstonqq@goo.gl,Zora,34.2608270643,Grinston,4.4432719513,x7UApkiF3pdv,Centimia,+48 597 153 1174,b'\x00',Baborw
964,10 Arkansas Way,2,aavramovicqr@homestead.com,Avictor,38.0302023098,Avramovic,5.3525767732,SQQtQW,Oyoyo,+351 632 312 5121,b'\x00',Calvrio
965,18329 Bunting Alley,1,kvalleryqs@telegraph.co.uk,Kelcey,34.7372308792,Vallery,8.8231595735,FceujPT,Twitterbridge,+381 365 431 1992,b'\x00',Panevo
966,5 Fair Oaks Trail,26,mmitchellqt@microsoft.com,Mareah,36.305733352,Mitchell,4.6480345761,WT2gwi7,Flashpoint,+86 867 939 5708,b'\x01',Jiangchang
967,3695 Kim Way,33,hgerishqu@i2i.jp,Harriet,37.0295546428,Gerish,5.3011668792,SEi6PbLwVNdq,Twiyo,+62 140 855 6417,b'\x01',Koa
968,56272 Weeping Birch Alley,7,rticksallqv@webmd.com,Rufus,33.0335668938,Ticksall,8.3922803067,o2ofP1Vpc,Bluezoom,+7 645 137 5950,b'\x01',Dalakovo
969,93 Haas Drive,16,ppetruschqw@cbsnews.com,Pavla,35.0812985932,Petrusch,3.2907222413,G4P8JB4MI,Mudo,+93 686 661 1155,b'\x00',Mazr-e Sharf
970,8863 Butterfield Road,45,ofouldesqx@cyberchimps.com,Onofredo,37.8123185805,Fouldes,6.3357754815,1obmZe,Topiclounge,+33 898 838 2531,b'\x01',Puget-sur-Argens
971,82998 Jay Drive,3,gsouthonqy@harvard.edu,Gilberta,33.7074115649,Southon,7.2629827382,qRJ17Bvb,Roombo,+86 719 282 4596,b'\x01',Changgang
972,0793 Arkansas Trail,13,akybbyeqz@bing.com,Alleyn,38.11019608,Kybbye,8.6360130003,PSUeDI,Meetz,+1 214 617 1369,b'\x00',Dallas
973,41294 Jana Place,44,rolexar0@discuz.net,Roana,32.739167002,Olexa,5.3537255366,oQRcYCbrON,Aivee,+41 918 868 7262,b'\x01',Basel
974,840 Pierstorff Alley,47,ndifriscor1@google.co.jp,Norrie,37.5623855113,Di Frisco,3.8776287933,i5cO3umui,Yombu,+86 535 548 2293,b'\x01',Wuda
975,709 Golf View Junction,31,bstertr2@sohu.com,Bertie,33.4181527771,Stert,8.0769019814,jJ8Vde8HhY,Brightdog,+62 377 773 5117,b'\x00',Margotuhu Kidul
976,7 Dakota Parkway,11,rbonseyr3@storify.com,Roldan,32.9304861471,Bonsey,5.8856307854,5BZEy9ykRXB,Zoozzy,+62 169 371 2013,b'\x01',Sawahan
977,7606 Stang Drive,13,cmcgroutherr4@thetimes.co.uk,Carrissa,38.2973523777,McGrouther,8.7422265711,2BxLZ9lthb,Agivu,+82 682 655 3628,b'\x00',Kimje
978,4 Burning Wood Park,18,jcatletter5@yolasite.com,Jaquenetta,38.6662399051,Catlette,5.047622895,yi1h3fpPQG,Rhyloo,+420 995 439 6020,b'\x01',Strn
979,36 Almo Avenue,1,medowesr6@amazon.com,Marshal,34.5915627301,Edowes,8.3768946117,aB6dkan,Jatri,+254 493 202 2946,b'\x01',Wajir
980,510 Oneill Court,31,habaroughr7@slate.com,Hyman,33.4293176423,Abarough,8.1458693231,leS4iDGgd3,Rhybox,+212 622 585 1502,b'\x01',Tinghir
981,25850 Elmside Alley,19,isarahr8@istockphoto.com,Irina,33.6999858163,Sarah,5.7718737665,QP67ieiL,Blogpad,+1 729 718 4351,b'\x00',Tabaquite
982,21408 West Circle,7,rhandscomber9@sbwire.com,Randee,33.0098737195,Handscombe,8.6384717965,GTYYbYHPE9,Leenti,+52 653 591 9921,b'\x01',Cuauhtemoc
983,45 School Pass,17,jfaltinra@elpais.com,Jackelyn,37.0820616199,Faltin,8.3054296903,O79VkcFe2Bcs,Teklist,+994 886 587 6764,b'\x01',Digah
984,519 Bowman Way,35,nmowettrb@jugem.jp,Nanete,33.9000212649,Mowett,3.4496490757,VPvvytO7R2,Yambee,+86 847 140 6236,b'\x01',Sanqu
985,31109 Scoville Alley,44,fbeadesrc@huffingtonpost.com,Frederich,32.82760877,Beades,5.302401806,ofFzjUZb9I,Kazio,+357 454 264 7373,b'\x01',Nicosia
986,831 Arizona Street,45,mnancarrowrd@cyberchimps.com,Marlow,38.4140494299,Nan Carrow,6.6155269554,WkG9YUz,Livetube,+62 109 916 9692,b'\x00',Randu
987,52312 Rowland Trail,0,mwoodburnre@gov.uk,Martha,34.8433853041,Woodburn,5.6590060232,aRs2Kbo,Centidel,+86 390 990 8621,b'\x00',Cizhu
988,6 Sycamore Trail,16,aclimierf@twitpic.com,Albertina,35.6942701502,Climie,4.1773910471,P1NtcQ,Jayo,+66 714 638 7688,b'\x01',Khun Han
989,50469 Stone Corner Lane,31,feggletonrg@goodreads.com,Fabe,33.3823356845,Eggleton,7.6154368347,UJtyiyQSyU,Jayo,+62 402 124 9279,b'\x01',Sungi Liput
990,11 Reindahl Circle,45,rgrzeskowskirh@accuweather.com,Reina,37.917228963,Grzeskowski,6.538400915,kcqn6vwbn,Realfire,+57 796 487 8446,b'\x00',Mosquera
991,33 Erie Circle,15,lpateri@wikimedia.org,Letta,34.0458199138,Pate,7.8891762726,z36Rx6mdt,Demizz,+503 353 579 3239,b'\x00',Sonzacate
992,6 Paget Hill,4,cmaunrj@altervista.org,Claudius,33.0007609684,Maun,4.3001128496,agTFeS2LN,Buzzdog,+86 909 285 2056,b'\x01',Muzhou
993,4112 Granby Junction,37,ithomsrk@phoca.cz,Imogene,34.2554334458,Thoms,2.8577517045,De4o6Xrp,Kanoodle,+48 199 913 9040,b'\x01',Bojada
994,8147 Anzinger Junction,23,edeasonrl@hostgator.com,Elysha,32.3030308148,Deason,7.4321247523,sI1ugEzB,Edgetag,+506 717 163 8571,b'\x01',Fortuna
995,9142 Esch Parkway,15,vizaksonrm@arstechnica.com,Vivianne,34.0639978744,Izakson,8.383498864,AayLpp,Divanoodle,+63 971 316 0580,b'\x00',Samboan
996,9 Messerschmidt Court,7,boddboyrn@about.com,Bunni,32.6896128862,Oddboy,8.3462491781,ZlI88jjU,Yamia,+254 671 912 5760,b'\x00',Voi
997,8697 Center Plaza,33,kisetonro@ihg.com,Karita,37.0916809187,Iseton,5.6944653587,quJAXFZeHN5,Blogtags,+62 592 210 4624,b'\x00',Wailebe
998,1535 Oriole Avenue,12,ffishlockrp@wikimedia.org,Frasquito,32.9273187117,Fishlock,2.7065465074,Ev5ZGbLmv,Yozio,+86 664 864 2280,b'\x00',Ljiabao
999,47203 Lotheville Point,43,jbiasiorq@aol.com,Jacquetta,34.3445248508,Biasio,6.4187011299,qSINB0C,Trupe,+254 487 813 0020,b'\x01',Muhoroni
1000,6978 Mccormick Crossing,3,jhowattrr@reddit.com,Jocelyn,34.5019994284,Howatt,7.6003924599,gBGmV4,Digitube,+7 404 242 3061,b'\x00',Suna
